{"type":"Feature","properties":{"name":"Bama-8k","legacyMeetId":"8192","distance":"8k"},"geometry":{"type":"LineString","coordinates":[[-87.48137481429589,33.19395317978162],[-87.48186230196598,33.19159991553165],[-87.48191279205265,33.19124388723227],[-87.4819205383162,33.19101600155587],[-87.48191261659143,33.19084475777542],[-87.4818634405779,33.19069634597563],[-87.48175697900253,33.19053818994347],[-87.48161710111751,33.19043752544618],[-87.48146408128171,33.19036506280624],[-87.48128817421211,33.19032885144324],[-87.4811281393273,33.19035290908483],[-87.48079674256029,33.19046302166709],[-87.47998554227995,33.19070252655046],[-87.47931127756871,33.19102152951048],[-87.47880522860252,33.19123059758375],[-87.47868172042125,33.191232986406],[-87.47827795986694,33.19123751027492],[-87.47749271627585,33.19120719877326],[-87.47730214802424,33.19122920177803],[-87.47719593346663,33.19134728426057],[-87.4772021693479,33.19149505381854],[-87.4773943256435,33.19178537790683],[-87.47802990057453,33.19177656487358],[-87.47866334935617,33.19152167763927],[-87.47916933102687,33.19134295136245],[-87.47928039445443,33.19131232196479],[-87.47938794602338,33.1911697804508],[-87.47954356872633,33.19101646268032],[-87.4798510769822,33.19076094489163],[-87.48009061999878,33.19066776573271],[-87.48042648754837,33.19057299338859],[-87.4805121663596,33.1905758935555],[-87.48061873996375,33.19066341089581],[-87.48064934971424,33.1907971925767],[-87.48053954759179,33.19172209348793],[-87.48058619582235,33.1922235193613],[-87.4807077820597,33.19277884689379],[-87.4808588604587,33.19329235637804],[-87.48104963077462,33.19351800740116],[-87.48117566095748,33.19355863494446],[-87.48135801934309,33.19354744884593],[-87.4814535330182,33.19339767373449],[-87.48159712036924,33.19283023654412],[-87.48183361216002,33.19166605348128],[-87.48188110030489,33.19145696391843],[-87.4819326271129,33.19116655550026],[-87.48192532654191,33.19093469034198],[-87.48188665766047,33.19075425299253],[-87.4818074172601,33.19061282022972],[-87.48169893764263,33.19048960607702],[-87.48154445944044,33.19040557564878],[-87.48139233149627,33.19035364992659],[-87.48119710654593,33.190326195596],[-87.48086799260483,33.19045342743357],[-87.48055342892938,33.1905425187249],[-87.4801610773734,33.1906465030275],[-87.4795925996932,33.19086907159369],[-87.47899369395748,33.19118007722966],[-87.47870097170409,33.19125845212433],[-87.47842936228221,33.19122341742698],[-87.47763013819599,33.19119811045131],[-87.47739291651934,33.19120100835352],[-87.47720712847978,33.19109875778231],[-87.477066000144,33.19098701755442],[-87.47691667174095,33.19098264176155],[-87.47682016615427,33.19105596774165],[-87.47679416803591,33.1911369569204],[-87.47682952945578,33.19150404813707],[-87.47680066945617,33.19166955060427],[-87.47667524126594,33.19186698383224],[-87.47652895800981,33.1921810860797],[-87.47650285957619,33.19245803187907],[-87.47701640294868,33.1931707008487],[-87.4772666714968,33.19361489661723],[-87.47752975201604,33.19382900890592],[-87.4777651127992,33.19395213654342],[-87.47798376060736,33.19398335468691],[-87.47840350339814,33.19387287262543],[-87.47855738697095,33.19364425149088],[-87.47858893949333,33.19353836715234],[-87.47870625594337,33.1935445985678],[-87.47890057444918,33.19358127910352],[-87.47928648124172,33.19333311790946],[-87.47967537288906,33.19299457679941],[-87.4798283211361,33.19268625939534],[-87.4799808447046,33.19226238204859],[-87.48011825425581,33.1920994736138],[-87.48028804175355,33.19195174679115],[-87.48047228237698,33.19173142281252],[-87.48062246271644,33.19161538272393],[-87.48086863049022,33.19151815124467],[-87.48142068294304,33.19126099264244],[-87.4815337604013,33.19119761031898],[-87.4816680268007,33.19106426866028],[-87.48179564102207,33.19091865208291],[-87.48187149409999,33.19079479135175],[-87.48183467465347,33.19064574609513],[-87.48165377610391,33.19046183995759],[-87.48133416529323,33.19034267727297],[-87.48116700032531,33.19034539991564],[-87.48090158860924,33.19043925627481],[-87.48023733753843,33.1906103091634],[-87.47912606566236,33.19111362869764],[-87.47863824065256,33.19123304919536],[-87.47810906367451,33.19122527914006],[-87.47756311805722,33.19120789758925],[-87.47734733295474,33.19117938956528],[-87.47715801477452,33.19103905227463],[-87.47699222308144,33.19097202149337],[-87.4768621129747,33.19100820536424],[-87.47679357276522,33.19109717482068],[-87.47680382457398,33.19124599015565],[-87.47682911183831,33.19155997097995],[-87.47675112706007,33.19176993348987],[-87.47664176642898,33.19194863133749],[-87.47651417175736,33.19229158017169],[-87.47656782626781,33.19246643497782],[-87.47696195726742,33.19311285602706],[-87.47718616882051,33.19349419609228],[-87.47739797153884,33.1937243618043],[-87.47763241809164,33.19388018175193],[-87.47786071372032,33.19397979922288],[-87.47818901792478,33.19395201557844],[-87.47848524120229,33.19380783856909],[-87.47851402589538,33.19361035935808],[-87.47856377032225,33.19341296909887],[-87.4783121902611,33.19325285318029],[-87.47806647409358,33.19318238991882],[-87.47728117175724,33.19246686142251],[-87.47706845728754,33.19211109463491],[-87.47701476108828,33.19192677557793],[-87.47712361014736,33.19180864772122],[-87.47755004896567,33.19177730883783],[-87.47791776578536,33.19180629580957],[-87.47811082504778,33.19215281637665],[-87.4786869615485,33.1930120427736],[-87.47892123891985,33.19321952097621],[-87.47914368099157,33.19310086670387],[-87.47950828727559,33.19281302878085],[-87.47967170754698,33.19240188481198],[-87.47941685759318,33.19156846245698],[-87.47940193096183,33.19126611513678],[-87.4796298631944,33.19093759936574],[-87.47991798396293,33.19074326739675],[-87.48028677643477,33.19059291680053],[-87.48045926833291,33.19055799133444],[-87.48057318684259,33.19062097089287],[-87.48064001487182,33.19072283420513],[-87.48065012103494,33.19095423932026],[-87.48054164154645,33.19182669299173],[-87.48058074493538,33.19228600136152],[-87.48075639057191,33.19291797074121],[-87.48094649645024,33.19337861619371],[-87.4811244286405,33.19357211924385],[-87.48125594367256,33.19358508899803],[-87.48140564176838,33.19347639936276],[-87.48154439968884,33.19302258665088],[-87.48190180114429,33.19133075676771],[-87.48187956455307,33.19072886650063],[-87.4817296417318,33.19050772223169],[-87.48150327180656,33.19039619839189],[-87.4812343031917,33.19033552636572],[-87.4808672465346,33.19042395017912],[-87.48061334067953,33.19052734616848],[-87.48018761870618,33.19062780449573],[-87.47970944620016,33.19084310346238],[-87.47923724207959,33.1910461658542],[-87.47887803559173,33.19122331840503],[-87.47852631688039,33.19122705400692],[-87.47799243360174,33.19120270098747],[-87.47743349435505,33.19119350973326],[-87.47727733733802,33.19112479142931],[-87.47711346356598,33.19101387803509],[-87.47703225155122,33.19097356706045],[-87.47694743507742,33.19097925348418],[-87.47688712398278,33.1909868858994],[-87.47681897829804,33.19107338268797],[-87.47679543732472,33.19119506255428],[-87.47682842310371,33.19140312154698],[-87.476811982513,33.19161687312713],[-87.47671287627357,33.19181789425341],[-87.4765955223499,33.19203135466626],[-87.4765655820314,33.19213244778482],[-87.47651569462039,33.19238157584945],[-87.47658718248894,33.19252335357474],[-87.47699416918078,33.19314188032973],[-87.47715140836316,33.19343481243918],[-87.47721338647419,33.1935607341788],[-87.47745332990361,33.19378538081348],[-87.47756805861118,33.19386631743927],[-87.47767824318733,33.19392468962335],[-87.47792515591237,33.19396841100311],[-87.47808228278906,33.1939516200431],[-87.47829402933559,33.19389534323917],[-87.47851642235157,33.19373369282983],[-87.4785551288471,33.19356422399813],[-87.47846171848212,33.19331684844025],[-87.47816895381014,33.19322735195053],[-87.47795705879946,33.19309409225944],[-87.47756321181546,33.19274661566291],[-87.47722437259515,33.19237308150883],[-87.47703257000495,33.19202122360834],[-87.47706447925188,33.19186368908316],[-87.47719456173672,33.19179311075723],[-87.47769479529124,33.19177505037065],[-87.47796765806606,33.191856994373],[-87.47822024394064,33.19233378593036],[-87.47861334504718,33.19288522862248],[-87.47880747428502,33.19315022360197],[-87.47896727206252,33.19322111765369],[-87.47918211022207,33.19305956084087],[-87.47946425523301,33.19283688599883],[-87.47954932570855,33.1927214591075],[-87.47963029450477,33.19246929573151],[-87.4796382101131,33.19226448628395],[-87.47938056485239,33.19140408049784],[-87.47948183851167,33.19109290538552],[-87.4797716839176,33.19083539764531],[-87.48002929224022,33.19069426364319],[-87.48033141053519,33.19059449475082],[-87.48047400381792,33.1905757841583],[-87.4805864033218,33.19063975838645],[-87.48062082116758,33.19069377203922],[-87.4806476180812,33.19087365209754],[-87.48053641325772,33.19166958088729],[-87.48052542429731,33.19218442627925],[-87.48063428122063,33.19279345924063],[-87.48080757330466,33.19364503724082]]}}
