{"type":"Feature","properties":{"name":"Bama-6k","legacyMeetId":"8192","distance":"6k"},"geometry":{"type":"LineString","coordinates":[[-87.48136906529594,33.19395346931037],[-87.48193610248347,33.19118662971936],[-87.4819224911365,33.19092450114226],[-87.48190390631635,33.19075806925607],[-87.48184166529643,33.19062508792572],[-87.48170401750775,33.1904908249623],[-87.4816105750037,33.19043789947053],[-87.48153815662053,33.1903991613497],[-87.48142849736291,33.19035744462766],[-87.48132642894264,33.19032950288342],[-87.48122154295356,33.19031408395706],[-87.48112181719601,33.19035085558637],[-87.48096844409459,33.19041301499668],[-87.4808754040856,33.19042652330458],[-87.48054274650313,33.19053981606398],[-87.48000544311668,33.19069717186159],[-87.47920418759284,33.19107851494397],[-87.47889006320277,33.19121429327826],[-87.47869495003846,33.19124133592543],[-87.47835444263976,33.19124108893286],[-87.47759466109449,33.19119520866434],[-87.47736455599485,33.19119946132469],[-87.47726158145026,33.19125506285818],[-87.47716020777585,33.19137141657809],[-87.4772438966968,33.1915426620409],[-87.47783576419386,33.19259343358042],[-87.4781775820862,33.19301118411823],[-87.47854228988119,33.19335455343021],[-87.47861281413645,33.19340035885235],[-87.47884330917627,33.19328146462014],[-87.4790872492656,33.19312591530736],[-87.47912968093632,33.19302779971481],[-87.47905115779407,33.19288150885595],[-87.47831203354879,33.19178259677704],[-87.47837195120019,33.19170392240138],[-87.47868419080518,33.19151106569895],[-87.4791313064166,33.19136672947464],[-87.4793750485605,33.19123671736303],[-87.47945213381416,33.19110453306142],[-87.47969236962815,33.1908930744605],[-87.47988031411737,33.19073909185749],[-87.48009653373016,33.19064886658796],[-87.48031147649488,33.19059145990519],[-87.4805151431823,33.19057228132571],[-87.48063978087252,33.19068221072223],[-87.48065244800677,33.19088330396514],[-87.4805860432351,33.19139360620555],[-87.48053070451013,33.19170970089571],[-87.4805718581804,33.19218109047608],[-87.48069908577483,33.19270421494073],[-87.4808185962719,33.19315233968951],[-87.48097681381118,33.19342105699181],[-87.48113225319956,33.19354066533237],[-87.48127543780404,33.19356976559953],[-87.48142614006963,33.19343441347744],[-87.48157396853534,33.19287708626708],[-87.48190675566049,33.191386911014],[-87.48191889616075,33.19111585006132],[-87.48191588058397,33.19085699719376],[-87.4818744865275,33.19070260817356],[-87.48179313972149,33.19056275760285],[-87.48166300468071,33.19045916042933],[-87.48156893454814,33.19041249745396],[-87.48147880116633,33.19037613574154],[-87.48137744709838,33.19034181420322],[-87.48126469216358,33.19030731944567],[-87.48117808743767,33.19033672510803],[-87.48105826870375,33.19037420888488],[-87.48090314539398,33.19044494093328],[-87.4806634418018,33.1905231756994],[-87.48039788669013,33.19057223507549],[-87.4801941666474,33.19063499990021],[-87.47971516672627,33.19081420260754],[-87.47941007653442,33.1909574541864],[-87.47901658436832,33.19117911700351],[-87.47869034248484,33.19127628457584],[-87.47852065941078,33.19124948344069],[-87.47798262060743,33.1912115400877],[-87.47766883072663,33.19120654465364],[-87.47747414850714,33.19120514955517],[-87.47725745056121,33.19112091846652],[-87.47709479732336,33.19100839284647],[-87.4770214034603,33.19097450388019],[-87.47692008998068,33.19097901058404],[-87.47683979656529,33.19102071932861],[-87.47678857976278,33.19111525121824],[-87.47680400368124,33.19121920221835],[-87.476840350336,33.19143420413826],[-87.47681483445871,33.1916261179321],[-87.47677299204992,33.1917109880871],[-87.47661879557928,33.19197238221656],[-87.47658368785396,33.1920833072047],[-87.47651791029722,33.19232388197649],[-87.47655625586312,33.19243854390739],[-87.47701111509723,33.19318695902151],[-87.47708096383437,33.19331802482681],[-87.4771875933078,33.19352068728055],[-87.47739369404943,33.19375604692168],[-87.4776909099716,33.19394185297756],[-87.47799655152042,33.1939750248611],[-87.47829414629686,33.1939162140905],[-87.47851343852643,33.19378426443935],[-87.4785584828843,33.19363547397293],[-87.47857008361333,33.19354181591167],[-87.47861236364467,33.19355062571235],[-87.47869783600083,33.19354945083744],[-87.47880915010099,33.19359172343309],[-87.47892498165244,33.19356850257994],[-87.47907624655662,33.19346630814697],[-87.47943992557049,33.1932508654704],[-87.47969001099672,33.19297593275117],[-87.47979475727462,33.19280504957219],[-87.47994235475431,33.19234021848124],[-87.48002806716433,33.1921803243173],[-87.48016826071877,33.19205644569157],[-87.4803987097972,33.19184140872432],[-87.48058473577477,33.19162530166435],[-87.48072686188328,33.19158722380234],[-87.48124048490665,33.19135637974576],[-87.481515842707,33.19121163526678],[-87.48164936857778,33.19108412628608],[-87.48179948338155,33.19092522832693],[-87.4818714532107,33.19080483734745],[-87.4818577031196,33.19067510989171],[-87.48174735530638,33.19053060587756],[-87.48168052040961,33.1904786509287],[-87.48157561119046,33.19043020181852],[-87.48151055864841,33.19039459547115],[-87.48145154969839,33.19037781793013],[-87.48139633491814,33.19035827918749],[-87.48135198818329,33.19034870933621],[-87.48129180529698,33.1903313888932],[-87.48122917666593,33.19033754921973],[-87.48087984561114,33.19045053020899],[-87.4807014354447,33.19050200878674],[-87.48023726519831,33.19061309724325],[-87.47992951116959,33.19072040561358],[-87.47949695132696,33.1909241100657],[-87.47909438388216,33.1911409868517],[-87.47876491524401,33.19124805659734],[-87.47821653208517,33.19122912938819],[-87.47780988768906,33.19121869522047],[-87.47752463097044,33.19119352289077],[-87.47741651010196,33.19119454275914],[-87.47718305397788,33.19105756839804],[-87.47706051725255,33.19098105353414],[-87.47696496607672,33.19096878653481],[-87.47687916194549,33.1910013559967],[-87.47682094602196,33.19105938051224],[-87.476798666283,33.19116308125012],[-87.47680647709085,33.19128207485537],[-87.47683356146412,33.19153642477765],[-87.47680302728001,33.19166991835388],[-87.4767120325754,33.19183082900941],[-87.4766058331106,33.19201705328595],[-87.47655853462282,33.19218440346651],[-87.47652748249041,33.19237371781619],[-87.4765709929668,33.19246729024844],[-87.47699122075984,33.19313386498061],[-87.4770593259648,33.19327196546232],[-87.4771588140013,33.19345179555467],[-87.47735674399054,33.19369330502522],[-87.47763349411552,33.19390411579754],[-87.47786836721285,33.19396534973931],[-87.47814765927679,33.19395311556069],[-87.47841677508353,33.19387123296594],[-87.4785348610491,33.19372124319787],[-87.47855153988883,33.1935848378225],[-87.47855135244012,33.19344053668063],[-87.4784372537756,33.19331679859622],[-87.47828828762214,33.19324580706081],[-87.47808483021541,33.19318850490657],[-87.47763668037277,33.19282297408525],[-87.47735161755644,33.19255879240426],[-87.47716103408332,33.19232308564253],[-87.47705111918053,33.19207726784828],[-87.47700988738627,33.19193197585098],[-87.47708253432886,33.19184451446942],[-87.47721475981696,33.19177404462655],[-87.47749939148986,33.19178124828998],[-87.47788666916878,33.19178269005785],[-87.47798413357,33.19188156720493],[-87.47814285544403,33.19217156462943],[-87.47880393860787,33.19315090817201],[-87.47893571872227,33.19321930081038],[-87.47904152255204,33.19318574142569],[-87.47928742660946,33.19296768978289],[-87.47953005535554,33.19278574078888],[-87.47964949905021,33.19240503712226],[-87.47956730903178,33.19192317889188],[-87.47936221205683,33.19140317263331],[-87.47941107273712,33.19116977351828],[-87.4795960569872,33.19096873569686],[-87.47979292895309,33.19081007885746],[-87.48005241894467,33.19067833384133],[-87.48027840957978,33.19060771346177],[-87.480466627598,33.19057338476238],[-87.48058621362692,33.19063572510658],[-87.48064850196037,33.19078510707141],[-87.48062844234416,33.19114508832492],[-87.48055163598212,33.19155131535481],[-87.48051679441306,33.19196685240291],[-87.48053773590097,33.19223464588313],[-87.48081915509495,33.19366221773302]]}}
