<?xml version="1.0" encoding="UTF-8"?>
<kml xmlns="http://www.opengis.net/kml/2.2">
  <Document>
    <Placemark>
      <name>Boston Marathon</name>
      <LineString>
        <tessellate>1</tessellate>
        <coordinates>
          -71.517991,42.229944,0
          -71.517794,42.230148,0
          -71.517655,42.230292,0
          -71.517423,42.230548,0
          -71.517009,42.231129,0
          -71.516891,42.231313,0
          -71.516769,42.231446,0
          -71.51654,42.231644,0
          -71.516311,42.231824,0
          -71.515887,42.232035,0
          -71.514994,42.232393,0
          -71.513273,42.233058,0
          -71.511888,42.23349,0
          -71.510821,42.233956,0
          -71.509124,42.234724,0
          -71.507088,42.235968,0
          -71.506576,42.236195,0
          -71.506274,42.236274,0
          -71.505147,42.236416,0
          -71.504254,42.236519,0
          -71.503452,42.236588,0
          -71.502899,42.236583,0
          -71.501346,42.236409,0
          -71.500769,42.236358,0
          -71.500255,42.236367,0
          -71.499924,42.236365,0
          -71.499722,42.236393,0
          -71.498997,42.2365,0
          -71.498328,42.236609,0
          -71.497718,42.236732,0
          -71.494461,42.237493,0
          -71.493713,42.237676,0
          -71.493121,42.237896,0
          -71.492575,42.238128,0
          -71.492057,42.238383,0
          -71.490953,42.239003,0
          -71.489378,42.239809,0
          -71.488036,42.240443,0
          -71.48539,42.241658,0
          -71.483946,42.242322,0
          -71.479364,42.244444,0
          -71.477349,42.245182,0
          -71.477009,42.24535,0
          -71.476722,42.245525,0
          -71.475968,42.246115,0
          -71.475452,42.246562,0
          -71.475244,42.246753,0
          -71.475114,42.246905,0
          -71.474857,42.247328,0
          -71.474434,42.248132,0
          -71.473914,42.248644,0
          -71.473611,42.248987,0
          -71.47195,42.251243,0
          -71.471495,42.251651,0
          -71.471081,42.251966,0
          -71.470311,42.252548,0
          -71.469977,42.252807,0
          -71.4698,42.252966,0
          -71.469129,42.253617,0
          -71.468123,42.25464,0
          -71.467759,42.254939,0
          -71.467533,42.255092,0
          -71.467272,42.255253,0
          -71.466988,42.255391,0
          -71.466646,42.255482,0
          -71.465518,42.255687,0
          -71.464727,42.255864,0
          -71.463674,42.256134,0
          -71.462992,42.256333,0
          -71.462151,42.256603,0
          -71.460626,42.257073,0
          -71.459086,42.257545,0
          -71.457689,42.257961,0
          -71.45706,42.258125,0
          -71.456323,42.258288,0
          -71.455847,42.258382,0
          -71.454213,42.258711,0
          -71.453963,42.258773,0
          -71.45378,42.258836,0
          -71.453489,42.258944,0
          -71.452508,42.25946,0
          -71.451907,42.259789,0
          -71.451456,42.260071,0
          -71.450901,42.260467,0
          -71.450352,42.260914,0
          -71.449993,42.261286,0
          -71.449844,42.261537,0
          -71.44954,42.262182,0
          -71.449321,42.262566,0
          -71.449226,42.262696,0
          -71.449073,42.26285,0
          -71.448299,42.263502,0
          -71.447716,42.264297,0
          -71.446785,42.265171,0
          -71.446484,42.265678,0
          -71.445511,42.267665,0
          -71.445373,42.268,0
          -71.445216,42.268456,0
          -71.445178,42.268564,0
          -71.445103,42.26878,0
          -71.444734,42.269689,0
          -71.444428,42.270102,0
          -71.443869,42.270792,0
          -71.44359,42.271109,0
          -71.443279,42.271458,0
          -71.443157,42.271566,0
          -71.442941,42.271708,0
          -71.442611,42.271863,0
          -71.44189,42.272158,0
          -71.441208,42.27247,0
          -71.440824,42.272665,0
          -71.439754,42.273217,0
          -71.43892,42.273663,0
          -71.438339,42.273991,0
          -71.438045,42.274109,0
          -71.437629,42.274212,0
          -71.437153,42.274259,0
          -71.436709,42.274238,0
          -71.436182,42.274132,0
          -71.434475,42.273798,0
          -71.433312,42.273594,0
          -71.432199,42.273295,0
          -71.431255,42.272953,0
          -71.429993,42.272256,0
          -71.429679,42.272165,0
          -71.429251,42.272155,0
          -71.428956,42.272233,0
          -71.427877,42.272784,0
          -71.426864,42.273304,0
          -71.424793,42.274361,0
          -71.424029,42.274617,0
          -71.422678,42.275042,0
          -71.42166,42.275347,0
          -71.417596,42.276506,0
          -71.415336,42.277121,0
          -71.413098,42.277604,0
          -71.411135,42.278,0
          -71.40912,42.278394,0
          -71.406732,42.27893,0
          -71.399166,42.280655,0
          -71.399166,42.280654,0
          -71.395413,42.281441,0
          -71.39446,42.281626,0
          -71.393961,42.281683,0
          -71.390228,42.281944,0
          -71.387783,42.28211,0
          -71.381384,42.282482,0
          -71.379908,42.282513,0
          -71.375852,42.282566,0
          -71.375375,42.282613,0
          -71.374761,42.282702,0
          -71.374227,42.282786,0
          -71.370468,42.283407,0
          -71.368241,42.283773,0
          -71.367869,42.283798,0
          -71.367461,42.283788,0
          -71.366758,42.283657,0
          -71.364237,42.282945,0
          -71.363351,42.282714,0
          -71.362478,42.282515,0
          -71.361715,42.282337,0
          -71.361011,42.28222,0
          -71.359403,42.282225,0
          -71.35704,42.282524,0
          -71.354048,42.282916,0
          -71.351998,42.28319,0
          -71.351299,42.283286,0
          -71.34705,42.283832,0
          -71.34091,42.285005,0
          -71.340506,42.285085,0
          -71.340113,42.2852,0
          -71.334391,42.287332,0
          -71.331572,42.288535,0
          -71.329233,42.289777,0
          -71.322883,42.293207,0
          -71.321934,42.29357,0
          -71.320434,42.294023,0
          -71.319469,42.294297,0
          -71.318296,42.294635,0
          -71.316684,42.295162,0
          -71.315621,42.295453,0
          -71.313631,42.29581,0
          -71.311631,42.29605,0
          -71.308427,42.296175,0
          -71.305284,42.296234,0
          -71.298564,42.295932,0
          -71.296132,42.296163,0
          -71.292836,42.296616,0
          -71.29021,42.297519,0
          -71.289823,42.29771,0
          -71.289466,42.297981,0
          -71.28817,42.299854,0
          -71.287449,42.300893,0
          -71.286681,42.301866,0
          -71.285076,42.303583,0
          -71.284054,42.304395,0
          -71.282352,42.305646,0
          -71.280359,42.307026,0
          -71.278282,42.308567,0
          -71.276448,42.310374,0
          -71.274011,42.312855,0
          -71.273585,42.313292,0
          -71.273284,42.313578,0
          -71.272359,42.314157,0
          -71.271406,42.314764,0
          -71.269243,42.31619,0
          -71.265782,42.318576,0
          -71.265307,42.318875,0
          -71.264859,42.319237,0
          -71.264635,42.319446,0
          -71.264234,42.319986,0
          -71.263687,42.321056,0
          -71.263209,42.322296,0
          -71.262908,42.322869,0
          -71.262547,42.323385,0
          -71.26213,42.323857,0
          -71.261117,42.324742,0
          -71.260821,42.324928,0
          -71.260464,42.325066,0
          -71.259964,42.325169,0
          -71.258419,42.325294,0
          -71.257826,42.325359,0
          -71.257162,42.325487,0
          -71.25614,42.325847,0
          -71.255155,42.326159,0
          -71.254681,42.326347,0
          -71.253783,42.327002,0
          -71.253267,42.327286,0
          -71.252634,42.327694,0
          -71.251953,42.328157,0
          -71.251742,42.328303,0
          -71.250928,42.328904,0
          -71.250852,42.32899,0
          -71.250311,42.329328,0
          -71.249672,42.3296,0
          -71.249212,42.329754,0
          -71.248971,42.329787,0
          -71.248596,42.329952,0
          -71.248232,42.330359,0
          -71.247934,42.330755,0
          -71.247033,42.331939,0
          -71.246463,42.332486,0
          -71.245032,42.333597,0
          -71.243895,42.334458,0
          -71.242607,42.335319,0
          -71.242302,42.335571,0
          -71.241866,42.33619,0
          -71.241604,42.336563,0
          -71.240696,42.338156,0
          -71.239548,42.340058,0
          -71.239243,42.340445,0
          -71.238625,42.341047,0
          -71.23835,42.340853,0
          -71.237066,42.339974,0
          -71.236309,42.339674,0
          -71.235263,42.339411,0
          -71.234255,42.33931,0
          -71.229912,42.339219,0
          -71.22914,42.339131,0
          -71.228342,42.338979,0
          -71.226958,42.338448,0
          -71.225049,42.337277,0
          -71.224352,42.33692,0
          -71.223737,42.336744,0
          -71.222995,42.336675,0
          -71.221965,42.336691,0
          -71.221253,42.336772,0
          -71.220738,42.336905,0
          -71.220274,42.337085,0
          -71.219594,42.33744,0
          -71.219221,42.33753,0
          -71.219221,42.337531,0
          -71.218846,42.337552,0
          -71.218389,42.337492,0
          -71.21711,42.337041,0
          -71.21617,42.336841,0
          -71.215899,42.336843,0
          -71.2156,42.336897,0
          -71.214793,42.337202,0
          -71.213778,42.337637,0
          -71.213113,42.337844,0
          -71.212309,42.337995,0
          -71.211467,42.338014,0
          -71.210487,42.337912,0
          -71.209952,42.337875,0
          -71.209459,42.337897,0
          -71.209032,42.337966,0
          -71.208693,42.338055,0
          -71.207742,42.338379,0
          -71.207262,42.338516,0
          -71.206913,42.338568,0
          -71.205882,42.338605,0
          -71.204831,42.338472,0
          -71.204018,42.338263,0
          -71.203182,42.33799,0
          -71.202213,42.33783,0
          -71.201557,42.337805,0
          -71.19958,42.337937,0
          -71.198781,42.337919,0
          -71.198388,42.33787,0
          -71.198018,42.337768,0
          -71.197682,42.337653,0
          -71.197076,42.337314,0
          -71.196636,42.336998,0
          -71.195664,42.33602,0
          -71.195146,42.335788,0
          -71.194777,42.335726,0
          -71.194342,42.335743,0
          -71.193935,42.335825,0
          -71.193148,42.336058,0
          -71.192701,42.336156,0
          -71.192216,42.336205,0
          -71.19061,42.336206,0
          -71.188756,42.336238,0
          -71.186855,42.336353,0
          -71.185648,42.336494,0
          -71.184987,42.336594,0
          -71.184473,42.336627,0
          -71.18334,42.336588,0
          -71.181129,42.33636,0
          -71.179325,42.336143,0
          -71.178585,42.336113,0
          -71.178083,42.336164,0
          -71.177554,42.336313,0
          -71.176998,42.336589,0
          -71.176019,42.337071,0
          -71.175785,42.337142,0
          -71.175233,42.337251,0
          -71.174615,42.337276,0
          -71.173403,42.337095,0
          -71.172815,42.337078,0
          -71.172331,42.337159,0
          -71.172042,42.337273,0
          -71.171709,42.337518,0
          -71.171386,42.337783,0
          -71.170677,42.338462,0
          -71.170215,42.338796,0
          -71.169547,42.339135,0
          -71.168397,42.33953,0
          -71.167563,42.3397,0
          -71.166767,42.339845,0
          -71.165498,42.33999,0
          -71.164171,42.340062,0
          -71.162492,42.340031,0
          -71.160447,42.339969,0
          -71.159627,42.339895,0
          -71.158695,42.339753,0
          -71.157627,42.339499,0
          -71.156796,42.339227,0
          -71.156002,42.338908,0
          -71.154416,42.338163,0
          -71.154045,42.338032,0
          -71.153757,42.337983,0
          -71.15346,42.337964,0
          -71.153219,42.338021,0
          -71.152259,42.33715,0
          -71.151344,42.336412,0
          -71.151006,42.336033,0
          -71.150805,42.335984,0
          -71.150511,42.335939,0
          -71.150074,42.335885,0
          -71.146348,42.336751,0
          -71.139657,42.338137,0
          -71.137212,42.338753,0
          -71.134595,42.339371,0
          -71.133795,42.33947,0
          -71.131313,42.33949,0
          -71.130199,42.339597,0
          -71.129433,42.339729,0
          -71.128684,42.339885,0
          -71.12763,42.340201,0
          -71.125391,42.340978,0
          -71.122301,42.34169,0
          -71.112754,42.344372,0
          -71.111509,42.34469,0
          -71.106847,42.345993,0
          -71.106279,42.34617,0
          -71.105445,42.346417,0
          -71.104601,42.346736,0
          -71.099755,42.34807,0
          -71.099507,42.348185,0
          -71.099159,42.34828,0
          -71.097164,42.348782,0
          -71.096963,42.348769,0
          -71.095922,42.348792,0
          -71.094343,42.348823,0
          -71.092944,42.348831,0
          -71.092547,42.348834,0
          -71.09129,42.348844,0
          -71.090974,42.348841,0
          -71.09066,42.348849,0
          -71.090523,42.348858,0
          -71.090136,42.348913,0
          -71.089883,42.348964,0
          -71.089506,42.349015,0
          -71.089025,42.349028,0
          -71.088622,42.349067,0
          -71.088191,42.34915,0
          -71.087889,42.349236,0
          -71.087429,42.349321,0
          -71.087189,42.349324,0
          -71.086748,42.34938,0
          -71.086394,42.349471,0
          -71.086221,42.349518,0
          -71.08605,42.349561,0
          -71.085817,42.349119,0
          -71.08525,42.347951,0
          -71.084525,42.348151,0
          -71.082714,42.348631,0
          -71.079172,42.349598,0
        </coordinates>
      </LineString>
    </Placemark>
  </Document>
</kml>
