{"type":"Feature","properties":{"name":"Brooks-5k","legacyMeetId":"8289","distance":"5k"},"geometry":{"type":"LineString","coordinates":[[-117.1380350001584,32.73888165649708],[-117.14018570176,32.73878045392023],[-117.1405706742214,32.73859472001933],[-117.1407252384195,32.73844741340897],[-117.1411773917255,32.73816309744483],[-117.1416025818552,32.73805567040408],[-117.1418959961793,32.73793254598043],[-117.1421633325604,32.73785508609451],[-117.1422712012779,32.7376740269797],[-117.1425488636801,32.73759273908153],[-117.1426740618777,32.73757456523217],[-117.142738459525,32.7375974149104],[-117.1427786013487,32.7376936023508],[-117.1427966745227,32.73784259502466],[-117.1427091020475,32.73799722886969],[-117.142678686438,32.73810560880399],[-117.1425110446427,32.73819264872596],[-117.1421125650283,32.73830751038346],[-117.1416236295779,32.73850519868635],[-117.1413470880807,32.73860298487713],[-117.1409799370486,32.73875208597276],[-117.1407429612784,32.73878344016134],[-117.1403395010067,32.73903963975406],[-117.1398970875531,32.73914832146556],[-117.1395151361397,32.73925704355273],[-117.1394206244773,32.73937876932205],[-117.1394056949214,32.73955611238675],[-117.1393523214733,32.73964325977136],[-117.1393189749762,32.73979495871205],[-117.1391764240048,32.73979356161161],[-117.1388410538723,32.73981888430271],[-117.1387130775252,32.73975173643453],[-117.1386025375374,32.73949285532861],[-117.1384957699436,32.73927544799297],[-117.1383314724876,32.73915256831617],[-117.138150440748,32.73912847094424],[-117.1379663286338,32.73908767883597],[-117.1377213311455,32.73913566422878],[-117.1376178563036,32.7392056864018],[-117.1374948373907,32.73934403956639],[-117.1374222393875,32.73946255162247],[-117.1373172087384,32.73956076022219],[-117.1371934784651,32.73957792754668],[-117.1371101031694,32.73954114270168],[-117.1370288491594,32.73944842151375],[-117.1369194012742,32.73922233361917],[-117.1368773999657,32.73901590132789],[-117.1367259666156,32.73877357191308],[-117.136675832042,32.73858343289863],[-117.1366417864271,32.73843275114292],[-117.1365868993342,32.73834712695201],[-117.1364125630097,32.73835717448053],[-117.1361645635951,32.7384641350886],[-117.136116359758,32.73856468197113],[-117.1361182250485,32.73866236319134],[-117.1361508846371,32.73877697835665],[-117.1362535406735,32.73890830783344],[-117.1363676427318,32.73897925463712],[-117.1365177922684,32.73902979523638],[-117.1366245693149,32.73906645937852],[-117.1366653462454,32.7391320881545],[-117.1366773118931,32.73919831644561],[-117.1366507114266,32.73952323145478],[-117.1364672581441,32.7400229262545],[-117.1363414414794,32.74016781508995],[-117.1361122719457,32.74020567373563],[-117.1358277568978,32.74023924724516],[-117.1355428008217,32.74013454729702],[-117.1353113449838,32.74001010622733],[-117.1350684388011,32.73986254288372],[-117.135009235186,32.73969098626222],[-117.1348950352126,32.73970331687514],[-117.1347809742701,32.73977604379503],[-117.1347768690289,32.7397827766202],[-117.1346605269624,32.74003309784352],[-117.1347023604042,32.74080318183006],[-117.1347974625207,32.74086296102239],[-117.1352660302344,32.74084974832527],[-117.1356145321607,32.74086137471306],[-117.1366176304215,32.74082575579585],[-117.1366802026205,32.74050258965078],[-117.1366796085919,32.74049096321937],[-117.1366348679184,32.74024187188356],[-117.1365733482025,32.74005613416817],[-117.1367753414583,32.74002768737058],[-117.1369500761422,32.74006520753361],[-117.1373464342121,32.74003427785129],[-117.1376271653917,32.74002722173594],[-117.1376982561057,32.73983538963731],[-117.1377557313721,32.73928098992166],[-117.137766645402,32.73917838800066],[-117.1381570169622,32.73889721950366],[-117.1398287939603,32.73881070791933],[-117.1404258590265,32.73867756799469],[-117.1406281183255,32.73853684999956],[-117.1409279350778,32.73826501126605],[-117.141482609217,32.73808513531704],[-117.1417816278789,32.73800209550186],[-117.1420853423027,32.73785991190147],[-117.1422473245622,32.73778541690825],[-117.1424085147184,32.73763223193274],[-117.1426218204063,32.73758763270074],[-117.142721116269,32.73758974654343],[-117.1427629952022,32.73764122625266],[-117.1427990217488,32.73775552779933],[-117.1427615842752,32.73793234196279],[-117.1427103584434,32.73806250607451],[-117.1425548951798,32.73816388298103],[-117.1422490963447,32.73828023410534],[-117.1418971308261,32.73838956224322],[-117.141210088717,32.7386554452429],[-117.1408276430472,32.7387647465429],[-117.1405302715535,32.73892380835103],[-117.1401254395723,32.73909985045196],[-117.1396457061639,32.73920740310356],[-117.1394592582111,32.73931295404668],[-117.1394221659624,32.73949117987204],[-117.1393429111239,32.73969964969454],[-117.1392414396626,32.73981372077513],[-117.1390064390213,32.73981628315359],[-117.1387534295515,32.73979168305994],[-117.1386407356781,32.73958932698653],[-117.1385512698325,32.73937483684232],[-117.1384309297396,32.73922860472184],[-117.1382383264194,32.73914047584545],[-117.1380407972613,32.73910973765769],[-117.1378457650068,32.73909486459757],[-117.1376449555907,32.73916817712334],[-117.1375408911605,32.73929640115379],[-117.1374474272448,32.73941269119877],[-117.137370078188,32.73952882169102],[-117.1372479597817,32.73958025631139],[-117.1370656315588,32.73952066719232],[-117.1369948816594,32.73937200285251],[-117.136894668349,32.73916151666581],[-117.1368037808804,32.73891362687117],[-117.1366930707958,32.7386716941058],[-117.1366556811034,32.73850843188222],[-117.1366205577936,32.73839138937222],[-117.1364985895923,32.738357267473],[-117.1363224578716,32.73836331846423],[-117.1361201281474,32.73852993301532],[-117.1361034996257,32.73860874355027],[-117.1361355792429,32.73873548305325],[-117.1362070118756,32.7388468635964],[-117.1363194152857,32.73894624039517],[-117.1364243750984,32.73899486545366],[-117.136566142414,32.73903909988115],[-117.1366810368863,32.73925851467079],[-117.1366640557518,32.73947041875598],[-117.1366116920362,32.73968025149709],[-117.1364894354229,32.73995178875492],[-117.1364047945147,32.7401104369026],[-117.1362267413614,32.74018958199241],[-117.1359469546365,32.74024010324754],[-117.1357036691351,32.74021910552025],[-117.1354100316775,32.74006537564254],[-117.1351729282399,32.73994035674621],[-117.135035111307,32.73979431567431],[-117.134948715711,32.73969179173618],[-117.134827741331,32.73974601693585],[-117.1347201766581,32.73990148757133],[-117.1346545388314,32.74015713433305],[-117.1346917443902,32.7407492603398],[-117.1347582999293,32.74084581798083],[-117.1349430474188,32.74086600066211],[-117.1352125784794,32.74086606995476],[-117.1360413178093,32.74085603758702],[-117.136544287601,32.7408433851298],[-117.1366567333147,32.74063952399526],[-117.1366691503382,32.74037524668455],[-117.1365955197047,32.74015293942519],[-117.1366212230055,32.74006823668661],[-117.1368954375708,32.74003968211871],[-117.137112589806,32.74005459443121],[-117.1374715964111,32.74002478978957],[-117.1376688757919,32.73996281176866],[-117.1377162739632,32.73972189924259],[-117.1378159677907,32.73913485786128],[-117.1380620316403,32.73897068530493],[-117.1389338137631,32.73884189048077],[-117.1399809044946,32.73878238938367]]}}
