{"type":"Feature","properties":{"name":"D3PA-6k","legacyMeetId":"5904","distance":"6k"},"geometry":{"type":"LineString","coordinates":[[-77.37854377567554,40.16948633116289],[-77.37851721031699,40.16948976110125],[-77.37840072393679,40.16950236277967],[-77.37827919650535,40.16950793359449],[-77.37812127860333,40.16950986448835],[-77.37796062971894,40.16951239247057],[-77.37780070357798,40.16950710349697],[-77.37765517209665,40.16951249204736],[-77.377537045118,40.16952432882504],[-77.37739252998988,40.16952208765464],[-77.37724820285511,40.16952052632827],[-77.37711093165898,40.1695198795921],[-77.37695636401908,40.16953161345803],[-77.37680464283049,40.16954766755917],[-77.37665078537457,40.16957027144124],[-77.37648499987984,40.16959391336475],[-77.37632058783353,40.169618226944],[-77.37615068107168,40.16964696015287],[-77.37599005304239,40.16967120798636],[-77.37586485240844,40.1696889486323],[-77.37572434368747,40.16970899331855],[-77.37556287779645,40.16972620254531],[-77.37538922774412,40.16974692595898],[-77.37522111690072,40.16976577475035],[-77.37505372254932,40.16978675006842],[-77.37489055483418,40.16981232598007],[-77.37472432505285,40.16985041032508],[-77.37461259768392,40.1698907421476],[-77.37450278553705,40.16997811171586],[-77.37447494663537,40.17009547875399],[-77.37447618702657,40.1702120563775],[-77.37449460788385,40.17033315700075],[-77.37452965412031,40.17045915919265],[-77.3745950920151,40.17057634181764],[-77.3746924669979,40.17068445847058],[-77.37479843123532,40.17077929610785],[-77.37489752569101,40.17086200690667],[-77.37500480451033,40.17094647512116],[-77.37511541996837,40.171029684114],[-77.3752337409265,40.17110594272599],[-77.37536027223204,40.17117135413856],[-77.37550986427003,40.17120370103779],[-77.37566789215137,40.17121255200945],[-77.375844044458,40.171208573876],[-77.37599387300908,40.17122332537107],[-77.37614798166597,40.1712304452046],[-77.37629625742856,40.17123186989736],[-77.37641312022731,40.1711700002331],[-77.37645578191461,40.17104310289298],[-77.37652842980778,40.17093743043572],[-77.37658347520532,40.17080440398309],[-77.37661209030912,40.1706947462436],[-77.37666627012602,40.17058240041558],[-77.37674182005935,40.17048578853488],[-77.37682218910011,40.17038266096129],[-77.3769142500384,40.17029338936939],[-77.37701722463859,40.17021302712079],[-77.37715007325788,40.17014370279069],[-77.37729027399304,40.17009435369194],[-77.37744838309077,40.17007705025019],[-77.37760455622725,40.17009101733405],[-77.37775377444812,40.17013041273349],[-77.3778854901474,40.17019347974314],[-77.37801209917315,40.17026817900025],[-77.3781414475762,40.17032510401386],[-77.37827874817799,40.17034665832356],[-77.37839032622608,40.17028731932493],[-77.37845275810069,40.17018533825653],[-77.37854691143055,40.17008644192296],[-77.37862796207261,40.16998865038929],[-77.37871417262323,40.16989734975211],[-77.37879679300167,40.16981566323092],[-77.37889222111406,40.16973157373601],[-77.37897369508008,40.16965818075821],[-77.37906584885141,40.16956571073931],[-77.37909496249013,40.16947035361571],[-77.37905767708978,40.16938049040309],[-77.37896865693536,40.16927730846177],[-77.37884956271427,40.16924639980312],[-77.37872565710111,40.16922366104634],[-77.37860769484192,40.16923613209806],[-77.37847158117123,40.16925439024108],[-77.37830950559709,40.16926807407263],[-77.37814520386091,40.16927957539559],[-77.37802309074213,40.16928977049166],[-77.37786536640373,40.16930328490402],[-77.37773352797709,40.16931291586386],[-77.37759300998735,40.1693260846969],[-77.37746521380437,40.16933507155827],[-77.37734534915782,40.16934054488913],[-77.37722806306734,40.16934449706678],[-77.37710679554091,40.16935024764958],[-77.37698308838108,40.1693584109019],[-77.37681007454107,40.16937845469573],[-77.37668998359761,40.16939235663833],[-77.3765328627016,40.16941589606434],[-77.376389051309,40.16945098656503],[-77.37626190413893,40.16946738439151],[-77.37613663502496,40.16948462380832],[-77.37601137066655,40.169495816551],[-77.37583945079255,40.16949643142222],[-77.37566754804247,40.16949693873265],[-77.37554548239578,40.16949343406729],[-77.37541706866357,40.16948671812994],[-77.37527115324231,40.16947445257128],[-77.3751495799369,40.16947166109238],[-77.37494379476618,40.16946136070323],[-77.37481507352486,40.1694560502619],[-77.37469474202993,40.16944115798969],[-77.37456252895889,40.16937093301016],[-77.37452139699829,40.16926199812135],[-77.37453084923759,40.16914953088631],[-77.37458251706539,40.16903021989786],[-77.37464074110197,40.16892483657736],[-77.37475477392587,40.16885874921466],[-77.3748661877102,40.16882772426496],[-77.37500087311183,40.16882655645301],[-77.37521825725835,40.16882067553993],[-77.3753710647405,40.16880655950533],[-77.37553438227037,40.16879608148713],[-77.37569246143273,40.16878776935575],[-77.37583714823032,40.16877899307813],[-77.37597197296827,40.16876989599997],[-77.37610342567798,40.16876385415726],[-77.37623343876498,40.16875919531156],[-77.37635151660197,40.1687491028023],[-77.37652078182752,40.16873362986397],[-77.37668772301146,40.16871201318502],[-77.3768162367728,40.16870790933195],[-77.3769506238611,40.16869999285425],[-77.3770813016256,40.16869500902517],[-77.37721007330397,40.16868301750586],[-77.37734554641834,40.16867270441502],[-77.37748614235856,40.16866723644824],[-77.37762875739185,40.16865225003917],[-77.37777131475657,40.16863908027101],[-77.37791203929508,40.1686198035036],[-77.37804845653798,40.16861378502186],[-77.37818931988207,40.16860936515044],[-77.37833697397805,40.16860047716819],[-77.37847825897303,40.16859650665246],[-77.37861546278387,40.16858087974916],[-77.37873855896154,40.16857155343812],[-77.3788619949328,40.16856228313465],[-77.3789926770966,40.16854929593349],[-77.37913194403757,40.16853402126925],[-77.37927635398927,40.16852792843741],[-77.37942104155539,40.16851719538394],[-77.37957365049402,40.16850618098567],[-77.3797230122988,40.16849234944288],[-77.37986760207558,40.16848162385924],[-77.38000527250932,40.16847008349129],[-77.38015480571859,40.16845997090582],[-77.38030470817068,40.16844957043923],[-77.38045147823328,40.16843827820303],[-77.38059069920104,40.1684289532035],[-77.38072416654873,40.16842486660332],[-77.38087250155357,40.16842092028138],[-77.38101330199083,40.16841137967665],[-77.38115356543038,40.16840253333527],[-77.38129378613795,40.16839161257951],[-77.38143421178391,40.16837679535475],[-77.38156328011131,40.16836102365205],[-77.38168726319283,40.16836588988592],[-77.38181400861818,40.16845924731453],[-77.38188496686247,40.16853360549384],[-77.38196283550194,40.1686054500486],[-77.38204459130074,40.16868133027357],[-77.38213000572942,40.16875990409464],[-77.38220917854116,40.16883303098918],[-77.38232590590533,40.1689408722704],[-77.38240705437853,40.16902046672288],[-77.38250362517554,40.16910060290218],[-77.38260174960314,40.16919210497653],[-77.38270671626233,40.16928747334545],[-77.38280921494182,40.16937979736927],[-77.3829186277297,40.16946802400065],[-77.3830175479227,40.16955251409256],[-77.38311052756164,40.16963540364636],[-77.38319257626189,40.16970639342077],[-77.38327616911825,40.16978308812401],[-77.38335424235589,40.16986288313328],[-77.38342799506208,40.16994142172327],[-77.38352040011968,40.17004356745821],[-77.38360006371477,40.17012440551827],[-77.3836805492136,40.1702009507843],[-77.38384438044037,40.17024707887029],[-77.38396494049607,40.17018871680957],[-77.38409257938895,40.17013077403062],[-77.38424421741055,40.17007346375664],[-77.38438975113813,40.1700210989486],[-77.3845219837464,40.16996759764531],[-77.38464364843415,40.16991285303518],[-77.3847562425183,40.16987032155436],[-77.38486254382107,40.1698297624816],[-77.38505349137284,40.16981307403513],[-77.3851614752684,40.16986411917082],[-77.3852502430378,40.16992990593344],[-77.38531946301963,40.17000934066696],[-77.38541334890708,40.17010786528483],[-77.38548311008581,40.17018464634607],[-77.38555019512333,40.17026697533072],[-77.38556384451299,40.17037693453643],[-77.38557362231131,40.17046936335456],[-77.38561751166472,40.17056085080473],[-77.38567722859472,40.17065473523567],[-77.38580492717082,40.17073724475046],[-77.38590088282464,40.17082659812929],[-77.38598770837879,40.17093562612366],[-77.38602087069133,40.17105770585127],[-77.3859707015394,40.17114339335655],[-77.38582365664524,40.17113390415867],[-77.38567332080254,40.17110909869364],[-77.3854986617748,40.1711077533827],[-77.38538526078449,40.17113411385964],[-77.38522461090983,40.17119192607929],[-77.38509795680214,40.17125538894451],[-77.38499950272505,40.17134620595691],[-77.38490374375827,40.17141529053333],[-77.38478590619492,40.17146549809361],[-77.38462016052195,40.17150195688393],[-77.38450440713551,40.17152506088279],[-77.38433404239922,40.17153034012818],[-77.38418030577833,40.17149401263],[-77.38408391914604,40.17140177425244],[-77.38395312139278,40.17133009976791],[-77.38382790950696,40.17130082676348],[-77.38370065256129,40.17125131927251],[-77.38356892205123,40.17119091334353],[-77.38343884706727,40.17112259809672],[-77.3833374012497,40.17104223839096],[-77.3832537931728,40.17096443325855],[-77.38317037762798,40.17089865878881],[-77.38305810855995,40.17080761042576],[-77.38294742392195,40.17070984921352],[-77.38283013787915,40.17065025276903],[-77.38267184872976,40.17066911937044],[-77.38255697087497,40.17070413869706],[-77.382440771938,40.17073779621395],[-77.38232750770624,40.17077131354571],[-77.38217120437183,40.17081506128072],[-77.38210978918703,40.17092263935633],[-77.38213769899826,40.17104329777103],[-77.38220593624742,40.17116331529461],[-77.38225673745417,40.17125826313745],[-77.3823076158901,40.17137246967017],[-77.38236452539262,40.17147718857873],[-77.38241036210074,40.17157370281151],[-77.38247949811831,40.17164701620514],[-77.38262983943001,40.17165979395708],[-77.38275079314606,40.17165446983602],[-77.38288322207181,40.17165933395614],[-77.38305267501438,40.17165223901632],[-77.38319201067308,40.17165188624283],[-77.38332574716134,40.17165875530104],[-77.38361156239456,40.17168256473075],[-77.38374941784838,40.17168845171543],[-77.38387067174313,40.17169629898552],[-77.38400599510236,40.17170775503195],[-77.38414270026357,40.17172082253219],[-77.38429237873035,40.17174225556985],[-77.3844321415909,40.17175251152076],[-77.38456824657324,40.1717551184398],[-77.38471142579309,40.17173895213521],[-77.38485521327746,40.171707137726],[-77.38502658516573,40.17167782005051],[-77.38514863414804,40.17165874997621],[-77.38527160782806,40.17162453880773],[-77.3853885337816,40.17159284108502],[-77.38551789514426,40.17156542945546],[-77.38567827056306,40.17150356284458],[-77.385804502689,40.1714538432623],[-77.38592007135071,40.17141604705883],[-77.38603942722517,40.17142971369582],[-77.38607775165188,40.17154665255922],[-77.38605123503655,40.17165465298417],[-77.38604531102048,40.1717484245984],[-77.38618302335666,40.17177172413325],[-77.38631796824274,40.17175603768789],[-77.386465901486,40.17174439439344],[-77.38664472767206,40.1717602278897],[-77.38679443520708,40.17174657330072],[-77.38692357112572,40.17175217077344],[-77.3870105535256,40.17167445005887],[-77.38708521246954,40.17158849863463],[-77.38718901273461,40.17151723231812],[-77.38729429000458,40.17145481662918],[-77.3874199003072,40.17141994422915],[-77.38756471006819,40.17138670745482],[-77.38770799527691,40.17134317489586],[-77.3878457528258,40.17129314032805],[-77.38798470429128,40.1712526086382],[-77.38812451491026,40.17121918126871],[-77.3882667945032,40.17119872299112],[-77.38838380708901,40.17118935014898],[-77.38850711852295,40.17120289580176],[-77.38860738547062,40.17126510622937],[-77.38868663220362,40.1713517356844],[-77.38876328159357,40.17144802554304],[-77.38891300928842,40.17159792105971],[-77.38901231018208,40.17168517810093],[-77.38913012292038,40.17178596677723],[-77.38924580929226,40.17188285614036],[-77.38934791883092,40.17197242923655],[-77.38945352731648,40.17206306944801],[-77.38955406305972,40.1721541715869],[-77.38965570737273,40.17225350579756],[-77.38974822545359,40.17235374110134],[-77.38983160417284,40.1724501832493],[-77.3899021258477,40.17254537324691],[-77.39000034720432,40.17263203700176],[-77.39009874682652,40.17272295888837],[-77.3901842828962,40.1728085841136],[-77.39026565898955,40.17289678678781],[-77.3903395819705,40.17297880657249],[-77.39041399482372,40.17305888311389],[-77.39053358512389,40.17315048411993],[-77.39061821520944,40.17323689241805],[-77.39068851155805,40.17345529242132],[-77.3906990572368,40.17357104844476],[-77.39071297947562,40.17367936811735],[-77.39069518275518,40.17381113326068],[-77.39059698059677,40.17390498329647],[-77.39043303869835,40.1738954749128],[-77.39026465555835,40.17389004062193],[-77.39009103832775,40.17389039272338],[-77.3899631219743,40.17388426357892],[-77.38983927163822,40.17389073096609],[-77.3897132272597,40.17389332173487],[-77.3895880798273,40.17389321375803],[-77.38945101774517,40.17389109555913],[-77.38931234489445,40.17389327282943],[-77.3891597558034,40.17389513126966],[-77.38901235263722,40.17389942049829],[-77.3888636657708,40.1739018327908],[-77.38871525942506,40.17390362952157],[-77.38857125525593,40.17390421896334],[-77.38844683299935,40.17390344584943],[-77.38830232066643,40.17386570244368],[-77.38826045973511,40.17376837627451],[-77.38822732347147,40.17366263169726],[-77.38821525944836,40.1735368020129],[-77.38821796553958,40.17344173906714],[-77.38821741094927,40.17334064032653],[-77.38821718785883,40.17323182699045],[-77.38821448998803,40.17314034452264],[-77.38820669534455,40.17305001030581],[-77.38822695303075,40.17295892987689],[-77.38835396488912,40.17287240741527],[-77.38837986941509,40.17278075312678],[-77.38825018671307,40.1727134912539],[-77.38813665551693,40.17268454698225],[-77.38800267351704,40.17268273227723],[-77.38784107801824,40.17268105330026],[-77.38770030719296,40.17265472629565],[-77.38754987393479,40.17265496221111],[-77.38740137234039,40.17271367388189],[-77.38733925927832,40.17280856043735],[-77.38727564748125,40.17290327652513],[-77.38717121391883,40.17300958687312],[-77.38708356730017,40.17308704504686],[-77.38699528195372,40.17316249574199],[-77.38690702552928,40.17324388980777],[-77.38682774255828,40.17333482501477],[-77.38676601321853,40.17342357709934],[-77.38669012577465,40.17349469959397],[-77.38660689412052,40.17355904760342],[-77.38652296610127,40.1736356781018],[-77.38644607058727,40.17371859043166],[-77.386391357411,40.17380802326313],[-77.38629438695489,40.17391194341032],[-77.38613656942313,40.17389526370152],[-77.38601455260358,40.17386169400429],[-77.38589484868105,40.17383532568633],[-77.38577559037611,40.17380905170363],[-77.38562283912424,40.17377832712189],[-77.38546768466472,40.17374433131965],[-77.38531555215245,40.17371496210153],[-77.38518324830979,40.17367705459411],[-77.38504980022128,40.17362936570123],[-77.38493504359323,40.17358938367908],[-77.38479481793865,40.1735322587358],[-77.38466073995735,40.17348234447194],[-77.38449940690624,40.17343403115223],[-77.38433311023668,40.17338583021515],[-77.38421597023783,40.17335081780561],[-77.38410252339224,40.17331976170598],[-77.38396644958543,40.17328384675338],[-77.38384664885483,40.17325255586338],[-77.38367983751256,40.17322701745702],[-77.3835288669122,40.17322391702195],[-77.38336620428191,40.17321910858126],[-77.38321100671153,40.17321789166419],[-77.38306608804074,40.17321020917626],[-77.3829417822153,40.17316495365777],[-77.38290615460971,40.17305060662792],[-77.38303007464279,40.17292923112444],[-77.38309552760433,40.17283945406037],[-77.38308832507185,40.17272346888242],[-77.38306591891744,40.17259066059602],[-77.3830283396412,40.17248969834671],[-77.38298469671393,40.17239976716841],[-77.38285480129585,40.1723138993328],[-77.38274707554365,40.17221523182932],[-77.38267434961774,40.17214102574839],[-77.38262161249533,40.17205908734992],[-77.38256920502414,40.17197426606214],[-77.3825076000223,40.1718733141993],[-77.38244897245897,40.17178791563097],[-77.38236087486197,40.17171354274425],[-77.3822352141923,40.17167251046232],[-77.38207613256232,40.17168423691202],[-77.38196308339268,40.17170887943409],[-77.38179504059343,40.17173975187747],[-77.38168466505063,40.17177075273925],[-77.38156786596703,40.17179531097384],[-77.3814248822233,40.17182871644859],[-77.38129121539419,40.17181523466011],[-77.38115688997006,40.17174078255328],[-77.38107343046566,40.1716267092498],[-77.38106479024506,40.17150403349418],[-77.38113363166318,40.17142381781047],[-77.38125925907472,40.17132681443212],[-77.38134499299102,40.17125046320749],[-77.38142871803569,40.17117187841531],[-77.38151855430989,40.17109549723018],[-77.38160193972061,40.17102527378177],[-77.38170003801437,40.17094031230403],[-77.38178938886078,40.17086397949036],[-77.38185320632982,40.17078603682711],[-77.38181310121979,40.17067092297291],[-77.3817832445206,40.17055717004162],[-77.38175161116709,40.17042470732071],[-77.38172470641055,40.17033306921044],[-77.38170368986171,40.17024388612454],[-77.38168402488813,40.17015421429012],[-77.3816567548487,40.17006430041594],[-77.38162164789365,40.16997146550909],[-77.38158715015922,40.16987191820409],[-77.3815514934088,40.16977021973044],[-77.38150999409548,40.1696657592266],[-77.38146324824238,40.16956975558421],[-77.38142243394154,40.16946901949406],[-77.38138063128943,40.16936936315044],[-77.38134427914645,40.16928157628695],[-77.38129238158149,40.16916605181062],[-77.38125023224065,40.16905807421219],[-77.38120525487753,40.16894737295327],[-77.38114372046377,40.16882583042577],[-77.38107486508683,40.16870462302616],[-77.38096549193848,40.16860729499518],[-77.38076703652919,40.16859862527636],[-77.3806102909166,40.16859197526043],[-77.38048857455306,40.16858596006424],[-77.38030763559277,40.16857741014934],[-77.38017334286681,40.16856911091723],[-77.3800471366407,40.16856415256789],[-77.37992674400917,40.16856127490104],[-77.37974995190639,40.16856237749182],[-77.37959469048621,40.16858075194736],[-77.37946990891867,40.16857578821835],[-77.37928956147371,40.1685976209798],[-77.3791633647599,40.16860387641503],[-77.37904166092954,40.16860889031845],[-77.37891754368381,40.16861608167869],[-77.37878268448249,40.16862822947774],[-77.37864606917532,40.16863709826209],[-77.3785095596312,40.16864827040826],[-77.37837655981816,40.16865886678694],[-77.37823685836281,40.16866619948611],[-77.37809284980862,40.16867533858189],[-77.3779593010276,40.16869450146446],[-77.37783135217579,40.16874302093436],[-77.37776446466334,40.16882477589654],[-77.3777645925766,40.16893242238223],[-77.37781087946378,40.16904848823],[-77.37786726138424,40.16923588506761],[-77.37789726484743,40.1693289340552],[-77.37792968878436,40.16942097764894],[-77.37796358607225,40.16950732468052],[-77.37800663057797,40.1696215642225],[-77.37804758187103,40.16972305947073],[-77.37808423059265,40.16980889635194],[-77.378146281848,40.16989080455351],[-77.37817825093292,40.16998753746136],[-77.37818134446849,40.16998239798846]]}}
