{"type":"Feature","properties":{"name":"D3PA-8k","legacyMeetId":"5904","distance":"8k"},"geometry":{"type":"LineString","coordinates":[[-77.37845934774319,40.16949580490959],[-77.37840957278807,40.16949487133324],[-77.37826284431085,40.16950480060952],[-77.37812055000178,40.1695186850357],[-77.37795688769542,40.16953027557992],[-77.37783822383984,40.1695419691712],[-77.37767690029655,40.16955636413469],[-77.37751485649056,40.16956790777358],[-77.37738588839044,40.16957590166601],[-77.37725974581069,40.16958753672331],[-77.37712711127226,40.1695973928709],[-77.37698561624653,40.16960838935138],[-77.37684560003733,40.16961071118335],[-77.37671139636761,40.16962508733667],[-77.37656790098602,40.16963912641382],[-77.37641986711435,40.16965353137269],[-77.3762762642848,40.1696745636084],[-77.37613526933976,40.16968887674572],[-77.37599674174469,40.1697055752388],[-77.37587751679102,40.16971515456198],[-77.37576080762989,40.16973038811558],[-77.37559131917992,40.16975072587834],[-77.37546202851503,40.16976221892445],[-77.37533582180741,40.16977499738706],[-77.3752137198239,40.16978451171056],[-77.37508471196425,40.16980029721148],[-77.37495815210715,40.16981554550198],[-77.37483210989815,40.16983343425709],[-77.37470562282158,40.16985135335014],[-77.37459611266898,40.16989537948464],[-77.37450650801206,40.17000935595062],[-77.37449437112316,40.17013865433886],[-77.37450417360809,40.1702770702304],[-77.37452844653048,40.17037051182046],[-77.37456010613506,40.17046470666382],[-77.37460569851706,40.1705521151948],[-77.37470214763711,40.17066512303523],[-77.37478004541278,40.17073970154389],[-77.37486179104997,40.17081227803891],[-77.37495010841715,40.17088495830669],[-77.37503616666065,40.17095223655489],[-77.37512825293719,40.17102266916276],[-77.37522894661257,40.17108834155329],[-77.37532949725394,40.17114641874819],[-77.37543928591711,40.17118796928191],[-77.37557569703687,40.17120396904472],[-77.37571382148039,40.17120704605401],[-77.375853906327,40.17120440160314],[-77.37599181429728,40.1712063265663],[-77.3761249950371,40.17121062208854],[-77.3762466651353,40.17121981361051],[-77.37639605805029,40.17117159963951],[-77.37644561469263,40.17107810888315],[-77.3764979569794,40.17097457022315],[-77.3765530688593,40.17086863131125],[-77.37660488412659,40.17076001398467],[-77.37665544725384,40.17065630503391],[-77.37670279138275,40.17056113486559],[-77.37676944455609,40.17047687268064],[-77.37684407575333,40.17038720092965],[-77.37692665885835,40.1703015758815],[-77.37701828170846,40.17022137319418],[-77.37712698859308,40.17015156277819],[-77.37724991137887,40.17009834384282],[-77.37738109647798,40.17007751982366],[-77.37752100893435,40.17007787177008],[-77.3776582880438,40.17009740000232],[-77.37779171112268,40.17014343473432],[-77.37791550521048,40.17020301930322],[-77.37802891029881,40.1702632829998],[-77.3781467645002,40.17031439551096],[-77.37827244436555,40.17034038722027],[-77.37838470713376,40.17030208819457],[-77.37845110687209,40.17021287045067],[-77.3785264780137,40.17011787726965],[-77.3786080483069,40.17002254704281],[-77.37869449245021,40.16992644035233],[-77.37878885313849,40.16983372464382],[-77.37886104867229,40.16976200747712],[-77.37897555940928,40.16966688202388],[-77.37908657286401,40.16955323390032],[-77.37911286161616,40.16945211967745],[-77.37908019635476,40.16935933379737],[-77.37899763654036,40.16928220842726],[-77.37888077173315,40.16924835788488],[-77.37870918922295,40.16925155913615],[-77.37858372024169,40.16926607794254],[-77.37844187312703,40.16927759752749],[-77.37829029796463,40.16929351307142],[-77.37813563976258,40.16931254631858],[-77.37798176814526,40.16932746344296],[-77.37782730586153,40.16934612466599],[-77.37766138526116,40.16937099172412],[-77.3775022580923,40.16938688842098],[-77.3773416796684,40.16940742163348],[-77.37718385440162,40.16942593991764],[-77.377023995234,40.16943870709947],[-77.37687554204605,40.16945058695204],[-77.37672977452212,40.16946515642832],[-77.37657963968364,40.16947274171148],[-77.37642270073384,40.16948274341543],[-77.37626365324216,40.1694903700274],[-77.37611083267849,40.16949324290168],[-77.37596209482665,40.1694997957358],[-77.37582334860215,40.16949679461864],[-77.37568677863376,40.16949884950743],[-77.37552983612711,40.16949151455911],[-77.37537302302644,40.16948407307687],[-77.37520766883014,40.16947302886634],[-77.37503787281287,40.16946048228809],[-77.37487892194183,40.16944892674179],[-77.37473800309947,40.16942667651396],[-77.37462059783614,40.16937702115784],[-77.37454087602822,40.16925971062263],[-77.37455080149041,40.16913895447821],[-77.37459043655764,40.16904605923263],[-77.37464538820402,40.16894681123743],[-77.37477187112991,40.16884281823972],[-77.37488979075093,40.16881537116387],[-77.37504691663692,40.16880496305912],[-77.37520368519385,40.16880707997377],[-77.37536200135138,40.16879584460835],[-77.37553816633893,40.16878304908432],[-77.37571375080643,40.16877599402213],[-77.3758879726321,40.16876580845879],[-77.37605531808573,40.16875395425922],[-77.37622639007412,40.16874512500835],[-77.37638307336614,40.16873491042581],[-77.37653644472316,40.16872486372973],[-77.37669771089222,40.16871137437946],[-77.37686128385502,40.16870287102621],[-77.37702880288246,40.16869049727955],[-77.37719710905762,40.16868236350476],[-77.3773657451555,40.1686661284584],[-77.37753288776605,40.16865382116546],[-77.37770157845947,40.16864038184173],[-77.37787001802404,40.16863046807699],[-77.37803172972873,40.16862313300973],[-77.37819697481392,40.16860623583428],[-77.37836228637835,40.16859271107276],[-77.37853011752229,40.16858153099093],[-77.37869440385793,40.16856769803038],[-77.37884612383151,40.16855583619412],[-77.37900018808512,40.1685455907325],[-77.37915405198312,40.16853229373798],[-77.37931327508845,40.16851871752688],[-77.37947784401211,40.16850939713429],[-77.37964562399348,40.16849757504749],[-77.3798065163931,40.16848412221734],[-77.37995266800584,40.16847211759718],[-77.38010015624319,40.16846005392047],[-77.38025748704948,40.16845068822555],[-77.38041544129545,40.16843952125257],[-77.38056669287248,40.16842816593655],[-77.38070456119819,40.16841760573768],[-77.38085749765494,40.16840536158907],[-77.38101686946462,40.1683941860698],[-77.38116619583532,40.16838166926497],[-77.38132534938651,40.16837084991581],[-77.38147878807544,40.16835809720998],[-77.38160905408172,40.16835176730458],[-77.38172823225749,40.1683692674214],[-77.38182684456999,40.1684417831258],[-77.38190932842654,40.16853153470376],[-77.38200912240424,40.1686243646331],[-77.38211500449923,40.16872302599923],[-77.38222928573455,40.16882644356386],[-77.38235321602511,40.16893418931949],[-77.38247844627053,40.16904265417933],[-77.38259971159987,40.16915361086245],[-77.38271976490574,40.16926655164929],[-77.3828345412757,40.16937663808908],[-77.38294523960339,40.16947788633181],[-77.38305129879477,40.16957569049995],[-77.38315496719471,40.16966993520936],[-77.38325345287596,40.16976189545404],[-77.38334787363839,40.16984822532722],[-77.38343700932434,40.16993017628069],[-77.38350815743176,40.17000202854987],[-77.38358641112296,40.17008141254453],[-77.38367408585174,40.17016501641476],[-77.38377194822452,40.17022808564052],[-77.38395000342983,40.17021036181813],[-77.38408649652284,40.17014880071488],[-77.38423831419533,40.17008445127089],[-77.38438933648987,40.17002823733221],[-77.38453109738366,40.16996605024146],[-77.38466279517512,40.16990484873485],[-77.38478996900345,40.16984851100754],[-77.38492186444526,40.16980018814061],[-77.3850498957785,40.16980178047191],[-77.38518771688615,40.16985517688385],[-77.38528640430853,40.16995252699238],[-77.38537992100002,40.17004593241131],[-77.38547867836596,40.17014813585027],[-77.38556300488503,40.17027192559655],[-77.38558601168731,40.1703882193866],[-77.38560806565403,40.17049773244445],[-77.38568654108641,40.17060907847181],[-77.3858044704084,40.17070094248817],[-77.38590627707295,40.17079371405427],[-77.38599187641583,40.17088932617082],[-77.38604366909298,40.17099043369666],[-77.3860516780857,40.17108187960812],[-77.3859383915354,40.17113877540442],[-77.3857890355997,40.17112064843251],[-77.38566583629394,40.17111450898699],[-77.38554002384154,40.17110853460113],[-77.38540271516096,40.17113518601516],[-77.3852775928602,40.17118814213973],[-77.38515920022343,40.17124270253482],[-77.38503663632413,40.1713349946716],[-77.38494817018848,40.17141125452608],[-77.38480442170567,40.17146541500234],[-77.3846382481106,40.17150408415649],[-77.38451048917727,40.17152927491755],[-77.38437311272513,40.17153115052859],[-77.38424368526807,40.17150881764648],[-77.3841438287136,40.17145736162169],[-77.38407842053164,40.17138012510089],[-77.38393225328495,40.17130724142457],[-77.38379627972967,40.17126291129244],[-77.38365863232629,40.17120864440856],[-77.38352276422746,40.17114383907652],[-77.38340144212981,40.17106930495895],[-77.38330028357854,40.17099022653351],[-77.38320579814503,40.17091415488699],[-77.38308744387291,40.1708226573995],[-77.38300393551285,40.17075828543548],[-77.38291136953947,40.17068308081287],[-77.38280240539524,40.17064658659368],[-77.38264567033923,40.17068075562052],[-77.38248817798579,40.17073613889221],[-77.38232868098859,40.17076632624988],[-77.38218846935173,40.17080165137185],[-77.38213429678656,40.17088650372206],[-77.3821232482526,40.17098482572936],[-77.38217493699321,40.17107262319929],[-77.38223161805448,40.17116842357089],[-77.382280343573,40.17127470681672],[-77.38233554251664,40.17138471818401],[-77.38238794276272,40.17148812119343],[-77.38244271502664,40.17158669582729],[-77.3825813799252,40.17165708473051],[-77.38272085785049,40.17164546597498],[-77.38287615830501,40.17164910870007],[-77.38303120382636,40.17165701645753],[-77.38320381976366,40.17164910902653],[-77.38337019860654,40.17164232042287],[-77.38351709068237,40.17165800043285],[-77.38368131169167,40.17167146048818],[-77.38383851930452,40.17168090908471],[-77.38400218348917,40.17169170793308],[-77.38416336469193,40.17171097844945],[-77.3843231535316,40.1717240843102],[-77.38446555686549,40.17173364620912],[-77.38462458593078,40.17173628075849],[-77.38478684528229,40.17172294643555],[-77.384956861446,40.17169081114535],[-77.38510698005737,40.17166495940987],[-77.38526059868778,40.17163297021058],[-77.38542590353582,40.17159240580895],[-77.38559261480194,40.17154919541998],[-77.38574258045732,40.17149342921283],[-77.38588924468444,40.17143909695783],[-77.38601331313869,40.17141509319649],[-77.38610982712713,40.1714939783495],[-77.38609435643961,40.17161322035118],[-77.38607564970032,40.17171098722154],[-77.3861778060483,40.17176414096147],[-77.3862968962194,40.17175270064492],[-77.3864144081799,40.17174477875763],[-77.38656408237729,40.17174061446325],[-77.38670159127263,40.1717491119174],[-77.38687024802753,40.17174768533003],[-77.38697484213328,40.17170000191785],[-77.38706935775464,40.17161980807601],[-77.38717829640004,40.17152528174289],[-77.38729928231217,40.17146315490741],[-77.38744244759164,40.17142765425537],[-77.38759403800506,40.17138914759056],[-77.38774947632724,40.17133641274074],[-77.3879060571811,40.17129271059505],[-77.38807524489347,40.1712488938733],[-77.38823068870829,40.1712212460907],[-77.38836965567634,40.17119474447104],[-77.38849362859793,40.17118691559084],[-77.38862457154089,40.17122662471127],[-77.38870336316796,40.17131800857201],[-77.38878721908976,40.17141996188339],[-77.38886081405936,40.17152339005394],[-77.38894054314991,40.17160794415874],[-77.38905309326222,40.17169966504736],[-77.3891687589556,40.17180440936739],[-77.38927430115424,40.17189058861037],[-77.38937931710387,40.17197993596492],[-77.38949113401424,40.17207007227006],[-77.38960875251121,40.17216745492455],[-77.3897142354006,40.17227326807918],[-77.38980578366628,40.17238923232226],[-77.38991284732545,40.17251338396786],[-77.39003442662741,40.17262116851833],[-77.39014882472766,40.17272558815598],[-77.3902538091433,40.1728306904057],[-77.3903487778385,40.17293334965135],[-77.39043128779285,40.17303007007807],[-77.39053589342754,40.1731210366269],[-77.39062477442438,40.17319467304254],[-77.39068064054904,40.17328634251705],[-77.39068921266046,40.17340545597028],[-77.3907050692512,40.17352725222533],[-77.39071839852828,40.1736525302417],[-77.39071005120392,40.17376364546108],[-77.39065671214271,40.17387607243235],[-77.39048612538684,40.17388355623101],[-77.39031412440944,40.17388064788297],[-77.39014098110987,40.17388560076371],[-77.39001831747896,40.17388785350445],[-77.3898901277852,40.17388791718646],[-77.3897656618673,40.17389724830199],[-77.38958630008639,40.17390131842567],[-77.3894540700232,40.17390031054608],[-77.3893122570752,40.17390514592236],[-77.38916276643397,40.17390528278801],[-77.38900680048377,40.1739057579066],[-77.38886200454317,40.17390613893316],[-77.38870936260983,40.17390547155428],[-77.38856456994509,40.17390613433582],[-77.38842925344474,40.17390354964655],[-77.38828927211063,40.17383459319962],[-77.38827372884708,40.17372237318234],[-77.38823520921433,40.17354959337632],[-77.38823349689805,40.17341650115772],[-77.38822720659205,40.17331912785656],[-77.38823232883193,40.17321115853029],[-77.38823288211731,40.1731020007621],[-77.38822743443585,40.17299715704193],[-77.3882687199015,40.17289833268228],[-77.38837163590979,40.17282997618902],[-77.3883166631862,40.17271342022411],[-77.3881753673078,40.17267306706708],[-77.38799979263104,40.17268861426171],[-77.38787430006131,40.17268692037756],[-77.387730109699,40.17266020285395],[-77.38758838402893,40.17266106626747],[-77.38744055570166,40.17270522897459],[-77.38736823532528,40.17278973812715],[-77.38729715915387,40.17287871918058],[-77.38721311294212,40.1729833028605],[-77.38710684190964,40.17306791506766],[-77.38699601519423,40.17315848587118],[-77.38688618430253,40.17327024623955],[-77.3867876495415,40.17338226480127],[-77.38668564234641,40.17347818631679],[-77.38658688999205,40.17356441189284],[-77.38651028646107,40.17364923953952],[-77.38644241103866,40.17374458926981],[-77.38637240731822,40.17384059408454],[-77.38629693116911,40.17391587490504],[-77.38617669365782,40.17389888193748],[-77.38604429816382,40.17384172043884],[-77.38590221396012,40.17384528448232],[-77.38575761204342,40.17379779071181],[-77.38555938587545,40.17378194826675],[-77.38539024577702,40.17373260733124],[-77.38524057825683,40.17369022380606],[-77.38511408279341,40.1736563390002],[-77.38499987945038,40.17361792748756],[-77.38489378491921,40.17357327687233],[-77.38475149377922,40.17351596391779],[-77.3846186760433,40.17346992912856],[-77.3844703011176,40.17341922312495],[-77.38434323868411,40.17337361865697],[-77.38422439558553,40.17333439773108],[-77.38408673738755,40.17329193141853],[-77.38394493889908,40.17325621062442],[-77.38380084279245,40.17322621351413],[-77.38365893933985,40.17321014094023],[-77.38342499273875,40.17321382617787],[-77.38330681749856,40.1732095891435],[-77.38314843607594,40.17320882629026],[-77.38302266575404,40.17320297909095],[-77.38293419267183,40.17312653735751],[-77.38294267494648,40.17300912552432],[-77.3830608656794,40.17291796473318],[-77.38310635326972,40.17279345934908],[-77.38309655037366,40.17266940189073],[-77.38308103987673,40.17257270947382],[-77.38301679429176,40.17245054477031],[-77.38292148688195,40.17236599760159],[-77.38283919204954,40.17228403899644],[-77.38274693876573,40.17220128579476],[-77.38266240633286,40.17210917830597],[-77.3826054324415,40.17201325527127],[-77.38255563580151,40.17192159774362],[-77.38250864913539,40.17183483871716],[-77.38243260878843,40.17175764424596],[-77.38231011597624,40.17170193052252],[-77.38217095769019,40.17168408400624],[-77.38200053607103,40.17169238593945],[-77.38187954219121,40.17172427858931],[-77.38176068288753,40.17175375801261],[-77.38163820561786,40.17178671726928],[-77.38152074158471,40.17181860152832],[-77.38136516208407,40.17183697303252],[-77.38122210713694,40.17179190891576],[-77.38111976742826,40.17168393363162],[-77.381092376028,40.17158586983147],[-77.38110736778341,40.17148768179531],[-77.38117933351404,40.17140413141922],[-77.38128256775606,40.17133179028385],[-77.38137117483865,40.1712512131974],[-77.38146252452167,40.17117589390332],[-77.38155191936264,40.17110028628438],[-77.38164108859142,40.17102401812988],[-77.38173536199335,40.17094896179066],[-77.38182892756947,40.17086719628874],[-77.38191296184928,40.17077407249689],[-77.3820173871848,40.1706992698162],[-77.38214380478914,40.1706380292263],[-77.38227804471991,40.17058990024817],[-77.3824105607162,40.17053889954386],[-77.38253412253738,40.17049113745144],[-77.38265444182986,40.17044371269343],[-77.38277486987411,40.17040038030118],[-77.38289168749867,40.17035256700752],[-77.38300914418436,40.17030563918426],[-77.38313211987659,40.17025406190769],[-77.3832560208463,40.17020744710342],[-77.38336722748508,40.17015126187495],[-77.38342647701305,40.17005519932662],[-77.383428922626,40.1699479037038],[-77.38334729167458,40.16985616181986],[-77.38323121912156,40.16976514490646],[-77.38312758970659,40.16966794244424],[-77.38302407903008,40.16957067120297],[-77.38291924922088,40.16947725738279],[-77.38281787630758,40.16937900884812],[-77.38271568595651,40.16928187369017],[-77.38261993218143,40.16919117918064],[-77.38252437092669,40.16910118731835],[-77.38243422517998,40.16901527147817],[-77.38234777110253,40.16893514068158],[-77.38225975283109,40.16885797528792],[-77.38215409767817,40.1687620750435],[-77.38205200796335,40.16866943170231],[-77.38194523896043,40.16857173009912],[-77.38183893600127,40.16846751900872],[-77.38176283460551,40.16839365552602],[-77.38165635021575,40.1683479706129],[-77.38151368514643,40.16836325004553],[-77.38135817339776,40.16837083225493],[-77.38119663227324,40.16837711017193],[-77.38104272724735,40.1683863500793],[-77.38088854822088,40.16839737815837],[-77.38073598834426,40.16840918296807],[-77.38059363216856,40.16841816550694],[-77.3804406824088,40.16842727560675],[-77.38027893555893,40.16843876737415],[-77.3801239278989,40.16844985156669],[-77.37997477574945,40.16846379123221],[-77.3798293289631,40.16847869157305],[-77.37966557160621,40.16849729145411],[-77.37949298025441,40.16851078675224],[-77.37931834785256,40.16852947245922],[-77.37915143083741,40.1685429366184],[-77.37899512089004,40.16855732248205],[-77.37883223442495,40.16857359582877],[-77.37866645654161,40.16858334363431],[-77.37849771764932,40.16859810796915],[-77.37832968114094,40.16861133634423],[-77.3781670297052,40.16862343343383],[-77.37800781649182,40.16863460171301],[-77.37784952151534,40.16864302528109],[-77.37769590309657,40.16865044464164],[-77.3775369555941,40.16866332615017],[-77.37737564597467,40.16867292980942],[-77.37721710782674,40.16868186391525],[-77.3770603482938,40.16869318387032],[-77.37689860628022,40.16870573629689],[-77.3767387298282,40.16871719034257],[-77.37658388305897,40.16872832864347],[-77.3764242880185,40.16874172829585],[-77.37625900682335,40.16875215822466],[-77.37608561145359,40.16876098218043],[-77.37590451662874,40.16877516212008],[-77.37573211716084,40.16878728370766],[-77.3755602047833,40.16879602597177],[-77.37539404564033,40.16880936536387],[-77.37523342303543,40.16881659639133],[-77.37508255229339,40.16882600962276],[-77.37492214891866,40.16883226001637],[-77.37476991572882,40.16885073739046],[-77.37467881426339,40.1689174135234],[-77.37461093951269,40.16902757165562],[-77.37456809034668,40.16912305377918],[-77.37455031912233,40.16925452047284],[-77.37460601986845,40.16935540186498],[-77.37474344832181,40.16943871729998],[-77.37480164684948,40.16952643427387],[-77.37479238373038,40.16962594619454],[-77.37476279055089,40.16972237662013],[-77.374701118819,40.16981378993111],[-77.3746115182631,40.16989146100117],[-77.37452768444084,40.16997434970734],[-77.37449859296774,40.17007155244679],[-77.37450187755805,40.17016725689584],[-77.37450868374667,40.17026018891188],[-77.37452992001968,40.17035699758462],[-77.37456008178249,40.17045532709768],[-77.37460883923166,40.17055125031967],[-77.37467547595337,40.17063601957975],[-77.37476250359063,40.17072029081542],[-77.37485062765386,40.17080141165697],[-77.37494986526535,40.1708784122448],[-77.37504493634133,40.17095318564864],[-77.37514064967802,40.17102711884089],[-77.37524140600287,40.17109409381172],[-77.3753514044457,40.17115248080312],[-77.37547518280816,40.17118873106048],[-77.37561197380059,40.17120412190088],[-77.37575084444835,40.17120665253037],[-77.37588637823538,40.17120420416844],[-77.37601695767434,40.17120586071338],[-77.37614288774171,40.17121079071983],[-77.37627147970264,40.17121709522906],[-77.37639466656125,40.1711877618796],[-77.37645953596778,40.17108513738943],[-77.37650198237661,40.17097110254925],[-77.37656368514106,40.17086239161273],[-77.37661550228094,40.17074412337416],[-77.37666450246459,40.17063120709958],[-77.37672415796291,40.17053413760063],[-77.37679723426075,40.17044164848896],[-77.37688480709807,40.17035349588165],[-77.37697193499532,40.17026671390219],[-77.37707115031378,40.17018709476225],[-77.37718774830118,40.17012293198004],[-77.37731790717834,40.17007877743733],[-77.37743711386105,40.17006341918137],[-77.3775962723267,40.17007708682553],[-77.37774255746723,40.17011636765312],[-77.37788069524325,40.1701753194686],[-77.37801364790525,40.17024599676985],[-77.37815469246407,40.17030778992039],[-77.37831140582898,40.17033483571817],[-77.37842585095378,40.17025333104599],[-77.37851896775634,40.17014420286649],[-77.37861843510626,40.17003257868085],[-77.37868693397606,40.1699586340271],[-77.37875757411008,40.16988324273259],[-77.37883194483,40.16980615776495],[-77.37891334469332,40.16973567093569],[-77.37904736805082,40.16966034662597],[-77.37919831844964,40.16960045743354],[-77.37931859800787,40.16958408881581],[-77.37949356701593,40.16958542475561],[-77.37965073867251,40.16963455172601],[-77.37977602873285,40.16969774250795],[-77.37989925515889,40.16976495785725],[-77.38002964467525,40.16984648535148],[-77.38014563167744,40.1699190103008],[-77.38027060300736,40.16999859561315],[-77.38038982161619,40.17008257373809],[-77.38050747677278,40.17017406000424],[-77.38060905456352,40.17027910483505],[-77.380679855601,40.17040139481585],[-77.38069629390004,40.17053742310896],[-77.38069033410947,40.17063286009652],[-77.38068543048912,40.1707314626651],[-77.380679391395,40.17083229217481],[-77.3806925040246,40.17092514078841],[-77.38073436900108,40.17104708098854],[-77.38079265687192,40.17116755471477],[-77.38082816340705,40.17125935916611],[-77.38084685942577,40.1713622018413],[-77.38091584405552,40.17146475112935],[-77.3810402560035,40.17144955268725],[-77.38114501743279,40.17137156026702],[-77.38124720572817,40.17128715835848],[-77.38134859815952,40.17120712712216],[-77.38144965348542,40.17113255195007],[-77.38155150351962,40.17105031736766],[-77.38165103119677,40.17096610473796],[-77.38175339063078,40.17088486042308],[-77.38184295239606,40.17080772849779],[-77.38185368967099,40.17070595883537],[-77.38180828957212,40.17059135534696],[-77.38178267970359,40.17048905501952],[-77.38175234091253,40.17038947147784],[-77.38172156213207,40.17028749130326],[-77.3816909323598,40.17018320349332],[-77.38165766165547,40.17007716347945],[-77.38162386420743,40.1699748239323],[-77.38159129025304,40.16987221363407],[-77.38156086640254,40.16977092992749],[-77.38151833982448,40.16966715298788],[-77.38147441444451,40.16956688096398],[-77.38144106052987,40.16946569846768],[-77.38138939254428,40.16936887122952],[-77.38134865038421,40.16927045903407],[-77.38129954559238,40.16915190691731],[-77.38125027372458,40.16903954312457],[-77.38120386531952,40.16892380200426],[-77.38116011762128,40.16883617513651],[-77.38111263662401,40.16874877912677],[-77.38103536309418,40.16863024646493],[-77.38085500044642,40.16860630172327],[-77.38071883062271,40.16860444753584],[-77.38058292451697,40.16859751508773],[-77.38046065108998,40.16859045282067],[-77.38033089390689,40.16858272068583],[-77.38017989987571,40.16857272605276],[-77.38003517315973,40.16856482466046],[-77.37989765899466,40.16856018710887],[-77.37976431016558,40.16856361644559],[-77.3796449854917,40.16856797651488],[-77.37951480324308,40.16857723630738],[-77.37938212474965,40.16858837648596],[-77.37924723227204,40.16859901340675],[-77.37911470342422,40.16860772236865],[-77.37898839355354,40.16861251467731],[-77.3788618971466,40.16862741350825],[-77.37871763069143,40.16863657749435],[-77.37856908451249,40.16865001543499],[-77.3784387278068,40.16865764219794],[-77.37830179271019,40.16866795343889],[-77.3781584334458,40.16868631879886],[-77.37801536722766,40.16870154558952],[-77.37787877964438,40.16872307855538],[-77.37778206352516,40.168799133421],[-77.37777285198155,40.16890109232159],[-77.37781912723806,40.16900269796025],[-77.37786517143232,40.16911055907883],[-77.37788435460638,40.16915183327264]]}}
