{"type":"Feature","properties":{"name":"Florida-6k","legacyMeetId":"5855","distance":"6k"},"geometry":{"type":"LineString","coordinates":[[-82.36815999977203,29.6469901906544],[-82.36648180419415,29.64777322467338],[-82.36575662031716,29.64826490363001],[-82.3653275189436,29.64855430282627],[-82.36511769689596,29.64889970308422],[-82.36484855551198,29.64911112963814],[-82.36458509327413,29.64909396660839],[-82.36447315161689,29.64887125949857],[-82.36450893832816,29.64864301047421],[-82.36458710208123,29.64834837304053],[-82.36470534107937,29.64818398485133],[-82.36497833748967,29.64803986373082],[-82.36551279689695,29.64779057622835],[-82.36596459875088,29.64761155819773],[-82.36623656363777,29.64740821925682],[-82.36630910744611,29.64720420727992],[-82.36633327908258,29.64690126757307],[-82.3664053203816,29.64601966179281],[-82.3663430328447,29.64556358544157],[-82.3663753994248,29.64530553680468],[-82.36650604269153,29.64518294932274],[-82.36685207900429,29.64509806828542],[-82.36712739450158,29.64507711480473],[-82.3674605874047,29.64505772282309],[-82.3676436717679,29.64511446857904],[-82.36785064841668,29.64529098534333],[-82.36806842640716,29.6455227355277],[-82.36807610260576,29.64553049415858],[-82.36808370004445,29.64554627755195],[-82.3684673796606,29.64583771931198],[-82.36870662842216,29.64603602827065],[-82.36893619699782,29.64614926170217],[-82.36916773717292,29.64618769549626],[-82.36962239173025,29.64610958475662],[-82.36991397147116,29.6460900084571],[-82.37028351413049,29.64619908983146],[-82.37042212984623,29.64637985069765],[-82.37051183913837,29.64654737140089],[-82.37075887447425,29.64665067753726],[-82.37091417467651,29.64660168834329],[-82.37104778879826,29.64644474609366],[-82.37111602013164,29.6462233771127],[-82.37111144130132,29.64601270034798],[-82.37110500645817,29.64580833147662],[-82.37103704609655,29.64552359888006],[-82.3711106279573,29.64539536670879],[-82.37116933933127,29.64537039665554],[-82.3713649437654,29.64538248043562],[-82.37157583121592,29.64548190057026],[-82.3717021771522,29.64565196072519],[-82.37188460448905,29.64603689508464],[-82.37188988695536,29.64605384274562],[-82.37196427393238,29.64643265585059],[-82.37188317466935,29.6467669512521],[-82.37186695618801,29.64679763402243],[-82.37173659293603,29.64728423138657],[-82.37145060043983,29.64759712767754],[-82.37111738382994,29.64778727541363],[-82.37075376279907,29.64789408086724],[-82.37044074921002,29.64794085590344],[-82.37003813197963,29.64795043661337],[-82.369869695607,29.6480791917667],[-82.36952591325947,29.64838876933757],[-82.36924692360382,29.64881035885413],[-82.36879420589105,29.64888774101173],[-82.36860563347963,29.64905597177038],[-82.36836543157378,29.64923972658699],[-82.36832909218505,29.64926172132724],[-82.36798853340807,29.6493212770482],[-82.36746998364343,29.64931187335926],[-82.36706375145951,29.64935073604391],[-82.36704301171703,29.64934882000903],[-82.36664327181248,29.64942174674236],[-82.36629851313508,29.64937573957062],[-82.36600031142909,29.6492852204416],[-82.36586616164765,29.64911236185582],[-82.36581414044325,29.64881391864025],[-82.36591178444425,29.6484737838245],[-82.36591830057098,29.6484626837814],[-82.36606275587963,29.64807331449913],[-82.36620940006459,29.64755066047474],[-82.36633170960107,29.64708351865031],[-82.36634348760214,29.64664363367278],[-82.36639691573531,29.64615130897625],[-82.366382215126,29.64588396686646],[-82.36633686306054,29.64550806180674],[-82.36641938475918,29.64525056935348],[-82.36656935842201,29.64516388546193],[-82.36674780276691,29.64512571196443],[-82.36700781332497,29.64507818541867],[-82.36726684435077,29.64506146450941],[-82.36753143582376,29.645056651292],[-82.36772304247971,29.64517505881746],[-82.36792836343739,29.64537509805431],[-82.3682634082384,29.64569221377537],[-82.36859057836551,29.64595370578919],[-82.36881911788566,29.64609832824684],[-82.36903147647277,29.64616928019318],[-82.36935745162681,29.64616210365922],[-82.36977254588896,29.64608974851786],[-82.37006707034486,29.64612838864431],[-82.3702186059089,29.64616033658001],[-82.3703666483951,29.64629109301323],[-82.37038164902165,29.64642862788178],[-82.37029120768277,29.64728617731631],[-82.37014104908393,29.64780667918394],[-82.36996304944117,29.6480234863485],[-82.36975047960675,29.64816476914422],[-82.36958437684625,29.64833938982035],[-82.3693878011327,29.64856266376202],[-82.36922159321735,29.64881027892808],[-82.36885940081994,29.64886687217377],[-82.36871957519222,29.64893255459168],[-82.36855000755286,29.64910250583672],[-82.36841177929821,29.64919633628309],[-82.36821935989396,29.64929022892992],[-82.36787300812412,29.64932722819244],[-82.36756975018912,29.64930620684033],[-82.3672969430708,29.64931292226012],[-82.36693663666318,29.64936716522198],[-82.36655843507292,29.64943070133535],[-82.36615424159493,29.64933125755314],[-82.36593152745841,29.64922644459171],[-82.3658196381617,29.64897906552968],[-82.36584145356953,29.64866262257804],[-82.36599296241454,29.64827744183959],[-82.36612096445289,29.64781896350274],[-82.36628131610229,29.6472995536374],[-82.3663392141025,29.64697505321601],[-82.36635340871361,29.64677298289604],[-82.36637508639667,29.64639186478826],[-82.36638599577466,29.64609244445268],[-82.36638923793303,29.64594225945083],[-82.36636580462276,29.64571179130186],[-82.36634771477404,29.64553577626198],[-82.36635691109147,29.64539062691563],[-82.36638464440423,29.64527453022074],[-82.36646803723679,29.64520872984729],[-82.36663186452313,29.64514864918674],[-82.36694705995203,29.64508622879926],[-82.36719160829774,29.6450692204273],[-82.36736318262487,29.64506557655546],[-82.3675857872646,29.64508161727906],[-82.36777016784501,29.64521453862835],[-82.36789864876548,29.64534097188481],[-82.36820038247677,29.64563623124104],[-82.36838680480234,29.64577693694924],[-82.36853716825641,29.64591325273667],[-82.36865624568341,29.64598970226436],[-82.3687686321706,29.64606418767134],[-82.36888572974952,29.64612400796645],[-82.36897806337822,29.64616564828639],[-82.36909204943296,29.64615941545023],[-82.3692322404945,29.64617476498193],[-82.36946069828394,29.64612979778464],[-82.36968924596786,29.64609898363755],[-82.36983111898414,29.64607759759679],[-82.36997703033276,29.64610345156209],[-82.37013893172659,29.64614501377716],[-82.37031385904363,29.64625313627869],[-82.37039743297409,29.64650311288894],[-82.37034337991787,29.64682766098535],[-82.37029207006483,29.64721343302448],[-82.37022474409791,29.6475455998135],[-82.37007457323625,29.64790437902075],[-82.36990643052678,29.64806650116227],[-82.36979952532141,29.64812888346827],[-82.36961544642057,29.64830803656833],[-82.36945221491075,29.64849809247584],[-82.36930580605625,29.64872222041487],[-82.3691423414025,29.64883734461655],[-82.3689307597749,29.64886886091335],[-82.36865521190587,29.64899271976602],[-82.36847861129034,29.64915304316564],[-82.36810923605819,29.6493151337256],[-82.3677786512839,29.64932179243409],[-82.36738560055623,29.64932046670613],[-82.36716930589432,29.64934038742285],[-82.36684170159187,29.64937545471548],[-82.36669069863218,29.64951884980568],[-82.3666535582273,29.64967786851131],[-82.36672058169083,29.64981874106832],[-82.36688901778936,29.64992967810142],[-82.36711952743013,29.64997577979035],[-82.36858681764593,29.64996335476974]]}}
