{"type":"Feature","properties":{"name":"Florida-10k","legacyMeetId":"5855","distance":"10k"},"geometry":{"type":"LineString","coordinates":[[-82.36815999977203,29.6469901906544],[-82.36648180419415,29.64777322467338],[-82.36575662031716,29.64826490363001],[-82.3653275189436,29.64855430282627],[-82.36511769689596,29.64889970308422],[-82.36484855551198,29.64911112963814],[-82.36458509327413,29.64909396660839],[-82.36447315161689,29.64887125949857],[-82.36450893832816,29.64864301047421],[-82.36458710208123,29.64834837304053],[-82.36470534107937,29.64818398485133],[-82.36497833748967,29.64803986373082],[-82.36551279689695,29.64779057622835],[-82.36596459875088,29.64761155819773],[-82.36623656363777,29.64740821925682],[-82.36630910744611,29.64720420727992],[-82.36633327908258,29.64690126757307],[-82.3664053203816,29.64601966179281],[-82.3663430328447,29.64556358544157],[-82.3663753994248,29.64530553680468],[-82.36650604269153,29.64518294932274],[-82.36685207900429,29.64509806828542],[-82.36712739450158,29.64507711480473],[-82.3674605874047,29.64505772282309],[-82.3676436717679,29.64511446857904],[-82.36785064841668,29.64529098534333],[-82.36806842640716,29.6455227355277],[-82.36807610260576,29.64553049415858],[-82.36808370004445,29.64554627755195],[-82.3684673796606,29.64583771931198],[-82.36870662842216,29.64603602827065],[-82.36893619699782,29.64614926170217],[-82.36916773717292,29.64618769549626],[-82.36962239173025,29.64610958475662],[-82.36991397147116,29.6460900084571],[-82.37028351413049,29.64619908983146],[-82.37042212984623,29.64637985069765],[-82.37051183913837,29.64654737140089],[-82.37075887447425,29.64665067753726],[-82.37091417467651,29.64660168834329],[-82.37104778879826,29.64644474609366],[-82.37111602013164,29.6462233771127],[-82.37111144130132,29.64601270034798],[-82.37110500645817,29.64580833147662],[-82.37103704609655,29.64552359888006],[-82.3711106279573,29.64539536670879],[-82.37116933933127,29.64537039665554],[-82.3713649437654,29.64538248043562],[-82.37157583121592,29.64548190057026],[-82.3717021771522,29.64565196072519],[-82.37188460448905,29.64603689508464],[-82.37188988695536,29.64605384274562],[-82.37196427393238,29.64643265585059],[-82.37188317466935,29.6467669512521],[-82.37186695618801,29.64679763402243],[-82.37173659293603,29.64728423138657],[-82.37145060043983,29.64759712767754],[-82.37111738382994,29.64778727541363],[-82.37075376279907,29.64789408086724],[-82.37044074921002,29.64794085590344],[-82.37003813197963,29.64795043661337],[-82.369869695607,29.6480791917667],[-82.36952591325947,29.64838876933757],[-82.36924692360382,29.64881035885413],[-82.36879420589105,29.64888774101173],[-82.36860563347963,29.64905597177038],[-82.36836543157378,29.64923972658699],[-82.36832909218505,29.64926172132724],[-82.36798853340807,29.6493212770482],[-82.36746998364343,29.64931187335926],[-82.36706375145951,29.64935073604391],[-82.36704301171703,29.64934882000903],[-82.36664327181248,29.64942174674236],[-82.36629851313508,29.64937573957062],[-82.36600031142909,29.6492852204416],[-82.36586616164765,29.64911236185582],[-82.36581414044325,29.64881391864025],[-82.36591178444425,29.6484737838245],[-82.36591830057098,29.6484626837814],[-82.36606275587963,29.64807331449913],[-82.36620940006459,29.64755066047474],[-82.36633170960107,29.64708351865031],[-82.36634348760214,29.64664363367278],[-82.36639691573531,29.64615130897625],[-82.366382215126,29.64588396686646],[-82.36633686306054,29.64550806180674],[-82.36641938475918,29.64525056935348],[-82.36656935842201,29.64516388546193],[-82.36674780276691,29.64512571196443],[-82.36700781332497,29.64507818541867],[-82.36726684435077,29.64506146450941],[-82.36753143582376,29.645056651292],[-82.36772304247971,29.64517505881746],[-82.36792836343739,29.64537509805431],[-82.3682634082384,29.64569221377537],[-82.36859057836551,29.64595370578919],[-82.36881911788566,29.64609832824684],[-82.36903147647277,29.64616928019318],[-82.36935745162681,29.64616210365922],[-82.36978923079165,29.64609200881828],[-82.37006707034486,29.64612838864431],[-82.3702186059089,29.64616033658001],[-82.3703666483951,29.64629109301323],[-82.37038164902165,29.64642862788178],[-82.37029120768277,29.64728617731631],[-82.37014104908393,29.64780667918394],[-82.36996304944117,29.6480234863485],[-82.36975047960675,29.64816476914422],[-82.36958437684625,29.64833938982035],[-82.3693878011327,29.64856266376202],[-82.36922159321735,29.64881027892808],[-82.36885940081994,29.64886687217377],[-82.36871957519222,29.64893255459168],[-82.36855000755286,29.64910250583672],[-82.36841177929821,29.64919633628309],[-82.36821935989396,29.64929022892992],[-82.36787300812412,29.64932722819244],[-82.36756975018912,29.64930620684033],[-82.3672969430708,29.64931292226012],[-82.36693663666318,29.64936716522198],[-82.36655843507292,29.64943070133535],[-82.36615424159493,29.64933125755314],[-82.36593152745841,29.64922644459171],[-82.3658196381617,29.64897906552968],[-82.36584145356953,29.64866262257804],[-82.36599296241454,29.64827744183959],[-82.36612096445289,29.64781896350274],[-82.36628131610229,29.6472995536374],[-82.3663392141025,29.64697505321601],[-82.36635340871361,29.64677298289604],[-82.36637508639667,29.64639186478826],[-82.36638599577466,29.64609244445268],[-82.36638923793303,29.64594225945083],[-82.36636580462276,29.64571179130186],[-82.36634771477404,29.64553577626198],[-82.36635691109147,29.64539062691563],[-82.36638464440423,29.64527453022074],[-82.36646803723679,29.64520872984729],[-82.36663186452313,29.64514864918674],[-82.36694705995203,29.64508622879926],[-82.36719160829774,29.6450692204273],[-82.36736318262487,29.64506557655546],[-82.3675857872646,29.64508161727906],[-82.36777016784501,29.64521453862835],[-82.36789864876548,29.64534097188481],[-82.36820038247677,29.64563623124104],[-82.36838680480234,29.64577693694924],[-82.36853716825641,29.64591325273667],[-82.36865624568341,29.64598970226436],[-82.3687686321706,29.64606418767134],[-82.36888572974952,29.64612400796645],[-82.36897806337822,29.64616564828639],[-82.36909204943296,29.64615941545023],[-82.3692322404945,29.64617476498193],[-82.36946069828394,29.64612979778464],[-82.36968924596786,29.64609898363755],[-82.36983111898414,29.64607759759679],[-82.36997703033276,29.64610345156209],[-82.37013893172659,29.64614501377716],[-82.37031385904363,29.64625313627869],[-82.37039743297409,29.64650311288894],[-82.37034337991787,29.64682766098535],[-82.37029207006483,29.64721343302448],[-82.37022474409791,29.6475455998135],[-82.37007457323625,29.64790437902075],[-82.36990643052678,29.64806650116227],[-82.36979952532141,29.64812888346827],[-82.36961544642057,29.64830803656833],[-82.36945221491075,29.64849809247584],[-82.36930580605625,29.64872222041487],[-82.3691423414025,29.64883734461655],[-82.3689307597749,29.64886886091335],[-82.36865521190587,29.64899271976602],[-82.36847861129034,29.64915304316564],[-82.36810923605819,29.6493151337256],[-82.3677786512839,29.64932179243409],[-82.36738560055623,29.64932046670613],[-82.36716930589432,29.64934038742285],[-82.36684170159187,29.64937545471548],[-82.36647649582494,29.64941587304313],[-82.36620333903815,29.6493506959619],[-82.3660714256794,29.64929529762876],[-82.36590621603649,29.6491563444797],[-82.36584421975228,29.64905394068822],[-82.36580891658205,29.64888116345124],[-82.36581908895833,29.648744917201],[-82.36588366557024,29.64859284494008],[-82.36595421191649,29.64838563616338],[-82.36602836425088,29.64813853949488],[-82.36610598532656,29.64791139635655],[-82.3661622902718,29.64766779888746],[-82.36622992838475,29.64747919823502],[-82.36626428460566,29.64734293860797],[-82.36633317293479,29.64704558307272],[-82.36634122277488,29.64683727287528],[-82.36635117121429,29.64657248209702],[-82.3663770180008,29.64628755311434],[-82.36640187508526,29.64605427523511],[-82.36636882724731,29.64583943049916],[-82.36634565712288,29.6456343918849],[-82.36634039670987,29.64546485582639],[-82.36637162598798,29.64533846381629],[-82.3664342788876,29.64522514204829],[-82.36652505112053,29.64516754495066],[-82.36658984569786,29.64515230708904],[-82.36671467461167,29.64510993413115],[-82.36681460034724,29.64510617695851],[-82.36689593642306,29.64508554161416],[-82.36705062304964,29.64508023008984],[-82.3672152043621,29.64506310260139],[-82.36731937751154,29.64505679294596],[-82.36750495006126,29.64506250797585],[-82.3676700625517,29.64514126870328],[-82.3678021934458,29.64524888371184],[-82.36799347805433,29.64543460376021],[-82.3681491911734,29.6455980768444],[-82.36832772184975,29.64574709941871],[-82.36850410513311,29.64588869213577],[-82.36862631068928,29.64597216837974],[-82.36873870507041,29.64604799773719],[-82.36885270278297,29.64612084792047],[-82.36914613276936,29.64616955533724],[-82.36928309229987,29.64616411697102],[-82.36940253191618,29.64614850694077],[-82.36951262818924,29.64612694337468],[-82.36974470860886,29.64609433696364],[-82.3698758940919,29.64608262419206],[-82.37003406648124,29.64611564773274],[-82.37017626002648,29.6461521727637],[-82.37039323388692,29.64634748844659],[-82.37046546661266,29.64647205253405],[-82.37057558858744,29.64657982537605],[-82.37079753885045,29.64664151610454],[-82.37087363150346,29.64661419530208],[-82.37098576137429,29.64652933786947],[-82.37109492689089,29.64640506307053],[-82.37112420882448,29.64611801326633],[-82.37111370049561,29.64591572019717],[-82.37108270642814,29.64570064180496],[-82.37105510368501,29.64557197985528],[-82.37107077165525,29.64547404811388],[-82.3711277231296,29.64538379448707],[-82.37122568861534,29.64535954425516],[-82.37140388607021,29.64538865839828],[-82.37153680557284,29.64545757513773],[-82.37164475678692,29.64556712345566],[-82.37175371528448,29.64575351919009],[-82.37186296383139,29.64598762674896],[-82.37190652946896,29.64613765857456],[-82.37195882376821,29.64637989472181],[-82.37193859707502,29.64650408037184],[-82.37184026081886,29.64688124980963],[-82.37176769046846,29.64724248485692],[-82.37169079730832,29.64735544402064],[-82.37138152449704,29.64764130021922],[-82.37105624497424,29.6477985187672],[-82.37066744583164,29.64790214909829],[-82.37035081081832,29.64794944915303],[-82.37000873770866,29.64800131918768],[-82.36982770324816,29.64810658446411],[-82.36965766578211,29.64825462268793],[-82.36947490527486,29.64845188781171],[-82.36932809821491,29.64864302156964],[-82.36918003409929,29.64883845184453],[-82.36902971765784,29.64882143135117],[-82.36883453216012,29.6489070132771],[-82.36869607309453,29.64897920015544],[-82.36851055886233,29.64912076477196],[-82.36826574199338,29.64925100604241],[-82.36802136130399,29.64931246789387],[-82.36787126854725,29.6492927694426],[-82.3676997532245,29.64930859245443],[-82.36742622748177,29.64928443503008],[-82.36708956490318,29.64934320686338],[-82.36673428416333,29.64937806766875],[-82.36640640218884,29.64938622095634],[-82.36624431769866,29.64935085384342],[-82.36597602863196,29.64923148521971],[-82.36585308277712,29.64900227383815],[-82.36582089070635,29.64878490149009],[-82.36590961829495,29.64851505688544],[-82.36601317458106,29.64822043795819],[-82.36607875074263,29.64799240516416],[-82.36619060430405,29.64760959825828],[-82.36631222819331,29.64715029223627],[-82.36634148219832,29.64670190018099],[-82.36637205805495,29.6463351677898],[-82.36637929706053,29.64579368714696],[-82.36634785908049,29.64558928769373],[-82.36634850245721,29.64541984490153],[-82.36639056050787,29.64525253610179],[-82.36648183532637,29.64518448540066],[-82.36669531958684,29.64512680012554],[-82.36708458245549,29.64507705494223],[-82.3674141710648,29.64506507401133],[-82.36761148799964,29.64511014138751],[-82.36803503429586,29.64547215869968],[-82.3682324949006,29.64565786899196],[-82.36842782326794,29.64581349196522],[-82.36868105481199,29.64601540164479],[-82.36878644461669,29.64608266669269],[-82.36890889371179,29.64613766990502],[-82.36905869725776,29.64616156182039],[-82.36956580383577,29.64612313256452],[-82.36980063002936,29.64607902074744],[-82.37010602061947,29.64613608295407],[-82.37029940752934,29.64623204449366],[-82.3704411317854,29.6464299903746],[-82.37049920025203,29.64651584329055],[-82.3706654488601,29.64661294977276],[-82.37083508619337,29.64662449711275],[-82.37096181973887,29.64655579348921],[-82.37100478120801,29.64647949563351],[-82.37108974143077,29.64634462261954],[-82.37111371463749,29.64617391009094],[-82.37110360360306,29.64607111063808],[-82.3711210432541,29.64595631816406],[-82.37110835927962,29.64585523665409],[-82.37109597006386,29.64574216140524],[-82.37107335532033,29.64564537636695],[-82.37105987586678,29.64552030142094],[-82.37109206380362,29.64544107798693],[-82.37119767653444,29.64536716512921],[-82.37129576386998,29.64536875512102],[-82.3714641631694,29.64542679198829],[-82.37161710777197,29.64553318844754],[-82.37167883461694,29.64561471973855],[-82.37173615271699,29.64570519481935],[-82.37182690789459,29.64589696154938],[-82.37190163455058,29.64610778331934],[-82.37194617842032,29.64630792749375],[-82.37196171096443,29.64647482038292],[-82.3718806640875,29.64673388477486],[-82.37176466563983,29.64719984268278],[-82.37170319717322,29.64733533691571],[-82.37147951684493,29.64755435317252],[-82.37133720455466,29.64766602643043],[-82.37113730250492,29.64776087144537],[-82.37096741208451,29.64781262558944],[-82.3705750358783,29.64790558716513],[-82.37023225820658,29.64794660491719],[-82.37008644750638,29.6479727153443],[-82.36970144622533,29.64820934464977],[-82.36941751325254,29.6485322431269],[-82.36936236006513,29.64864430480513],[-82.36919308721973,29.64879773178864],[-82.36908682261223,29.64884263633683],[-82.36896651428555,29.64884584460737],[-82.36877486085957,29.64892316190309],[-82.36861774708287,29.64902281529016],[-82.36844352349027,29.64919723823779],[-82.36814205486641,29.64931395710974],[-82.36792270397862,29.64932727819291],[-82.36763278753159,29.64932703921627],[-82.36722865672155,29.64933076200501],[-82.36697329134984,29.64936413943331],[-82.36679353696977,29.64943305861104],[-82.36668100836914,29.64956994570043],[-82.3666803206139,29.64968184120052],[-82.36677031356614,29.64980164079567],[-82.36686394452646,29.64992668402144],[-82.36711462581503,29.64997254646367],[-82.36736946202701,29.64997246873439],[-82.36859145161823,29.64996892113554]]}}
