{"type":"Feature","properties":{"name":"FranklinPark-8k","legacyMeetId":"5911","distance":"8k"},"geometry":{"type":"LineString","coordinates":[[-71.0916934561638,42.3070696469086],[-71.09293908818726,42.30756565001077],[-71.09307856305604,42.30753811545885],[-71.09322264797156,42.3075097008071],[-71.09335348948007,42.30748032223648],[-71.09347888275151,42.30745350014633],[-71.09360536567037,42.30742613323248],[-71.0937267779673,42.30739775293662],[-71.09384961773674,42.30736839301341],[-71.09401399136294,42.30734073241256],[-71.09413169029627,42.30731584259976],[-71.09425414392376,42.3072946587214],[-71.0943770133679,42.30727305252466],[-71.09449726615897,42.30724818049414],[-71.09462019641487,42.30722314413555],[-71.09473971920457,42.30719678223141],[-71.09491443108362,42.30716865984309],[-71.0950445275557,42.30714443084329],[-71.09516325203502,42.30712180312558],[-71.0953129541317,42.30710129370606],[-71.0954348640906,42.30707311427496],[-71.09555709587201,42.30705645290781],[-71.09571161066403,42.30702635803482],[-71.09586145261613,42.30700007825083],[-71.0959984311152,42.30698958950647],[-71.09611998494472,42.30696206258453],[-71.09625519677064,42.30695814414342],[-71.09638530485076,42.30701508908101],[-71.0966120049501,42.30711948064432],[-71.09669350201182,42.30719680157009],[-71.0967865133596,42.30728134529721],[-71.09687368704586,42.3073664238625],[-71.09696220544812,42.30745016935996],[-71.09704646738459,42.30753275850639],[-71.09713117036442,42.30761239533276],[-71.09720851695336,42.30770105747488],[-71.09727613693704,42.30778211725023],[-71.09733930299181,42.30786074786903],[-71.09740084304131,42.30795878703977],[-71.09744834809328,42.30804336123583],[-71.09750285339162,42.30815012983928],[-71.09751188669217,42.30827238703557],[-71.09751845892383,42.30837650496296],[-71.09748060883376,42.30851721454798],[-71.09746254590834,42.30861724265275],[-71.0974168846624,42.30872436842418],[-71.09739552858582,42.30887587416012],[-71.09729909583282,42.30908648522239],[-71.09726073440038,42.30918845789703],[-71.09722009077447,42.30928413322702],[-71.09718411917504,42.30938150362039],[-71.0971466198114,42.30947347928389],[-71.0971113557906,42.309562108687],[-71.09707332740086,42.30969330386645],[-71.09703852924937,42.30982361425946],[-71.09701469481118,42.30995336423114],[-71.09703436041325,42.3100554356318],[-71.09699584215518,42.3101724305462],[-71.09698250715844,42.31027570415875],[-71.09691492550567,42.3104866085757],[-71.09687737936467,42.31057436127953],[-71.0968210471872,42.31065950502435],[-71.0967447118334,42.31074395406378],[-71.09665936964738,42.31081908888502],[-71.09656256389175,42.31089037166846],[-71.09644734033655,42.31094699606862],[-71.09632247588226,42.31098711493438],[-71.09619160573585,42.31100518284881],[-71.09605863764611,42.31100863821548],[-71.0959394357949,42.31098308699943],[-71.09578963208926,42.31093938381057],[-71.09567372210867,42.31089929750565],[-71.09556225433327,42.31084416100096],[-71.09542603585692,42.31076128941008],[-71.09529792639891,42.31066836367643],[-71.09518345288471,42.31054628780242],[-71.09512732994993,42.31044943649534],[-71.09507204525752,42.31036303561704],[-71.09501292635706,42.31027960345269],[-71.09495301404102,42.31019246509653],[-71.09487268983936,42.31007946788943],[-71.09481075995815,42.30999839592237],[-71.09474350076088,42.30986929579424],[-71.09467004667609,42.30974954857479],[-71.0946080821096,42.30962596861786],[-71.09454764183643,42.30953781521655],[-71.09446907879524,42.30944999261239],[-71.09434806057158,42.30935129808396],[-71.09425506429349,42.30928449452261],[-71.09416910859888,42.30921495778537],[-71.09407051383427,42.30914204278687],[-71.09396992736131,42.30908006072379],[-71.09387390442728,42.30898517548102],[-71.09379140225512,42.30891047446634],[-71.09366205192826,42.30882563798481],[-71.09351223909508,42.30874625332707],[-71.09337306180284,42.30866380905645],[-71.09324851353475,42.30857367318465],[-71.09317530519596,42.30850166483977],[-71.09311775616295,42.30837798843822],[-71.09307448912888,42.3082927687981],[-71.09301783120107,42.30819158346115],[-71.09296663770158,42.30807137121816],[-71.09291586189478,42.3079741354303],[-71.0928725095978,42.30788441813889],[-71.09283668992491,42.3077957865838],[-71.09278947197953,42.30766422905461],[-71.0927758629583,42.30756699741509],[-71.09278903677209,42.30747577318484],[-71.09288748307013,42.30740759140521],[-71.09300678468513,42.30736003547783],[-71.09311473654253,42.30730714305468],[-71.09322005235136,42.3072493326472],[-71.09332672937272,42.30720088343389],[-71.09347488639104,42.30713101116601],[-71.09362524982342,42.30706610893979],[-71.09373392050117,42.30702455668801],[-71.09387990846751,42.30697779607569],[-71.09403565299993,42.3069108951214],[-71.09414539159093,42.30687214729801],[-71.09431090512493,42.3068207817713],[-71.09445130519833,42.30678091232603],[-71.09463049975325,42.30673028562162],[-71.09474975948912,42.30668433803096],[-71.09489543167436,42.30661559522851],[-71.09500715813317,42.30656556967418],[-71.09518361696874,42.30654941999082],[-71.09535602051358,42.30656057231896],[-71.09547894528072,42.30658012411638],[-71.09565368140802,42.30661015775915],[-71.09576722258346,42.30664228046788],[-71.0959275086835,42.30669935957283],[-71.0960607118787,42.30676666304435],[-71.09619745549267,42.3068467012307],[-71.09633838160569,42.30691181156668],[-71.09647845070006,42.30699344537258],[-71.09662465377302,42.3071248409981],[-71.09670413183882,42.30719782815013],[-71.09678372670011,42.30727011793665],[-71.09685853199188,42.30734406052314],[-71.0969276158712,42.30741902365448],[-71.09700574762338,42.30749382556477],[-71.09708196423223,42.30756731683335],[-71.09715189770044,42.30764587451745],[-71.0972188689648,42.30773056109849],[-71.09728086744785,42.30781355115557],[-71.0973654010505,42.30789606983054],[-71.09742268324491,42.30797631704944],[-71.09745974481767,42.30807050249686],[-71.09749475429578,42.30816751679197],[-71.09751520840575,42.30826281384729],[-71.09752240300229,42.30836151119311],[-71.09751682993935,42.30845196663471],[-71.09751358069431,42.30854196916335],[-71.09747731160981,42.30863277959715],[-71.09744446132328,42.30872290629534],[-71.09740304964936,42.30885417725363],[-71.09736552734559,42.30894559805464],[-71.09733309767216,42.30903947465481],[-71.09727811098912,42.3091315996667],[-71.09723520451779,42.30925695303117],[-71.09720849059975,42.30934957451269],[-71.09717685579237,42.30943806818768],[-71.0971434989449,42.30952809132368],[-71.0971218492654,42.30961719696104],[-71.0970828790396,42.30974938850834],[-71.09705069457881,42.30986394029929],[-71.09703914391446,42.3099935303247],[-71.09702986268275,42.31011821879043],[-71.09699465828035,42.31024644619554],[-71.09696433294413,42.31033500401301],[-71.09693918379848,42.31042567261075],[-71.09691645301865,42.3105143044956],[-71.09684846583544,42.31060217526256],[-71.09677210180094,42.3106832982308],[-71.09669588842276,42.31076703475738],[-71.09660583791576,42.31084154798935],[-71.09649848643356,42.31090373790832],[-71.0963831726612,42.31094434011739],[-71.09625924698118,42.31097579662039],[-71.09613904817091,42.31099052429508],[-71.09597859297106,42.31104659668735],[-71.09594952545201,42.31114245284713],[-71.0959282237983,42.31123298122685],[-71.0959134590854,42.31135366144296],[-71.09589678896629,42.31148960112591],[-71.09586041812177,42.31160230879679],[-71.09580253702777,42.31173364299676],[-71.09576294337457,42.31185838098753],[-71.09573115441107,42.31197211615723],[-71.09567910554826,42.31209152762991],[-71.09557861112592,42.31219553845095],[-71.09542579709758,42.31224501491713],[-71.09528299974659,42.31220918737035],[-71.09519987721544,42.31214293941333],[-71.0951054250316,42.31205098516393],[-71.09499521028759,42.31196154007387],[-71.0949071191188,42.31187097851442],[-71.09479266189959,42.31176863700384],[-71.09461788921207,42.31172631516449],[-71.09444493701258,42.31170041274361],[-71.09425933444379,42.31170430613164],[-71.09412738390438,42.31168699715179],[-71.09400463486682,42.31165016977867],[-71.09382884769789,42.31164349763614],[-71.09374035503951,42.31158118981938],[-71.09364814428658,42.31143737806173],[-71.09356079090361,42.31132508286658],[-71.09353174456568,42.31119851292014],[-71.09348810318224,42.31107187237313],[-71.0934178195083,42.31092269455286],[-71.0933935756464,42.31080427050409],[-71.09343051336928,42.31068433279121],[-71.09349065570471,42.3105553685014],[-71.09350398779608,42.3104462358598],[-71.09353492379199,42.31035822526562],[-71.0935494681566,42.31023786965372],[-71.09354885916635,42.31013398853879],[-71.09356566221018,42.31003579523943],[-71.09358581862796,42.30992748271051],[-71.09360537693104,42.30982603737126],[-71.09362776190308,42.30972112350621],[-71.09363787980193,42.30959114381898],[-71.09364064985252,42.30949439269139],[-71.09363254741936,42.30937851912105],[-71.09369207440605,42.30925192682692],[-71.09379307786104,42.3091557378814],[-71.09380812718278,42.30906506487614],[-71.09378106033957,42.30895416119755],[-71.09373256768473,42.30886069547847],[-71.09360296786643,42.30879923562986],[-71.09349792878109,42.30874120732293],[-71.09338585532133,42.30869549021994],[-71.09329608859412,42.30863248572977],[-71.09322742718867,42.30854895489794],[-71.09316357631258,42.30846221488648],[-71.0931024945715,42.30833388764682],[-71.09304963468306,42.30822395266523],[-71.0929843083172,42.30810546990606],[-71.09294378269006,42.30801029455507],[-71.09290038019073,42.30791147565286],[-71.09285481531134,42.30781993964717],[-71.09280692217283,42.30773066156257],[-71.0927670575422,42.30759753114278],[-71.09276415265697,42.30750504300794],[-71.0928449997535,42.3074258351181],[-71.09296485977272,42.30737594254774],[-71.0930848874607,42.3073271251759],[-71.0931991441269,42.30727509945466],[-71.09329754415789,42.30721756018571],[-71.09342443246415,42.30713066146929],[-71.09358324034547,42.30706435441115],[-71.09369690302042,42.30701902487783],[-71.09380652713462,42.30697949298696],[-71.09391966329058,42.30694480149567],[-71.09403270893227,42.30691050464286],[-71.09415221196736,42.3068741651215],[-71.0942677792532,42.30683952377017],[-71.09438137092592,42.30680710469411],[-71.09450041824682,42.30678625292472],[-71.09460998932468,42.30674641694212],[-71.09472216396964,42.30670332162794],[-71.09482765479642,42.30664138169025],[-71.09493932381203,42.30657718874054],[-71.09504244706243,42.3065198389136],[-71.09512778333624,42.30642156207805],[-71.09520738705608,42.30629277664929],[-71.095275196804,42.30616767104338],[-71.09530923668733,42.30607720830427],[-71.09537475152742,42.30600019246675],[-71.0954747103485,42.30594371628321],[-71.09560220603595,42.30593344515638],[-71.09572399843047,42.30594002182239],[-71.09588512896504,42.30598221399947],[-71.0960352315245,42.3060553589934],[-71.09613295134324,42.30610937076511],[-71.09622089687727,42.30617292700918],[-71.09635230360519,42.30624849021595],[-71.09645862228275,42.30630958026775],[-71.09656536342753,42.30635337648432],[-71.09668880609577,42.30643774835667],[-71.09679064131736,42.30649527224202],[-71.09689195105538,42.30654766594142],[-71.09699094271518,42.30660022194537],[-71.09710219774847,42.30664341891891],[-71.0972178644487,42.30667914345049],[-71.09732662419263,42.30671922094945],[-71.09749447758016,42.3067684271678],[-71.09764750446219,42.30680113766275],[-71.0977573417051,42.30674790038611],[-71.0977048424713,42.30665608986601],[-71.09765368350375,42.30656446836517],[-71.0976081245355,42.30647122686659],[-71.09755087304674,42.3063648386405],[-71.09750504038648,42.30626822081725],[-71.09748579596555,42.30617181578991],[-71.09748448899022,42.30607216893258],[-71.09748693983018,42.30598133462608],[-71.0974928957616,42.3058470406113],[-71.09749567666037,42.30572381976695],[-71.09751617049093,42.30558778478034],[-71.09759939713753,42.30549751485236],[-71.09776963975979,42.30546815694311],[-71.09788567460282,42.3054356044365],[-71.09800782919267,42.30539297373008],[-71.09817140615596,42.30534661059843],[-71.09833383571173,42.30530355118121],[-71.09847858394288,42.30522116517217],[-71.09856130539997,42.30514448124622],[-71.09865145301293,42.30507976016978],[-71.09874210150734,42.3050188043756],[-71.09891903445354,42.30499700986705],[-71.09903123480761,42.30504613220713],[-71.0991206685603,42.30515343714161],[-71.09913858968498,42.3052465990607],[-71.09925591123805,42.30535917183403],[-71.09935556861006,42.30541846926057],[-71.09950143569023,42.3054945048178],[-71.09963098464033,42.30558931916856],[-71.0997205203982,42.30565640875851],[-71.09983954800202,42.30575476628229],[-71.09994739373438,42.30586364327285],[-71.09999192433072,42.30597842773017],[-71.10004485854805,42.3060998021797],[-71.10003556660935,42.30620492894695],[-71.10002832255684,42.30630875395281],[-71.100018522936,42.30640064806074],[-71.09999264911848,42.30648951948465],[-71.09994360591351,42.30661188131922],[-71.09983736857134,42.30670953643985],[-71.09972208548582,42.30675987127697],[-71.09959252399764,42.3067897414157],[-71.09945256055532,42.30680454047412],[-71.09932533864804,42.30680452714535],[-71.09915767256389,42.30677743106911],[-71.0990285468855,42.30670997580389],[-71.09891957391666,42.30664118114007],[-71.09884930951758,42.30656321633666],[-71.0987770950975,42.30648830226617],[-71.09870488068415,42.30640971800148],[-71.09862089583918,42.30633787715558],[-71.09851135358343,42.30627394999181],[-71.09837999233385,42.30622051797025],[-71.09820125861735,42.30623806063159],[-71.0981836295157,42.30632853556174],[-71.09825520162963,42.30642154198291],[-71.09831070578491,42.30655467184882],[-71.098362387718,42.30663989085526],[-71.09841003277333,42.30673093297791],[-71.0984747120233,42.30682275907053],[-71.09852999706276,42.30691025837528],[-71.09856925542921,42.30699591730174],[-71.09860926838006,42.3071126152703],[-71.09846603433797,42.30717640336744],[-71.09834847851887,42.30714421790005],[-71.09822490448977,42.30708728419395],[-71.0980495458532,42.30702036216394],[-71.09789798807708,42.30700130168287],[-71.0977742454143,42.30699457227805],[-71.09762515954665,42.3069949072299],[-71.0974455794179,42.30699033508626],[-71.09730920047282,42.30700583855113],[-71.09716997513092,42.30702373870532],[-71.09704239511659,42.30704560831739],[-71.09691928544834,42.30705938674116],[-71.09676072880285,42.30707930351321],[-71.09660810480828,42.30704885195554],[-71.09647984068613,42.30701776744338],[-71.09636483108831,42.30696858714045],[-71.09620178699186,42.30698593695455],[-71.09606403808773,42.30701380414295],[-71.09593390248877,42.30705375483653],[-71.09583058054709,42.30710599344621],[-71.0957541383439,42.30718491997519],[-71.0956858792137,42.30727209696222],[-71.09561204834368,42.30734393132369],[-71.09551928562348,42.30744649419034],[-71.09551609724141,42.30753710758862],[-71.09559197592624,42.30760745769184],[-71.09567077271679,42.30768292926962],[-71.09574931229959,42.30775237486431],[-71.09584040689326,42.30785256676566],[-71.09571294970374,42.30793641758962],[-71.09558377169402,42.30797894683603],[-71.0954257718988,42.30802299054992],[-71.09527844940243,42.30807412719112],[-71.09513004575263,42.30813104847682],[-71.0950141640157,42.30816339681439],[-71.09484974899422,42.30820071673058],[-71.09469709463542,42.30824410546104],[-71.0945825519711,42.30828056779082],[-71.09446154950996,42.30831871080408],[-71.09435037276519,42.30835878340763],[-71.09419824158574,42.30839846212519],[-71.09408665428754,42.30844288664199],[-71.09396531417158,42.30848728798782],[-71.0938187988137,42.30852442752869],[-71.09367087759836,42.30855091577725],[-71.09350373400645,42.30858102799187],[-71.0933735850706,42.30860107622681],[-71.09324202862318,42.30856124174767],[-71.09318214807058,42.30843757756271],[-71.09312868960522,42.30835210632815],[-71.09306351239117,42.30825071053619],[-71.0929994413516,42.30813231751639],[-71.0929597247617,42.30803473933894],[-71.0929156015166,42.30793184364208],[-71.0928707629701,42.30784742773591],[-71.09282209954418,42.30772068421125],[-71.09279146141405,42.30762850807991],[-71.09279058156129,42.30752354995156],[-71.09288770240106,42.30743789117368],[-71.09298970812313,42.30738526213759],[-71.09310635085424,42.30733583000741],[-71.09328628760743,42.30718954028482],[-71.09339368619894,42.30714461352049],[-71.09355592002058,42.30708245977076],[-71.09366942878161,42.30703783635087],[-71.09377904928125,42.30699562615377],[-71.09389043915473,42.30695496573875],[-71.09400433403762,42.30691824965196],[-71.09412546553865,42.30688506259221],[-71.09429268287471,42.30683997811814],[-71.09446452990055,42.30681420504698],[-71.09461158305002,42.30675607206016],[-71.09474270242323,42.30669804979948],[-71.09485250943264,42.30663764658503],[-71.09495224320192,42.30657708539645],[-71.09507969602004,42.30647788426879],[-71.09514796020053,42.30638206375714],[-71.09519891006121,42.30628619262573],[-71.09525413529855,42.30617481872601],[-71.09530352342333,42.30608931552805],[-71.09542866130738,42.30602135089575],[-71.095570129,42.30600455649054],[-71.09574731321244,42.30602669429409],[-71.09587988849374,42.30605846569595],[-71.09605815858417,42.30612591680313],[-71.09619295292134,42.30618142698614],[-71.09632046805106,42.306243881762],[-71.0964539719471,42.30631854994375],[-71.09662631009401,42.30641418830783],[-71.0967408104087,42.30647531282882],[-71.09685120131968,42.30652174780789],[-71.09699257724596,42.30658400281089],[-71.0971718436053,42.30665614369284],[-71.09731145080596,42.30668982637471],[-71.09742169253236,42.3067439582091],[-71.09753127719365,42.30678671390796],[-71.097681969044,42.30675463222946],[-71.09766905302273,42.30663958705011],[-71.09760994742263,42.30652257286418],[-71.0975374969667,42.30640115961126],[-71.09749631790514,42.3063155172179],[-71.09745926118714,42.30618756136766],[-71.09744899555511,42.30608961272411],[-71.0974665205153,42.30599785884105],[-71.09746798347568,42.30586185972809],[-71.09748660306842,42.30574686642275],[-71.09749503478523,42.30561437181272],[-71.097578307985,42.30552287988869],[-71.09769850579664,42.3054925651933],[-71.09785178219144,42.30545327897751],[-71.09796521673726,42.30540248768593],[-71.09811466805105,42.30536561555014],[-71.09823711480287,42.30533375281279],[-71.09838598290008,42.30527521637975],[-71.09851317018116,42.3051810557749],[-71.09863309689646,42.30509493164144],[-71.09876138077459,42.30501583621386],[-71.098938207056,42.30502114808816],[-71.09903364484681,42.30507670270924],[-71.09911862278045,42.30519858631407],[-71.09917020109587,42.30528721734863],[-71.09925305594719,42.305356669585],[-71.09938334808149,42.30543923267427],[-71.0995199666988,42.30553064180946],[-71.09961890354822,42.30559094979932],[-71.0997415034553,42.30568341848549],[-71.09986091689322,42.30577984524106],[-71.09995674145686,42.30588287651324],[-71.10001391511912,42.3060090950022],[-71.10001835147347,42.30612918660821],[-71.10001801622039,42.30622898107814],[-71.10001052939198,42.3063600897027],[-71.09998470480132,42.3064817876135],[-71.09995797857206,42.30660045772742],[-71.09989207782682,42.30668347410568],[-71.09974939047002,42.3067260135771],[-71.09946432187098,42.30682968770803],[-71.09933784411183,42.30683656538257],[-71.09921118826567,42.30681841355938],[-71.0990886277214,42.30678371949023],[-71.09895830715237,42.30671205767196],[-71.09886094474243,42.30661847099442],[-71.09877156035061,42.30653509184695],[-71.09869520888087,42.30645850672897],[-71.09861396365056,42.30639150024269],[-71.0985203079793,42.30632729151721],[-71.09841155787026,42.30627282845406],[-71.0982469911101,42.30624370316262],[-71.09818591648795,42.30633564517723],[-71.09826370535673,42.30643007373926],[-71.09833841937012,42.30654876149951],[-71.098383350711,42.30667661441858],[-71.09845315272558,42.30677998121212],[-71.09851410947647,42.30688931766821],[-71.09857627890904,42.30699977930271],[-71.09860610780753,42.30710061286493],[-71.09849567330818,42.30717896033062],[-71.09834414227372,42.30715016894204],[-71.09819482020077,42.30709604019547],[-71.09808191412536,42.30705983669926],[-71.09791208454058,42.3070118605397],[-71.09778014318017,42.3069940595948],[-71.09760159346382,42.30699673034181],[-71.09743627391735,42.30699993646987],[-71.09730168302784,42.30700855697191],[-71.09718167287757,42.3070278711449],[-71.09706243363904,42.30704653971154],[-71.09689027111523,42.30707116655574],[-71.09671513343547,42.30708617953319],[-71.09658992121292,42.30705768001073],[-71.09647230012834,42.30701325935593],[-71.09631102019274,42.30697450649235],[-71.0961592690977,42.30699476486499],[-71.09603162881443,42.30702085379826],[-71.09591023054763,42.3070575391825],[-71.09578302895115,42.30714267623618],[-71.09570763547819,42.30722758021778],[-71.09562402756427,42.30731987898749],[-71.09553474812138,42.30739535628624],[-71.09547807576185,42.30747935940767],[-71.09550169431753,42.30757580068639],[-71.09559591087653,42.30764770467046],[-71.09568042042196,42.30771888043848],[-71.09580866246735,42.30780799526281],[-71.09577263135846,42.30792077874516],[-71.09562949886508,42.30797817128125],[-71.09546544134993,42.30802356330329],[-71.09528952300701,42.3080705860286],[-71.095121101051,42.30812445223351],[-71.09500281311075,42.30815640881946],[-71.0948815139148,42.30819223610618],[-71.09476372753149,42.30822333793616],[-71.09459605058329,42.30826574144397],[-71.09448211419301,42.30829809705978],[-71.09432826131696,42.30835949388007],[-71.09422111380388,42.30840808048448],[-71.09410585137371,42.30844318238195],[-71.09399339440857,42.30848371997838],[-71.09387571676511,42.30852065400666],[-71.09374138626585,42.30855409270989],[-71.09366939147063,42.3086373094661],[-71.09371584565095,42.30872963211914],[-71.09377696891502,42.30883984705805],[-71.0938862137394,42.30894753538083],[-71.09395122208544,42.30902594970767],[-71.09406841274222,42.30912250234884],[-71.09419171517155,42.30921619491478],[-71.09430875988552,42.3093171599593],[-71.09438666382172,42.30938806852809],[-71.0944974889119,42.30947323711549],[-71.09456229864897,42.30958540150118],[-71.09461053509281,42.30966985549993],[-71.09464852393732,42.30975851256419],[-71.09470060942522,42.30984138863312],[-71.09476226914865,42.30992769769652],[-71.09482167823937,42.31001147836756],[-71.09487132745683,42.3100989979373],[-71.0949326812945,42.31018352823376],[-71.09500871519383,42.3102568568775],[-71.09506521756265,42.31034097029097],[-71.0951225066882,42.31042356299223],[-71.0951813581197,42.31050242104844],[-71.09528621140063,42.31061427893263],[-71.095397349965,42.31072055901411],[-71.09549571524627,42.31078596876242],[-71.09559831371539,42.31084791004972],[-71.09569903707337,42.31090132874326],[-71.09580549964937,42.31094732605158],[-71.09593375631187,42.31100929118475],[-71.09596182304387,42.31110188995773],[-71.09593052607569,42.31119796752539],[-71.09591335929849,42.31128849153404],[-71.09589511842229,42.31138062369232],[-71.09588122943113,42.3115080648187],[-71.09584195583513,42.31161284265024],[-71.09580522024638,42.31171277961445],[-71.09578398304072,42.31180747710246],[-71.0957429554319,42.31191403986607],[-71.09566217741676,42.31205298147702],[-71.09558166670098,42.31212887025831],[-71.09546483014387,42.31216014872007],[-71.09529823076679,42.31216323857556],[-71.09517599706385,42.31207780026242],[-71.09506080958947,42.31199584089058],[-71.09496868233919,42.31191697870814],[-71.09486420382379,42.3118207716317],[-71.09474261566042,42.31173719146354],[-71.09462101064861,42.3117163927387],[-71.09445892457293,42.3117068320341],[-71.09429602075481,42.31170656890794],[-71.09411111963938,42.31168448517226],[-71.09398630665547,42.31165372886664],[-71.09386496244868,42.31164982011119],[-71.0937339527438,42.31152038643091],[-71.09365548116581,42.31143707032438],[-71.09357841608656,42.31133956712825],[-71.09354161089188,42.31123839867014],[-71.09347008999886,42.31110395887053],[-71.09343691811252,42.31098077601405],[-71.09337892470941,42.31085410380958],[-71.09335623436573,42.31074623904866],[-71.09339276771686,42.31065062726561],[-71.09346313246303,42.31054796793331],[-71.09351407266061,42.31044760819643],[-71.09351905764244,42.31034545829018],[-71.09353820529533,42.31023806164517],[-71.09355030367227,42.31011870068932],[-71.09358066026432,42.31002180564931],[-71.09361616782333,42.30992591320661],[-71.0936232594704,42.30982004737314],[-71.09363643454688,42.30968072422881],[-71.09364387256915,42.30959007101038],[-71.09363202868208,42.30947091816368],[-71.09365447883053,42.30936885837012],[-71.09370966972006,42.30928497305389],[-71.09376815505468,42.30917685997873],[-71.09379356803615,42.30904680049992],[-71.09377555403769,42.3089428502272],[-71.09364804639823,42.30884379331022],[-71.09349355381653,42.30876983437257],[-71.09340390026956,42.30870327186723],[-71.09327343868794,42.30861271793971],[-71.09320675605163,42.3084760456304],[-71.09315603492219,42.30839067087802],[-71.0930681391178,42.30826273232191],[-71.0930141660978,42.3081792139547],[-71.09297375751053,42.308083323143],[-71.09292038398027,42.30791649827219],[-71.0928791210578,42.30781761935236],[-71.09283028496058,42.30768968393739],[-71.09279018373331,42.30760175741353],[-71.09277454787203,42.30750162001262],[-71.0928367799421,42.3074111590647],[-71.09296115790072,42.30736656328874],[-71.09306956717828,42.30731668445027],[-71.09319251590105,42.30727316062851],[-71.09334696388476,42.30725102818],[-71.09349996161298,42.30719193934024],[-71.09366602123781,42.30713723396544],[-71.0938312681705,42.30708768505097],[-71.0939835074337,42.30704169427737],[-71.09410224625766,42.30700613429808],[-71.09414296983297,42.30699256355188]]}}
