{"type":"Feature","properties":{"name":"FranklinPark-6k","legacyMeetId":"5911","distance":"6k"},"geometry":{"type":"LineString","coordinates":[[-71.0923789530202,42.30824264292386],[-71.0929531697846,42.30756787121511],[-71.09308669350212,42.30753069747454],[-71.09320990747874,42.30750462975568],[-71.09333278617923,42.30747722093231],[-71.09345315030878,42.30745534416503],[-71.09357579208792,42.30743269633675],[-71.0937453791926,42.30740101610331],[-71.09391982429074,42.30736121975531],[-71.094087952155,42.30732519402873],[-71.09421025617286,42.30729828460944],[-71.09433355394427,42.3072764916619],[-71.09445474939885,42.30725289936525],[-71.09462438031582,42.30721420755279],[-71.09474997542286,42.30718058883126],[-71.09489346763392,42.30714417036509],[-71.09503254437399,42.30711422820802],[-71.09516675294418,42.30708951747442],[-71.095308023109,42.30706583792807],[-71.09542929842306,42.30704683512075],[-71.09556678467563,42.30701984460737],[-71.0957410216621,42.30698568437646],[-71.09591799536133,42.306955496151],[-71.09608747769543,42.30692864336571],[-71.09623944987108,42.30691070861023],[-71.09636929524581,42.30692477188783],[-71.09651853234043,42.30699162215502],[-71.09660313825785,42.30706460196747],[-71.09668323988723,42.30714019581888],[-71.09675844463408,42.30721851436131],[-71.0968319433588,42.30729300829297],[-71.09689475702129,42.30737467844433],[-71.09697058859534,42.30745109673447],[-71.09706161357575,42.30751931693457],[-71.09713159904484,42.3075930379313],[-71.09719569010407,42.3076783572437],[-71.09725231211232,42.30776956799981],[-71.09731216593353,42.30785337220325],[-71.09737292700703,42.30793825825705],[-71.09742816607167,42.30803189027026],[-71.09747388062456,42.30812968219377],[-71.09751052679282,42.30826366855324],[-71.0975165321174,42.30836175289322],[-71.09750616510503,42.30845921862249],[-71.09747720925263,42.3085548994319],[-71.09745020234466,42.30865146166311],[-71.09741493771563,42.30874806402986],[-71.09738703117075,42.30884563911982],[-71.09733390796475,42.30897234560037],[-71.09730043116805,42.30906741949818],[-71.09727785367309,42.30915984727051],[-71.0972471029773,42.30925411097751],[-71.09720111377683,42.30938236154493],[-71.09716532413695,42.30947127903218],[-71.09712572912632,42.30960272920419],[-71.09708461589072,42.30972401837251],[-71.09705190639743,42.3098589715176],[-71.09703429286361,42.30994903082399],[-71.0970227576654,42.31006413802679],[-71.09699673759455,42.31018734343318],[-71.09697099955467,42.31027671992091],[-71.09694042150807,42.31041104541858],[-71.09688177279776,42.31053494517681],[-71.09679234340003,42.31064991074049],[-71.09671563424412,42.31073196027674],[-71.09663033208673,42.31080152089768],[-71.09652605751026,42.31087146779016],[-71.0964124631239,42.31092296246311],[-71.0962959566628,42.31095560621184],[-71.09616928297764,42.31096968396976],[-71.09604119076945,42.3109727938885],[-71.09588322322602,42.31094818214434],[-71.09576934393154,42.31090828096346],[-71.09560666231674,42.31084681104259],[-71.09550319746297,42.31079329519029],[-71.09540321008093,42.31073648029727],[-71.09525484063505,42.31061362973946],[-71.09516896776375,42.31050469737632],[-71.09510951620344,42.31042111085993],[-71.09500085280946,42.31026592574017],[-71.0949447545441,42.31018108312816],[-71.09485776349851,42.31005798244313],[-71.0947780424649,42.30994359189285],[-71.09472017367366,42.30985901404054],[-71.09466487489246,42.30977110450632],[-71.09462589816953,42.30968376357736],[-71.09457666725022,42.30957925972142],[-71.0944944382685,42.30945358556986],[-71.0944017955795,42.30936533278825],[-71.09428128258328,42.30928704499313],[-71.09420294097494,42.30921586671766],[-71.09410145312148,42.30913793411833],[-71.09399958134992,42.30905879639545],[-71.09391516344988,42.30898983008123],[-71.09381486346679,42.30890496273172],[-71.0937229323644,42.30882830517329],[-71.09360774098455,42.30876341821124],[-71.09349271528565,42.30869490565158],[-71.09339006167355,42.30864205035267],[-71.09325594109822,42.30855386234452],[-71.09319825154196,42.30847198826419],[-71.09315801380619,42.30838034198508],[-71.09311924892717,42.30828561215203],[-71.09305371255297,42.30818028414902],[-71.09298331737098,42.30805680147738],[-71.09294664296421,42.30795497374024],[-71.09289531744261,42.3078606743311],[-71.09286781513343,42.30776165765299],[-71.0928267150839,42.30767608672881],[-71.09279571315079,42.30758319481316],[-71.09277962734552,42.30749176545794],[-71.09288702253347,42.30738318449729],[-71.09298226880333,42.30732364076336],[-71.0930862418947,42.30727021441299],[-71.09319682356512,42.30721807083985],[-71.0933021549811,42.30716847862334],[-71.09344412482776,42.30709879391093],[-71.09354729717053,42.30705069647205],[-71.0936525700491,42.30700597739571],[-71.09380863092042,42.30694025647823],[-71.093958271273,42.30688906645846],[-71.09409483247788,42.30685234998386],[-71.09422608740077,42.30681763847677],[-71.09435779396532,42.3067916011215],[-71.09447649168504,42.30676736995438],[-71.09460691058537,42.30673963904118],[-71.0947360118535,42.30668219146334],[-71.0948453979936,42.30661253109523],[-71.09498929248932,42.30654774888406],[-71.09511175188624,42.30653329191475],[-71.09526068408148,42.30653910311664],[-71.0954072317735,42.30655380705373],[-71.09553213421275,42.30657126708908],[-71.09565534291453,42.30659810142633],[-71.0958169582091,42.30664236618581],[-71.09592709697526,42.30668181507014],[-71.09603442149783,42.30673470973213],[-71.09617370694075,42.30680686391067],[-71.09630533502016,42.30689137573709],[-71.09644322002349,42.30696840525972],[-71.09657394885275,42.3070600019304],[-71.09666361867812,42.30712412927327],[-71.09675055308853,42.30719678154757],[-71.09682161062933,42.30727269011853],[-71.09689648773082,42.3073467369061],[-71.09696843868572,42.3074232318882],[-71.09704307093848,42.30750197694975],[-71.09711157227565,42.30758484333596],[-71.09720071410396,42.30769663616967],[-71.09727704136438,42.30779821570175],[-71.09734435932046,42.30788923926586],[-71.09740244092775,42.3079849284829],[-71.09745803947725,42.30809099469223],[-71.0974983057097,42.30819891174945],[-71.09754113269776,42.3083179590211],[-71.09755147955332,42.3084132355216],[-71.09753818774254,42.30851183786654],[-71.09750667444413,42.30859900495334],[-71.09747827855715,42.30870324321684],[-71.09743672945633,42.30879226115515],[-71.09738302625323,42.30888518234053],[-71.0973468638452,42.30897182320384],[-71.09731165132985,42.30906398953856],[-71.0972784233819,42.3091605592935],[-71.09723978481317,42.30925359327497],[-71.0972188102373,42.30934352124284],[-71.09718349266466,42.30943054816466],[-71.09714805558791,42.30956000032597],[-71.0971085945896,42.30968717306207],[-71.09706803266953,42.30980751671704],[-71.09705114546134,42.30990038228438],[-71.09702965041609,42.3100310496185],[-71.0970144653995,42.31014338035288],[-71.09699243537398,42.31024443617929],[-71.09696580635338,42.31033396427072],[-71.09693771300061,42.31042384435255],[-71.09691082312287,42.31051552498976],[-71.09684509244651,42.31059857738706],[-71.09677288528462,42.31068369808699],[-71.09669531082366,42.31076601055801],[-71.09660343877019,42.31083090194254],[-71.09650439970802,42.31089318505308],[-71.09633891301615,42.31094725017599],[-71.09621407330104,42.31097052927552],[-71.09605178362706,42.31100137392855],[-71.09596176764732,42.31109711166508],[-71.09592160217046,42.31121231998733],[-71.09590372717506,42.31134207555397],[-71.09589232906919,42.31144122689934],[-71.09584872065804,42.31155279562927],[-71.09583660951883,42.31164878631029],[-71.09578909772547,42.31176941284156],[-71.09574004455476,42.31187237128382],[-71.09570398566927,42.31197002536004],[-71.09564358533994,42.31208878548729],[-71.09551732264657,42.3121731821356],[-71.09537746246804,42.31219676103903],[-71.09523950249226,42.31215524225323],[-71.09514651438842,42.31204096428264],[-71.09504809037138,42.31195495660398],[-71.09494895545974,42.31186329200911],[-71.09488191963854,42.31177497912518],[-71.09473967839942,42.31172339324428],[-71.09458679891397,42.31169202990766],[-71.0944261767678,42.31170176065139],[-71.09427541146522,42.3116962899029],[-71.09415388779938,42.31167619584052],[-71.09401826310378,42.31163021764209],[-71.09386777516991,42.31163159125128],[-71.09374866010498,42.31154940149703],[-71.0936577667369,42.3114333957445],[-71.09359278301437,42.31134053603212],[-71.09357530202595,42.31120728646835],[-71.09352268683385,42.31111908489462],[-71.09347356595718,42.31098634121981],[-71.09343264327116,42.31088324476237],[-71.09340619256321,42.31078481631548],[-71.09343759064197,42.31068596582345],[-71.09349241556343,42.31058233704397],[-71.09352376713002,42.31047700059439],[-71.09355677671951,42.3103454153761],[-71.09357142020258,42.31024105880613],[-71.0936006756006,42.31014193809256],[-71.09361943162504,42.3100396113571],[-71.09363944049524,42.30993990188515],[-71.09366002019499,42.30983379249347],[-71.09366979760624,42.30973432254927],[-71.09365667386685,42.30963039561058],[-71.09367646198011,42.30952663536268],[-71.09366120510445,42.30942864310077],[-71.09367280780081,42.30932586405159],[-71.0937210130756,42.30920029337118],[-71.09381614226467,42.30912095052229],[-71.09379504761733,42.30902170737379],[-71.09377620491061,42.30888952597672],[-71.09365626911776,42.30879449698629],[-71.09355343011349,42.30874439388703],[-71.09344801518485,42.30869304985567],[-71.09334882134574,42.30863446668111],[-71.09323439550958,42.30853030308578],[-71.09317411884992,42.30840349337988],[-71.09310390450432,42.30827705554052],[-71.0930388350787,42.30817446289384],[-71.09298432656756,42.30807211510609],[-71.09294338880562,42.30797173676594],[-71.09289227511739,42.30784382825158],[-71.09285162536412,42.30775591302427],[-71.09282313513566,42.30766394215324],[-71.09279163844946,42.30757138803282],[-71.09278386280005,42.30748003576201],[-71.09285964168922,42.30739833086364],[-71.09296787616837,42.30734253551683],[-71.09308111123427,42.30729589985863],[-71.09319054371196,42.30724340498783],[-71.0932942496688,42.30719321541302],[-71.09344524265293,42.30712575244846],[-71.09360257123836,42.30705885896757],[-71.0937625832243,42.30699168078467],[-71.09387137384216,42.3069510985841],[-71.09398057139339,42.30690992499965],[-71.09409509129503,42.30686917848617],[-71.09424277525297,42.30682006049934],[-71.09435912772207,42.306792174171],[-71.09449337427951,42.30676803949574],[-71.09463531487738,42.30671968512284],[-71.09475257688878,42.3066639498404],[-71.09486045079106,42.30660393685143],[-71.09497256183963,42.30653861449206],[-71.0950859483463,42.3064650321697],[-71.09515054139541,42.30638098583102],[-71.09521521772119,42.30627726384419],[-71.09526803848941,42.30617379339373],[-71.09532242493412,42.30604596378321],[-71.09541679010528,42.30596644333691],[-71.09554369697628,42.30593233257747],[-71.09571463598799,42.3059248813865],[-71.09585076683678,42.30598387608143],[-71.09593379543257,42.30605657828781],[-71.09605251408993,42.30608238308276],[-71.09616195487217,42.30613764989437],[-71.09631627787616,42.30622512176343],[-71.09639648033603,42.30629987404848],[-71.09652346353178,42.30636144202384],[-71.09668466766745,42.30643179203859],[-71.09679886641774,42.30649030557591],[-71.09690553890852,42.30654444978083],[-71.09705050532303,42.30661883416646],[-71.09716870253209,42.30666168207006],[-71.09733413223704,42.30669694374183],[-71.09745017753606,42.30673776071303],[-71.0975761582285,42.30676570533709],[-71.09772620749085,42.30676463677113],[-71.09773177818711,42.30666993240153],[-71.09765734556758,42.30657114167615],[-71.09757808820869,42.30645115749749],[-71.09753614985452,42.30636257491978],[-71.09749560816863,42.30627664160885],[-71.09747403569723,42.30618315424137],[-71.09747038029751,42.30604477038164],[-71.097473845046,42.30595196810948],[-71.0974835022594,42.30585488395248],[-71.09750753869875,42.30573271233244],[-71.09751346725635,42.30560453780087],[-71.097594689362,42.3054913193693],[-71.09774377022558,42.30545784831585],[-71.09790758011421,42.30540598892603],[-71.09808350009145,42.30535829641228],[-71.0981992000363,42.30531899904015],[-71.09835213729012,42.30526205879781],[-71.09845571238407,42.30520576708089],[-71.09853461960815,42.30513235591971],[-71.09862537153228,42.30507111305321],[-71.09875788832197,42.30499536791981],[-71.09891290723154,42.304995442571],[-71.09906373056536,42.30506128393903],[-71.09912220826551,42.30515351547825],[-71.09913859654706,42.30524988945468],[-71.09924977746041,42.3053365598192],[-71.09936090444388,42.30542262601357],[-71.0994745609529,42.30548633242414],[-71.09959057047448,42.30555149098809],[-71.09969471506108,42.30562670302301],[-71.09976937310866,42.30569960076505],[-71.09986137693564,42.30576305831858],[-71.09995186126896,42.30583734891613],[-71.09998921456018,42.30592576734237],[-71.10001054325137,42.30601700692657],[-71.1000373902513,42.30612684010742],[-71.10003309992587,42.30621721661709],[-71.10001418783926,42.30631397448505],[-71.09999195470981,42.30643502717113],[-71.09996335087202,42.30652912401359],[-71.0998977239179,42.30663465225192],[-71.09978991311166,42.30669247421896],[-71.09967916544404,42.3067345736881],[-71.09955979949126,42.30678002502921],[-71.09943843517212,42.30681052289901],[-71.09930444292361,42.30680632111901],[-71.09918008518292,42.30677437103782],[-71.09906784733145,42.30671956526693],[-71.09894502183813,42.30664929068602],[-71.09886893845285,42.30656978511629],[-71.09876228293408,42.30646266156138],[-71.09868547771771,42.30639018087112],[-71.09859374949802,42.3063192020518],[-71.09847538337162,42.30625251178054],[-71.09833838273381,42.30620118648405],[-71.09819043235117,42.30624793261453],[-71.0982251549502,42.30633600345452],[-71.0982836489209,42.30642553394441],[-71.09835340957528,42.30651076432696],[-71.0984099223133,42.30659728951806],[-71.09847298625408,42.30671068606614],[-71.0985248227218,42.3068130582982],[-71.09857743121614,42.30691691863932],[-71.09862444300619,42.30701191180892],[-71.09857056390253,42.30710412041632],[-71.09842356275122,42.30713880279531],[-71.09827125867848,42.3070843362712],[-71.09813053849699,42.3070459942157],[-71.09799026990109,42.30700030647081],[-71.0978367301438,42.30697288670093],[-71.0976687663813,42.30697218744709],[-71.0975121419373,42.30697856164056],[-71.09738350807666,42.30698867515525],[-71.09725831701793,42.30700927476713],[-71.0970954335067,42.3070249552178],[-71.09696563026797,42.30705314180262],[-71.09683151444237,42.30707135670882],[-71.09666594118845,42.30706080621737],[-71.09650905708713,42.30700208813388],[-71.09639409003552,42.30696301114486],[-71.09625923193778,42.30696113550506],[-71.09612573184924,42.30697430147153],[-71.09600424935192,42.30701547269707],[-71.09585553602241,42.30707239390023],[-71.09576480533454,42.30713981227704],[-71.09568397736918,42.30721589606129],[-71.09560571972828,42.30732448737164],[-71.09553059990905,42.30739697814066],[-71.09548939756185,42.30748968413292],[-71.09553722662773,42.30758042070684],[-71.09561718154055,42.30764890720527],[-71.09570153806563,42.30771359775439],[-71.09582979383804,42.3078072731528],[-71.09583030960496,42.30789886789724],[-71.09569085159679,42.30795723022243],[-71.09556975554472,42.30799359445968],[-71.09540988987959,42.30803336451737],[-71.09529318290794,42.30806354842201],[-71.09517412009704,42.30809222521282],[-71.09505613185112,42.30813223825457],[-71.09493558169548,42.30816624442415],[-71.09481185816719,42.3081920526702],[-71.09464497125217,42.30824422892101],[-71.09452868630697,42.30828081591918],[-71.0943641151982,42.30833494678762],[-71.09424902292047,42.3083776165231],[-71.09410105681529,42.30843596824607],[-71.09393647918276,42.30849970042681],[-71.09379580738555,42.30852353358956],[-71.09367628923172,42.30859348113824],[-71.09366896178392,42.30868393107962],[-71.09374304268016,42.30877177130954],[-71.0938273204476,42.30886025587134],[-71.09389387970978,42.30896234532908],[-71.09398932108017,42.30905087332782],[-71.09412441489248,42.30914733207906],[-71.09420953411819,42.30922214171445],[-71.09433248246722,42.30932491291385],[-71.09441834129429,42.30939162769196],[-71.09450281379951,42.3094641175977],[-71.09456001108481,42.30958339145732],[-71.09461999108078,42.30966727032532],[-71.09466469714249,42.30975892655634],[-71.09473235048516,42.30984847219707],[-71.09479041327681,42.3099357566583],[-71.09485491454127,42.31005978643763],[-71.09491327883214,42.31013934364238],[-71.09498766013482,42.31026266647535],[-71.09505131531444,42.31034695887024],[-71.09515084917922,42.3104795234038],[-71.09522880989432,42.31057955280661],[-71.09531279009374,42.31066708334175],[-71.09541601825705,42.31074837161237],[-71.09551998455854,42.31080447454147],[-71.09562335345873,42.31087044536382],[-71.09577214055477,42.31092999984946],[-71.09589685663737,42.31097654659746],[-71.09595265570921,42.3111057252555],[-71.09593419223643,42.31119623164329],[-71.09591312176862,42.31129147462565],[-71.09592304200315,42.31140045703746],[-71.09590035719567,42.31153561237328],[-71.09586345248287,42.31165526960004],[-71.09579826887163,42.31175149360714],[-71.09577257922027,42.31184413500683],[-71.09573614057524,42.31196601543951],[-71.09569464134056,42.31205521481827],[-71.0956101911232,42.31216868030551],[-71.09550997002583,42.31222004240454],[-71.09534643502629,42.31222052275825],[-71.0952154463053,42.31213836339062],[-71.0951050848777,42.31204213931584],[-71.09499604766933,42.31195759859187],[-71.09490937428872,42.31186318671945],[-71.09481056081172,42.3117613673019],[-71.09469614722092,42.31172149659982],[-71.09452225760587,42.31169345212705],[-71.09434060243021,42.31168894884985],[-71.09420058203904,42.31169298593975],[-71.09408544107472,42.31165900874269],[-71.09391511093258,42.31163839558678],[-71.09375568033104,42.31158828563497],[-71.093682036463,42.31149829715125],[-71.09361611414953,42.31141150222125],[-71.09354888069717,42.31128584950669],[-71.09352326201666,42.31116420517996],[-71.09348006174261,42.31103854951482],[-71.09344554783101,42.3109483452417],[-71.0934083146879,42.31084687728145],[-71.09339915686368,42.3107392353666],[-71.09344806951147,42.31064127318963],[-71.09349989945476,42.31053942188321],[-71.09352986906597,42.31044520817394],[-71.09354855643747,42.31032027896601],[-71.09354442997781,42.3101987703339],[-71.09353597785798,42.31010142585961],[-71.09357388574439,42.31000236144609],[-71.09361357719038,42.30991630421337],[-71.09364050981861,42.30982458218782],[-71.09365741894715,42.30971701408632],[-71.09365976369455,42.30962003400985],[-71.0936693309595,42.30950069952126],[-71.09365159966292,42.30936443447568],[-71.09369036967834,42.30923907077838],[-71.09376150343702,42.30916314301536],[-71.09379906836467,42.30906301125589],[-71.093802682881,42.30896666042747],[-71.09377806398591,42.30887493009909],[-71.09368454549058,42.30881713883532],[-71.0935394175861,42.30874685235191],[-71.09342800700936,42.30869724058573],[-71.0932980290716,42.3086097032776],[-71.09321695428227,42.30852866782997],[-71.0931777469246,42.30844018691491],[-71.09313945927954,42.30835185772908],[-71.09309202787537,42.30826449482613],[-71.0930423159615,42.30816209169014],[-71.09296092799674,42.30804537352949],[-71.09293265147109,42.30795026318689],[-71.09289661762563,42.30785416373522],[-71.09285906226893,42.30776725090155],[-71.09282125449215,42.30768117497378],[-71.0927926692326,42.30758973059833],[-71.0927823517143,42.30749683558954],[-71.09285449097733,42.30742161729957],[-71.09298045434973,42.30737355748587],[-71.09314455864025,42.30730815799713],[-71.09325937000244,42.30726346196458],[-71.09336653950463,42.30722064101293],[-71.09347733852367,42.30718181093959],[-71.09363019866795,42.30712157070586],[-71.09374210917497,42.3070857141292],[-71.09390955473997,42.3070330797148],[-71.09407573165407,42.30698765990207],[-71.0942008891922,42.30695242066611],[-71.09431467228995,42.306916506801],[-71.09440999745989,42.30689078524255]]}}
