{"type":"Feature","properties":{"name":"Gans-8k","legacyMeetId":"8212","distance":"8k"},"geometry":{"type":"LineString","coordinates":[[-92.29474093798201,38.88861530207347],[-92.29534147927575,38.88399131621549],[-92.2953209182122,38.88387932716886],[-92.29527214590541,38.88376058126131],[-92.29521327831236,38.88367801344608],[-92.29511305964586,38.88357883420492],[-92.29502479573091,38.88349479726655],[-92.29493234459655,38.88341937991135],[-92.29483684304148,38.88336135082019],[-92.29471589978768,38.88330940177647],[-92.29458512858817,38.88326046447656],[-92.29443610787364,38.88322405593257],[-92.29429115286378,38.88321244212702],[-92.29412805004533,38.88321315443209],[-92.29401941995411,38.88322097981614],[-92.29387603061588,38.88325360350159],[-92.29376349937351,38.88329758223279],[-92.29372011072468,38.88333784205799],[-92.29367869845127,38.88339378160618],[-92.29366464649772,38.88345156431985],[-92.2936635953702,38.88351691126203],[-92.29367192882845,38.88358001335973],[-92.29369138364683,38.88363635293627],[-92.29373133248909,38.88368429933884],[-92.29378056775953,38.88372075066084],[-92.29387660563036,38.88375289322389],[-92.29446549629473,38.88386994575824],[-92.29455747101139,38.88394667006281],[-92.29459804701125,38.88402429862224],[-92.2946097245488,38.88408464695649],[-92.29459653248537,38.88416691846255],[-92.29445430373629,38.88469928856242],[-92.29448289474394,38.88553973573091],[-92.29447771373367,38.88575560835105],[-92.29447131605676,38.88590692047164],[-92.29440682667843,38.88603508176251],[-92.29430675284938,38.88616915309494],[-92.29417616899231,38.88626794619189],[-92.2940585742138,38.88633713067394],[-92.29392974478831,38.88639174202401],[-92.29380767708788,38.88642304727011],[-92.29370758871538,38.88642918125954],[-92.29359526220988,38.88642594973633],[-92.2934174878729,38.88641160808444],[-92.29327273021758,38.88638286222811],[-92.29315899960224,38.8863571278633],[-92.29303208660178,38.88628309964042],[-92.29261873947023,38.88584450313586],[-92.29252362327486,38.88578843716457],[-92.29245485981222,38.88576360659663],[-92.29236895579955,38.88576003623668],[-92.2922854082158,38.88577631422304],[-92.29216655630388,38.88582186734778],[-92.29188845397185,38.8859763244512],[-92.29146480724252,38.88631336631138],[-92.29137575011484,38.88647678332234],[-92.29135063317793,38.88661085037243],[-92.2913550157899,38.88678058722957],[-92.29136330248706,38.88694898192627],[-92.29138990279735,38.88709468482686],[-92.29148565401296,38.88725338521246],[-92.2916622280241,38.88737724616114],[-92.2918083164437,38.88742564040682],[-92.29199403625621,38.88745781625047],[-92.29215253180136,38.88744442728309],[-92.29232950210717,38.88736467185104],[-92.29249941477329,38.88727127256954],[-92.29257566200306,38.88715467817983],[-92.29269901713147,38.88688074809253],[-92.29287952085103,38.88670131380595],[-92.2930032398322,38.88664389794889],[-92.29313769591128,38.88661355712994],[-92.29329697503016,38.8866006767415],[-92.29344884733052,38.8866227192861],[-92.29357433595325,38.88666758302808],[-92.29371249329276,38.88676419616092],[-92.29379886960523,38.88688205666668],[-92.2938648414103,38.88712405609441],[-92.29391127290863,38.88741338549708],[-92.2939531475345,38.88760859150147],[-92.29430352877601,38.88861321996563],[-92.29438271135182,38.88866879029558],[-92.29449578100645,38.88868937732603],[-92.29459638861941,38.88869040939637],[-92.2946943974021,38.8886392413193],[-92.29471740724445,38.88861382777835],[-92.29474093798201,38.88861530207347],[-92.29534147927575,38.88399131621549],[-92.2953209182122,38.88387932716886],[-92.29527214590541,38.88376058126131],[-92.29521327831236,38.88367801344608],[-92.29511305964586,38.88357883420492],[-92.29502479573091,38.88349479726655],[-92.29493234459655,38.88341937991135],[-92.29483684304148,38.88336135082019],[-92.29471589978768,38.88330940177647],[-92.29458512858817,38.88326046447656],[-92.29443610787364,38.88322405593257],[-92.29429115286378,38.88321244212702],[-92.29412805004533,38.88321315443209],[-92.29401941995411,38.88322097981614],[-92.29387603061588,38.88325360350159],[-92.29376349937351,38.88329758223279],[-92.29372011072468,38.88333784205799],[-92.29367869845127,38.88339378160618],[-92.29366464649772,38.88345156431985],[-92.2936635953702,38.88351691126203],[-92.29367192882845,38.88358001335973],[-92.29369138364683,38.88363635293627],[-92.29373133248909,38.88368429933884],[-92.29378056775953,38.88372075066084],[-92.29387660563036,38.88375289322389],[-92.29446549629473,38.88386994575824],[-92.29455747101139,38.88394667006281],[-92.29459804701125,38.88402429862224],[-92.2946097245488,38.88408464695649],[-92.29459653248537,38.88416691846255],[-92.29445430373629,38.88469928856242],[-92.29448289474394,38.88553973573091],[-92.29447771373367,38.88575560835105],[-92.29447131605676,38.88590692047164],[-92.29440682667843,38.88603508176251],[-92.29430675284938,38.88616915309494],[-92.29417616899231,38.88626794619189],[-92.2940585742138,38.88633713067394],[-92.29392974478831,38.88639174202401],[-92.29380767708788,38.88642304727011],[-92.29370758871538,38.88642918125954],[-92.29359526220988,38.88642594973633],[-92.2934174878729,38.88641160808444],[-92.29327273021758,38.88638286222811],[-92.29315899960224,38.8863571278633],[-92.29303208660178,38.88628309964042],[-92.29261873947023,38.88584450313586],[-92.29252362327486,38.88578843716457],[-92.29245485981222,38.88576360659663],[-92.29236895579955,38.88576003623668],[-92.2922854082158,38.88577631422304],[-92.2917642221238,38.8859311833101],[-92.2912345751127,38.88592736244775],[-92.29104025934065,38.8858947765536],[-92.29089806041785,38.88584938528376],[-92.29079700328708,38.88576886085169],[-92.29069103784137,38.88567323159126],[-92.29039401403644,38.88524699308541],[-92.29030439924598,38.88512610928205],[-92.29017036904789,38.88504084816723],[-92.29001357883449,38.8850121416574],[-92.28988537221997,38.8850289191944],[-92.28970708003384,38.8851019769934],[-92.28962581531773,38.88516288352186],[-92.28955752221624,38.88525743153841],[-92.28955001134264,38.88533962606979],[-92.28982401730502,38.8857738952072],[-92.28977801605414,38.88590817482749],[-92.28973788234956,38.88596405179032],[-92.28958056544984,38.88602109556738],[-92.28937668639136,38.88602811195236],[-92.28914868777025,38.88593868186931],[-92.28876893134074,38.88581842889298],[-92.28845479952146,38.88583357009482],[-92.28823872538214,38.88589447258637],[-92.28809617847033,38.88598174564115],[-92.28802746746793,38.88607531415092],[-92.2880048597207,38.88615565249996],[-92.28804403389691,38.8862340319183],[-92.28813854983295,38.88633005275774],[-92.28827154260938,38.88641261054359],[-92.28849125913727,38.88652278786595],[-92.2887075147118,38.88659929949107],[-92.28890437608612,38.88664816221185],[-92.28901826173295,38.88665328707594],[-92.28926564862446,38.88663293758255],[-92.28942862784615,38.8865944357394],[-92.28953292811359,38.88656716441945],[-92.28973692798121,38.88646511960144],[-92.29002976635066,38.88622320205847],[-92.29030178031111,38.88605349304353],[-92.29036836152088,38.88603742441414],[-92.29045194176405,38.88604241547753],[-92.29053738598323,38.88607779364006],[-92.29063432962124,38.88613442641503],[-92.29069803439873,38.8862099378312],[-92.29073499763085,38.88628333022603],[-92.29073803242613,38.88637425819509],[-92.29065738281002,38.8865183117644],[-92.29040843297028,38.88686915522189],[-92.29040438707764,38.88695681684418],[-92.29042374666747,38.88704793495946],[-92.29111081492688,38.88815050271099],[-92.29116605124905,38.88819773862915],[-92.2913075551832,38.88827245627635],[-92.29148281518027,38.88829042756406],[-92.2916781436364,38.88826321684299],[-92.2919254334056,38.88821411656491],[-92.29205172509789,38.88818192889283],[-92.29220907330873,38.88813819269378],[-92.29240323988756,38.88804676067638],[-92.29250082173016,38.88797893822305],[-92.29259742840374,38.88787355656609],[-92.29265930601429,38.88774224526863],[-92.29269838836525,38.88753848668278],[-92.29267656103265,38.8872216883719],[-92.29268011815793,38.88694408621252],[-92.29271600018463,38.88686509364686],[-92.29278287576356,38.88678970498403],[-92.2928796440676,38.88670520546684],[-92.29296557297101,38.88666052589154],[-92.29309441427291,38.8866258883588],[-92.2932427947404,38.88659976611787],[-92.29331623239345,38.88660010655823],[-92.29346157878831,38.88662967266595],[-92.29355875798953,38.8866571885947],[-92.29367082030849,38.88672595664903],[-92.29375108819413,38.88680765531706],[-92.29379671357565,38.88687018426389],[-92.29381748359204,38.88692330784054],[-92.29382433720163,38.8869774757158],[-92.2938801577224,38.88723601603268],[-92.29395072331423,38.88761253554201],[-92.29405290288555,38.88790258052234],[-92.29415353881748,38.88817258519003],[-92.29421755982997,38.88837619560366],[-92.29429594634259,38.88860183746618],[-92.29434759564315,38.88864373556917],[-92.29438423022808,38.88867080187079],[-92.29447853298942,38.88868364238179],[-92.29456158882546,38.88868727468883],[-92.2946205512449,38.88867961591447],[-92.29469752751395,38.8886317083066],[-92.29471589324699,38.88861312595407],[-92.29533755411428,38.88400908603922],[-92.2953396593274,38.88395380960169],[-92.29533391040518,38.88391006147944],[-92.29531025332511,38.88383693563432],[-92.29528751943037,38.88379154407039],[-92.29525170341414,38.88373060002553],[-92.29518565533915,38.88364995707868],[-92.29513167434034,38.88360085313665],[-92.29508753426734,38.88355220383581],[-92.29499380269382,38.88347251471069],[-92.29489749249551,38.88340134030295],[-92.29479211730273,38.88334384587568],[-92.29467966585406,38.88329577125674],[-92.29455270989862,38.88325199244422],[-92.29446580530323,38.88322803111713],[-92.2943433073961,38.88321479804405],[-92.29418148265687,38.88321003249113],[-92.2940738599236,38.88321401176628],[-92.2939442580495,38.88323304258991],[-92.29380906019306,38.88327788825973],[-92.29373399752635,38.88331678696014],[-92.29369636543561,38.883373305357],[-92.29366464929504,38.88342376878078],[-92.29366420984482,38.88348095909884],[-92.29366178483107,38.88354534962285],[-92.29367646275475,38.88360568991714],[-92.29371430783,38.88366633168768],[-92.29375718073376,38.8837091931058],[-92.29383413338198,38.88373633359303],[-92.29390496522373,38.88375888145638],[-92.29443133022825,38.88386077077519],[-92.29449109783324,38.8838856692092],[-92.29453155413303,38.88391984202131],[-92.2945811151861,38.88398868507818],[-92.29460195045797,38.88405582319137],[-92.29460076756365,38.88413746797998],[-92.29447118861982,38.88463951829524],[-92.29445307144047,38.8846717139506],[-92.29445278044969,38.88473158798015],[-92.29448530394939,38.88551208534144],[-92.29447899490683,38.88571428612729],[-92.29447600474296,38.88588926724425],[-92.29446116557779,38.88593082156972],[-92.29441953488721,38.88601962513432],[-92.2943228810483,38.88615689077484],[-92.29418542371974,38.88625909715473],[-92.29407393889508,38.88633284160304],[-92.29394582575861,38.88638859046777],[-92.29382501454246,38.886420845967],[-92.29372129753658,38.88643218114733],[-92.29361091616245,38.8864287482163],[-92.29343330986059,38.88641424905159],[-92.2932886671925,38.88638693984984],[-92.29317343945473,38.88636069802091],[-92.29304601339717,38.88629163137497],[-92.2926377371746,38.88586311574823],[-92.29257226185851,38.88581733936326],[-92.29249298718219,38.88577457948602],[-92.29240736203333,38.88575773162659],[-92.29232280823774,38.88576709360118],[-92.29224352497151,38.88578493342793],[-92.29178890134085,38.88592312873988],[-92.29172362675165,38.88593218181006],[-92.2912613876723,38.88592593568765],[-92.29120461350742,38.88592109345478],[-92.29106751949054,38.88589928809024],[-92.2910091987715,38.8858840713845],[-92.29091667757238,38.88585557722855],[-92.29081132158753,38.88578556204573],[-92.29070318489104,38.88568483229881],[-92.29054855837484,38.88547115868656],[-92.29040082971407,38.88525983024162],[-92.29031308788674,38.88514167049918],[-92.29018645886703,38.88505230647565],[-92.29009690901715,38.88502980612994],[-92.29003385837288,38.88501547893149],[-92.2899868774287,38.88501383920029],[-92.2898615630374,38.88503735299089],[-92.28972236863407,38.88509426167133],[-92.28965756328881,38.88513630736561],[-92.28958727762192,38.88521367511566],[-92.28955304004712,38.8852685089508],[-92.28954436926429,38.88533014346206],[-92.2895575414422,38.88535298099503],[-92.2898089086415,38.88575981783974],[-92.28982372272232,38.885791124363],[-92.2897809451661,38.88588760476235],[-92.2897493668252,38.88594879764681],[-92.28971164326252,38.88597770949736],[-92.28959720009946,38.88601602824588],[-92.28954996568741,38.88602647106306],[-92.28940022101202,38.88602902177951],[-92.28934981197675,38.8860222417285],[-92.28916412582606,38.88594713075211],[-92.28878196417247,38.88582446806232],[-92.28874470739385,38.88581934431245],[-92.28847562508206,38.88582758348466],[-92.28825929387735,38.88588726553828],[-92.28811123503289,38.88597051639721],[-92.28803741068597,38.88605703467162],[-92.28800657310224,38.88613787788211],[-92.28803084740763,38.88621886118267],[-92.28812014473522,38.88631861493934],[-92.28825774104106,38.88640694133214],[-92.28847537505538,38.88651641273152],[-92.28868963021364,38.88659315491412],[-92.28888263080299,38.88664243671271],[-92.2889985078184,38.88664997809725],[-92.28924729729103,38.88663552415256],[-92.2894076273958,38.88660008139252],[-92.28951180007127,38.88657185795361],[-92.2897154677548,38.88647407468325],[-92.29001708331876,38.88623393666957],[-92.29028812863521,38.88606151706406],[-92.29035259568195,38.88604155401584],[-92.29043333032726,38.88604072623468],[-92.29052851696999,38.88607198701113],[-92.29062280900938,38.8861273886721],[-92.290690269109,38.88619995388036],[-92.29073239753022,38.88627413950727],[-92.29073771361098,38.88636426931686],[-92.29066141631748,38.88650990755988],[-92.29041395259743,38.88686122108049],[-92.29040268801505,38.88694699962986],[-92.29041930013538,38.88703606295722],[-92.29042816094308,38.8870587444468],[-92.29110413355991,38.88814141702979],[-92.29115755855597,38.88818918022692],[-92.29118143405546,38.8882086582859],[-92.29128834275066,38.88826474238304],[-92.29132077488619,38.88827329735167],[-92.29146826937001,38.88829081520466],[-92.29150279412296,38.88828691425106],[-92.29166368585649,38.88826583680556],[-92.29191112285335,38.888216866493],[-92.29203640952396,38.88818466957517],[-92.29219600677214,38.88814175029032],[-92.29239333234332,38.88805353183518],[-92.29248824636777,38.88798748060169],[-92.2925897981358,38.88788424424276],[-92.29265361029306,38.88775155426125],[-92.29269566832521,38.88754699137151],[-92.29267702511686,38.88723135547018],[-92.29267733773467,38.88695027236547],[-92.29270706935478,38.88687868429071],[-92.29277156069233,38.88680277111708],[-92.29287194167605,38.88671226785512],[-92.29295411210802,38.88666269232079],[-92.29307947832042,38.88662570697836],[-92.29322578767034,38.88660118315802],[-92.29329810238463,38.88659762590908],[-92.29344743854841,38.88662252207375],[-92.29354645890277,38.88665391419984],[-92.29365936330167,38.88671981296669],[-92.2937394601535,38.88679261043372],[-92.29378848485086,38.88686011491058],[-92.29381365287514,38.88691467436998],[-92.293822464092,38.88696388893525],[-92.29386477996735,38.88723565585757],[-92.29392640435239,38.88761824162524],[-92.2944139148257,38.88898126979434]]}}
