{"type":"Feature","properties":{"name":"Gans-3k","legacyMeetId":"9998","distance":"3k"},"geometry":{"type":"LineString","coordinates":[[-92.29488774303354,38.8886460354097],[-92.29537380088956,38.88398162802982],[-92.2952181110805,38.88367815200768],[-92.29497900911629,38.88343048793981],[-92.29472287324802,38.88328986804717],[-92.29434899666919,38.88323291897102],[-92.29404064484791,38.88321103781983],[-92.29376407781176,38.88329421797217],[-92.2936794068855,38.88340402732413],[-92.293679708462,38.88341723184427],[-92.29368313560096,38.88356728714052],[-92.2937265050659,38.88367366027728],[-92.29400961449183,38.88375814786012],[-92.29439862164577,38.88382948300251],[-92.29459667458596,38.88395022447953],[-92.29462410850276,38.88405345215771],[-92.29449216244734,38.88447899426182],[-92.29445708112345,38.88466188278313],[-92.29447175446693,38.88491051932214],[-92.29451214419663,38.8855456995998],[-92.29449715184923,38.88580629338673],[-92.29442569622198,38.88602112657694],[-92.29428547855264,38.8861988690886],[-92.29408227853853,38.88633887982052],[-92.29388858787853,38.88640668928909],[-92.29367538679071,38.88644064303743],[-92.29344848746582,38.88640666858268],[-92.29318490598138,38.88635335773598],[-92.29303742884676,38.88627598602704],[-92.29261429392875,38.8858252423483],[-92.2924566768239,38.88576340549988],[-92.29232356899097,38.88576339817471],[-92.29173517935625,38.88593010350266],[-92.29140145519006,38.88593486024339],[-92.29112282471564,38.88591096491738],[-92.29092990400332,38.88585848506879],[-92.29072202006705,38.8856921108838],[-92.29061142021654,38.88553605464732],[-92.29025252561014,38.88508645923755],[-92.29008693865333,38.88503070542604],[-92.28985354809487,38.88503532936714],[-92.28972622769334,38.88507712299911],[-92.28959670434428,38.88516554986575],[-92.28952515217145,38.88529165247195],[-92.28953278434646,38.88539009187319],[-92.28975409040497,38.88571575445477],[-92.2898113394223,38.88579651343409],[-92.28980034954125,38.88592042341254],[-92.28969445813954,38.88598733985535],[-92.28955941077153,38.88602084545887],[-92.28940752755697,38.88602083409535],[-92.28917975615667,38.88595860182393],[-92.28885224168613,38.88584404019088],[-92.28862314358796,38.88582497290475],[-92.28838972948705,38.88587736578858],[-92.28820539161104,38.88591552332698],[-92.28810994999647,38.88598242975745],[-92.28803569157084,38.88609266435853],[-92.28802721625001,38.88621774990247],[-92.28811897480013,38.8863046470284],[-92.28832986379328,38.88644515684334],[-92.2885568302661,38.88653756072102],[-92.28879726665735,38.88662046901833],[-92.28902293804998,38.88664490658634],[-92.28925656077963,38.8866351536649],[-92.28938015323487,38.88661563094198],[-92.29023811570251,38.88607363378985],[-92.2903729135026,38.88604007142344],[-92.29049390493898,38.88605925910573],[-92.29060772680879,38.88612168071877],[-92.29069704268973,38.88619867378205],[-92.29072461322906,38.88631450947355],[-92.29072110476264,38.88645504364244],[-92.29042046352092,38.8869000951342],[-92.29040550631898,38.88698887184471],[-92.29048161720193,38.88713242836873],[-92.29064729064264,38.8874214855708],[-92.29094239576884,38.88785999938626],[-92.29106376435826,38.88805341486653],[-92.29121171010237,38.88820693231878],[-92.2913365253248,38.88826854657697],[-92.29149383473913,38.88826855589929],[-92.29197249725948,38.88818134191131],[-92.29231181320401,38.88806880598511],[-92.29254958617138,38.88791087800611],[-92.29263013965726,38.8877537075142],[-92.29269171189623,38.88761240007874],[-92.29265299514307,38.88736658456143],[-92.29266343761572,38.88701865472699],[-92.29273628735781,38.88684118547594],[-92.29288269526025,38.88669894367267],[-92.2930659173157,38.88661586023738],[-92.29328631620388,38.88659147352394],[-92.2935016160592,38.88663052956655],[-92.29369995069086,38.88672346487937],[-92.29381483774837,38.88690521327267],[-92.2939226450127,38.88751692414414],[-92.29442503974374,38.88901719319259]]}}
