{"type":"Feature","properties":{"name":"Griak-8k","legacyMeetId":"7425","distance":"8k"},"geometry":{"type":"LineString","coordinates":[[-93.19064352311393,44.9926311473924],[-93.19054357319101,44.99293473332421],[-93.19040014686382,44.99349479629707],[-93.19029967057469,44.99395802595558],[-93.19026725646891,44.9943135635577],[-93.1902190312075,44.99484896630635],[-93.19018799593118,44.99522667884261],[-93.19008001349391,44.99594685021967],[-93.19000839325628,44.99638571062549],[-93.18994894510062,44.99660722278711],[-93.18986893363903,44.99679064670136],[-93.18975274989407,44.99696748670827],[-93.18965678419926,44.99711631342566],[-93.1895865164443,44.9972659783973],[-93.1895186544199,44.99739402124107],[-93.18946694843605,44.99749601895331],[-93.18939742536065,44.99760118758098],[-93.18932156857761,44.99768566789638],[-93.18921871944085,44.99778137350182],[-93.18909334589353,44.99782926632674],[-93.18897461324688,44.99786391942669],[-93.18883610798657,44.99788884160455],[-93.18868534654271,44.99790187387002],[-93.18856564175262,44.99790184762059],[-93.18844791902957,44.99788894287764],[-93.18832577796526,44.9978719966356],[-93.18819935838249,44.99783623313734],[-93.18807078648783,44.99778841861438],[-93.18795570327053,44.99774305739472],[-93.18786241512451,44.99768261586426],[-93.18774406314861,44.99760296241473],[-93.1876659850144,44.99753234863841],[-93.18756851445131,44.99741727189852],[-93.18746915756743,44.99726886425862],[-93.18743248720868,44.99719762264596],[-93.18739300825736,44.99711120850643],[-93.18738327954837,44.99698412928068],[-93.18738863726115,44.99689299959248],[-93.18743126753999,44.99676394824445],[-93.18747821082613,44.9966703255934],[-93.18757214377567,44.99653944064199],[-93.1876569562686,44.99645858707607],[-93.18783355573203,44.99631812702499],[-93.18799629829836,44.99619387506127],[-93.18815135225026,44.99608798147661],[-93.18831062036605,44.99597776013918],[-93.18847076800289,44.99586438429238],[-93.1886030241539,44.99578331803445],[-93.18872983273806,44.99571303028049],[-93.18889746057708,44.99561558987788],[-93.18905133784503,44.99555335714436],[-93.18916350958835,44.99550868015935],[-93.1892751094478,44.99545411522881],[-93.18940919849575,44.99537968231211],[-93.18949218272539,44.99532910171519],[-93.18961922506315,44.9952516434264],[-93.18972288875159,44.99518453550503],[-93.18981795763541,44.99511123105996],[-93.18991812702036,44.99503532005132],[-93.19009094306031,44.9949140352789],[-93.19016878083512,44.99487228931011],[-93.19028759543046,44.99481562142881],[-93.19042131210783,44.994780261465],[-93.19055946886571,44.9947574937442],[-93.19075809712577,44.99473707733868],[-93.19099194479092,44.99472491092408],[-93.19128694244101,44.99471748312002],[-93.19160750965027,44.9946998017702],[-93.19184198532922,44.99467898883909],[-93.19197397246322,44.99466099010841],[-93.19212929638407,44.99462019472574],[-93.19220152511105,44.99458550924568],[-93.19229732840721,44.99450792141388],[-93.19233922328785,44.9944565916089],[-93.1923776776406,44.99436519529539],[-93.19241551184987,44.99426387943542],[-93.19259127727562,44.99373316117879],[-93.19261277921926,44.99362576885573],[-93.19262446466175,44.9935362329189],[-93.19263412808871,44.99338283380736],[-93.19265003616536,44.99329853248283],[-93.1926599656006,44.99322166355729],[-93.19268121185178,44.9931619973618],[-93.19270994019396,44.99307636313543],[-93.19275888671189,44.99299124642529],[-93.19280643573478,44.99293911034008],[-93.19285418429165,44.99288381510187],[-93.19293029419055,44.99282870971553],[-93.1929882622218,44.99279659156156],[-93.1930683318787,44.99274846779163],[-93.19317219222178,44.99271892948353],[-93.19329311408143,44.9926887679932],[-93.19348315862656,44.99267235209971],[-93.1936255653971,44.99266940282686],[-93.19388639153067,44.99268297970653],[-93.19408207584905,44.99270508117092],[-93.19426400878629,44.9927207640792],[-93.19444639259699,44.99273988051005],[-93.19455703296943,44.99274275488816],[-93.19479530099166,44.99275283161122],[-93.1951735965325,44.99274717039845],[-93.19558657309658,44.99274415739959],[-93.19581126847666,44.99274062992529],[-93.19598682804684,44.99273743646572],[-93.19614788062304,44.99272765742229],[-93.19629991727575,44.9927144649354],[-93.19644885683607,44.99269435609757],[-93.1965767833616,44.99267791541863],[-93.1966862698988,44.99268039477908],[-93.19677499573876,44.99269979549832],[-93.19684990576029,44.99272914163852],[-93.19691647221353,44.99277832739784],[-93.19698463753096,44.9928374706037],[-93.197033796155,44.99289348934361],[-93.19707473260456,44.99296630910708],[-93.19709602269509,44.99303275446963],[-93.19712861616564,44.99312272385182],[-93.1971526896944,44.99322009010231],[-93.19716050873865,44.99333893658494],[-93.19715776151016,44.99423770287279],[-93.19715546054506,44.99446784778423],[-93.19715954489544,44.99469075204524],[-93.1971620336803,44.99497407442348],[-93.19716957413414,44.99540957491035],[-93.19716972320839,44.99582829739391],[-93.19717420785254,44.99607486533808],[-93.19718222989827,44.99650240253006],[-93.19718424854798,44.99685764219924],[-93.19717670521597,44.99712163026975],[-93.19716097212986,44.99720999175194],[-93.19712451074473,44.99729923017634],[-93.19706374979569,44.99739499610919],[-93.19697731127228,44.99746718534126],[-93.19686417071902,44.99754486740563],[-93.19664265760305,44.99767280466497],[-93.19639363502877,44.9977949163641],[-93.1961427612222,44.99790667867793],[-93.19589404891732,44.99801149742871],[-93.19562757917146,44.99812411622838],[-93.195420328021,44.99823095134111],[-93.1952832687581,44.99832793486059],[-93.19516282556808,44.99841478982143],[-93.19501995326584,44.99850477211273],[-93.19492370836022,44.99854641514302],[-93.19484825479715,44.99855576507744],[-93.19476190209619,44.99854482933907],[-93.19470268750166,44.99852010041182],[-93.19462754427535,44.99847641653828],[-93.19456327129502,44.99839965101172],[-93.1945097855131,44.998322879355],[-93.19446157346285,44.9982138723601],[-93.1944242021738,44.99810500596531],[-93.19439738548023,44.99792811342823],[-93.19438664998471,44.99779588792754],[-93.19439615230979,44.99750443794547],[-93.1944109391359,44.99736807025335],[-93.19444599227066,44.9972863925877],[-93.19451591060594,44.99719844927525],[-93.19461565612364,44.99713339152339],[-93.1947495531279,44.99705791725805],[-93.19490264119833,44.99699706128417],[-93.195050779783,44.99694076080418],[-93.19521935733573,44.99689906933287],[-93.19540250986819,44.99685389684095],[-93.19558019327847,44.9968121412807],[-93.19571732479173,44.99677374513318],[-93.19590234395052,44.99671279837536],[-93.19601149377749,44.99665771563522],[-93.1961320441584,44.99660054318845],[-93.19625165737392,44.99653710662206],[-93.19635512189804,44.99647452326821],[-93.1964427308101,44.99641966440158],[-93.19653027573993,44.99635384007119],[-93.19659745859009,44.99627667233616],[-93.19665442969269,44.99620592488789],[-93.19670588184295,44.99612529682632],[-93.19673180438211,44.99604531382259],[-93.19675271072589,44.99594779568092],[-93.19675846095721,44.9958547844554],[-93.19675414462988,44.99576987167772],[-93.19673602173889,44.99526603610115],[-93.1967037954821,44.99509473823468],[-93.19668770726337,44.99498928107358],[-93.19666704024803,44.99472705232106],[-93.19665419760263,44.99452699045737],[-93.19664940092011,44.99433918477438],[-93.19664018382016,44.99415009384732],[-93.19664052654892,44.99396012844126],[-93.19663488362102,44.99380644806671],[-93.19657920866968,44.99367970917604],[-93.19651820279073,44.99360668123719],[-93.19640807742618,44.9935444788244],[-93.19630346738677,44.99352684042906],[-93.19616352667558,44.99351540768554],[-93.19599716205514,44.99353515597638],[-93.19582091927418,44.99356861506244],[-93.19561567919192,44.99362475791971],[-93.19529988002262,44.99372332676583],[-93.19512577094069,44.99377948774706],[-93.19492204983065,44.99384340126372],[-93.19466713327374,44.99392279342145],[-93.19438506876887,44.99400844989147],[-93.19412725384606,44.99409307127137],[-93.19388451631109,44.99417866328021],[-93.19370862042167,44.9942380201445],[-93.19351868232984,44.99429757477444],[-93.1932377472452,44.99438037007768],[-93.19305614408881,44.99443551296371],[-93.19284299441263,44.99448895948443],[-93.19264933775024,44.99453506924699],[-93.19235843302779,44.99457868196464],[-93.19218730844888,44.99461895392153],[-93.1918945209845,44.99464194359764],[-93.19170220245329,44.99466456778093],[-93.19147180684378,44.99467263265357],[-93.1912251405893,44.99468641391371],[-93.19105325034661,44.99469375153098],[-93.19089709110077,44.99470481670607],[-93.19066539011997,44.99471153912584],[-93.19053838895434,44.99473235858229],[-93.19041498184093,44.9947507075719],[-93.19032015732516,44.99477293119302],[-93.19021334043043,44.99481526871939],[-93.19008247053668,44.99487548327352],[-93.18998213206766,44.99494369548498],[-93.1898813506128,44.99500817567321],[-93.18979486684493,44.99507019330014],[-93.18965253868424,44.99517415801418],[-93.18949376253832,44.99526460422446],[-93.18923798131885,44.99539524816569],[-93.18904088591925,44.99549557692557],[-93.18881026868429,44.9956244749166],[-93.18858455468562,44.99574436524858],[-93.18840802804216,44.9958758721198],[-93.18816425131014,44.99603882713485],[-93.18801798790271,44.99613036866442],[-93.18793899953586,44.99620192476021],[-93.1878514052326,44.9962727082623],[-93.18770396011713,44.99637375651218],[-93.18756568127915,44.99649753299488],[-93.18744679834947,44.99663405947391],[-93.18737553959558,44.99677036468911],[-93.18734996444675,44.99688134981238],[-93.18732636388204,44.99702092148331],[-93.1873374167937,44.99713516355921],[-93.18737671585183,44.99723782689087],[-93.18746005007159,44.99738835087356],[-93.18754432606957,44.99748672293656],[-93.18765195806847,44.99761522232332],[-93.1878298778193,44.99772568899189],[-93.18793595466536,44.99780084627268],[-93.18809967390693,44.99786275513308],[-93.18828077545339,44.99792799550284],[-93.18844862868698,44.99797321011415],[-93.18857875029147,44.99803043974921],[-93.18870124368047,44.99812468471157],[-93.1888196407681,44.99821540138268],[-93.18895660941982,44.99831410033031],[-93.18908076242748,44.99838998110781],[-93.18922362330741,44.99846369100717],[-93.18936205708665,44.99853907629905],[-93.18951143425585,44.99861803688806],[-93.18966260992923,44.99867869312789],[-93.18978358393197,44.99871651090393],[-93.18987787686781,44.99873744152272],[-93.19001395786782,44.99874799865046],[-93.19014320059938,44.99875736485785],[-93.19025844701873,44.99873968157949],[-93.19034912721862,44.99870656972033],[-93.1904705831438,44.99864142672166],[-93.19057186470118,44.9985935159779],[-93.19065906462083,44.99856468859071],[-93.19077227373229,44.99854518549175],[-93.19090399083214,44.99854387026203],[-93.1910321894361,44.998548749014],[-93.19120600660844,44.99856590294903],[-93.19134997131385,44.99858582976957],[-93.19148049499881,44.99860217351059],[-93.19163298385315,44.99861427039229],[-93.19180779656908,44.99862778306226],[-93.1920609341891,44.99862996873357],[-93.19225560911715,44.99863985998717],[-93.19246873265382,44.99864501718107],[-93.19270769427315,44.99864592066104],[-93.19293121335618,44.99865094128151],[-93.1932126619425,44.99865593302244],[-93.19339605792871,44.99865668649959],[-93.19366834046198,44.99866051178274],[-93.19384477392052,44.99866308361477],[-93.19403442484514,44.99866828503945],[-93.19416161864625,44.99867297637733],[-93.19434526828131,44.99866760187309],[-93.1944958892118,44.99867228371498],[-93.1946912752512,44.99865662157151],[-93.1948869173413,44.99862347311568],[-93.1950779997078,44.99855319732924],[-93.19516811831168,44.99849566925634],[-93.19528327515884,44.99842203532919],[-93.19537984690403,44.99834698285641],[-93.19549914109032,44.99826926365951],[-93.19569031064182,44.99817390263475],[-93.19586884937488,44.99809940820345],[-93.19604905215749,44.99801926509667],[-93.1962667735661,44.99793329317139],[-93.19646005225829,44.99783745056327],[-93.19661552087145,44.99776366226315],[-93.19673169093626,44.9977066183823],[-93.1968969354374,44.99761171936207],[-93.19700594170396,44.99753960004955],[-93.197076613527,44.99747211784346],[-93.1971663784997,44.99737345153352],[-93.19722196238605,44.99727076527533],[-93.19723734635826,44.99716215197546],[-93.19725556775467,44.99701161030512],[-93.19725905665084,44.9968185858116],[-93.19725244708977,44.99660096365096],[-93.19724801622324,44.99628528129548],[-93.197243838762,44.99595678715201],[-93.19724028513303,44.99567522452642],[-93.19723880412946,44.99525794563473],[-93.19723817682905,44.9950085673009],[-93.19723449002056,44.99480148083904],[-93.19723059098133,44.99466392224289],[-93.19722280951424,44.99438224394037],[-93.19722366874693,44.99421213651798],[-93.19722500578507,44.9940002293643],[-93.19722522119673,44.99378299120689],[-93.1972308213311,44.99359372410967],[-93.19723132927726,44.99339356324494],[-93.19722570871404,44.99326872385787],[-93.19720649007154,44.99316389701338],[-93.19718626598312,44.99309276887391],[-93.1971496946722,44.99299750837697],[-93.19711943886574,44.99293466554462],[-93.19705568778774,44.99285881352868],[-93.19700059446292,44.99279347323829],[-93.19692483450456,44.99273718011206],[-93.196836193773,44.99269659171164],[-93.19674167706602,44.9926637066938],[-93.19663089763716,44.99265593332087],[-93.19650329134484,44.99266335173284],[-93.19635137724741,44.99268381406743],[-93.19621348776553,44.99269649146957],[-93.19606019151166,44.99270518161627],[-93.19589982965049,44.99271172423304],[-93.19570100883705,44.992719738406],[-93.19544617368793,44.99272274178271],[-93.19523159997597,44.99272440519385],[-93.19510749428125,44.99272223764707],[-93.19497814568922,44.99272042831541],[-93.1948330534087,44.99272415806311],[-93.19465770059232,44.99271938194577],[-93.19450430922937,44.99271503643903],[-93.19435009839502,44.99270120880881],[-93.19417115880817,44.99268261784903],[-93.1939813514635,44.99265750058198],[-93.19379653911248,44.99264289894203],[-93.19362571092846,44.9926408400779],[-93.19352003926531,44.99264559719125],[-93.19350880786673,44.99264606118371],[-93.19335514691362,44.99266021924999],[-93.19320589622149,44.9926802424354],[-93.19308879631048,44.99270987368798],[-93.19298370065574,44.99274916791048],[-93.19290503817624,44.99280166995708],[-93.19282339681588,44.9928672362973],[-93.19274552455408,44.99294500388218],[-93.1926994631588,44.99300031425758],[-93.19263695306063,44.99309787049248],[-93.19259887404034,44.99318620924971],[-93.19258523086634,44.99327450208334],[-93.19257143064343,44.99338387140124],[-93.1925612151704,44.99347053049484],[-93.19254962491047,44.99359032692964],[-93.19252955499614,44.99370751224526],[-93.19250206996807,44.99382927089818],[-93.19246377903546,44.9939343574929],[-93.19241360316593,44.99406143736352],[-93.19236533513111,44.99419466986227],[-93.1923312729253,44.99430034334137],[-93.19229934652522,44.99441560004996],[-93.19230038502945,44.99456477680152],[-93.19231533653813,44.99469263055678],[-93.19233929772705,44.99482397280367],[-93.19234622151973,44.9949481120732],[-93.19234724282536,44.9951100891769],[-93.19233907071234,44.99527314848797],[-93.19233155633857,44.99543594178427],[-93.192328436851,44.99560452347809],[-93.1923637803094,44.9957410261308],[-93.19242776151698,44.99584758124441],[-93.19254050436743,44.99594246838765],[-93.19266288178083,44.99601249654784],[-93.19277220105018,44.99604921227436],[-93.19288904794433,44.99606198828317],[-93.19303181517279,44.99604996187677],[-93.19316408164764,44.99601269855761],[-93.19326088816753,44.99595660992249],[-93.19335739754685,44.99587943699738],[-93.19344824767711,44.99577968896019],[-93.19350651004675,44.99569958734303],[-93.19357219678133,44.99562277169876],[-93.19364191642408,44.9955485222615],[-93.1937162650158,44.99549927056315],[-93.19383238520592,44.99544017785515],[-93.19394912420418,44.9954045311022],[-93.19406621016371,44.99538052596184],[-93.19407463954079,44.99537995522833],[-93.19420916759918,44.99537050317804],[-93.19435319657973,44.9953810760294],[-93.1944836577297,44.99541178645213],[-93.19458822385872,44.99546505945304],[-93.19466969908065,44.99553220853237],[-93.19475484717083,44.9956166241364],[-93.19477742562715,44.99568674013333],[-93.19477008495437,44.99580054764572],[-93.19471410260446,44.99588420288237],[-93.19465910970729,44.99598379229893],[-93.19454274987665,44.99618835936354],[-93.19440885591504,44.99640806625006],[-93.19426183145576,44.99663720392366],[-93.19413923314958,44.99684365697215],[-93.19401570632077,44.99704916631884],[-93.19396033265399,44.99723856135871],[-93.19395501558633,44.99735642140791],[-93.19397670566903,44.99748401028433],[-93.19403728233549,44.99764632296473],[-93.19411410844774,44.99779580448416],[-93.19418940506696,44.99794109132414],[-93.19427665464703,44.99811260341793],[-93.19430563445162,44.99819329890975],[-93.19433593341996,44.99827749669421],[-93.19434465604697,44.99836427482269],[-93.19429600289178,44.99845159048027],[-93.19421824341099,44.99849457449163],[-93.19405976290575,44.99853523010475],[-93.19397116252448,44.99854273379923],[-93.19378114762146,44.99855247529504],[-93.19290655291381,44.99856865904191],[-93.19248617695715,44.99858203105508],[-93.19227637338814,44.99858012537253],[-93.19209710332655,44.99858395003048],[-93.1919457131206,44.99857920800118],[-93.19180045728477,44.99857540898006],[-93.19163814826507,44.99855998752128],[-93.19151299507199,44.99855217064637],[-93.1913435676085,44.99852283937725],[-93.19120524285805,44.99850809098325],[-93.19105887416448,44.99849256601217],[-93.19090168268197,44.99848014132308],[-93.19076914123126,44.99848890596761],[-93.19062722559096,44.99850870702539],[-93.1904670631088,44.99857430143914],[-93.19036243458287,44.99863386527269],[-93.19027056535539,44.99867725030272],[-93.19018308675308,44.99869410713902],[-93.19004299819456,44.99870193555331],[-93.18991056437729,44.99868792899],[-93.1897992475322,44.99865654042603],[-93.18968177530077,44.99862271553133],[-93.18958834095582,44.99858308615705],[-93.18949957057863,44.99853837523678],[-93.18942249320071,44.99849985755191],[-93.18931507433469,44.99844636537426],[-93.18917713602917,44.99837579341671],[-93.18907309548513,44.99830618551616],[-93.18895314826692,44.9982288197836],[-93.18881014844654,44.99812786828852],[-93.1886816630857,44.99803974984737],[-93.18850767366901,44.99793326548171],[-93.18843135426323,44.9979110157871],[-93.18836502033744,44.99787874332689],[-93.18817042523106,44.9977971348377],[-93.18810585291928,44.99773212281747],[-93.18807509966837,44.99761574056154],[-93.18810394727048,44.99750448043022],[-93.1881579943907,44.99743253643019],[-93.18823498100696,44.99736301402634],[-93.18833870040642,44.9973003398884],[-93.18849111217548,44.99722303124153],[-93.18871350187297,44.99711335092118],[-93.18892853455544,44.99701674275347],[-93.18909713852305,44.99694502401329],[-93.18923052775109,44.99689638464291],[-93.18943227455397,44.99682288191323],[-93.18957882271374,44.99676603299947],[-93.18974291388751,44.99669272913111],[-93.18984977202537,44.99662516926345],[-93.18992225579247,44.99657039895119],[-93.19005039200756,44.9964337262814],[-93.19010517356482,44.99632448998075],[-93.1901387497359,44.9962089108117],[-93.19016537946264,44.99605918325228],[-93.19018737788288,44.99591413385882],[-93.19021942332864,44.99574625904844],[-93.19023268522035,44.99565389305949],[-93.19025013889238,44.99551752127314],[-93.19027202706607,44.99534769776401],[-93.1902895638932,44.99519133874675],[-93.19032205208707,44.99496565526942],[-93.19034165066105,44.99484473317757],[-93.19038873881166,44.99467351796586],[-93.19042854765758,44.99457705249689],[-93.19047531197107,44.99448099164665],[-93.19056911887431,44.99436135848174],[-93.19066474988217,44.99424511921637],[-93.19075302642094,44.99414902898091],[-93.19090079940452,44.99398118410878],[-93.19104105064817,44.99382427025945],[-93.19119520208125,44.99363840177018],[-93.19133846739584,44.9934730630353],[-93.19144654810873,44.99334112808971],[-93.19156711231227,44.99320292909019],[-93.19166083741841,44.99308751987019],[-93.19179432048676,44.99292725110919]]}}
