{"type":"Feature","properties":{"name":"Griak-5k","legacyMeetId":"7425","distance":"5k"},"geometry":{"type":"LineString","coordinates":[[-93.19064352311393,44.9926311473924],[-93.19054357319101,44.99293473332421],[-93.19040014686382,44.99349479629707],[-93.19029967057469,44.99395802595558],[-93.19026725646891,44.9943135635577],[-93.1902190312075,44.99484896630635],[-93.19018799593118,44.99522667884261],[-93.19008001349391,44.99594685021967],[-93.19000839325628,44.99638571062549],[-93.18994894510062,44.99660722278711],[-93.18986893363903,44.99679064670136],[-93.18975274989407,44.99696748670827],[-93.18965678419926,44.99711631342566],[-93.1895865164443,44.9972659783973],[-93.1895186544199,44.99739402124107],[-93.18946694843605,44.99749601895331],[-93.18939742536065,44.99760118758098],[-93.18932156857761,44.99768566789638],[-93.18921871944085,44.99778137350182],[-93.18909334589353,44.99782926632674],[-93.18897461324688,44.99786391942669],[-93.18883610798657,44.99788884160455],[-93.18868534654271,44.99790187387002],[-93.18856564175262,44.99790184762059],[-93.18844791902957,44.99788894287764],[-93.18832577796526,44.9978719966356],[-93.18819935838249,44.99783623313734],[-93.18807078648783,44.99778841861438],[-93.18795570327053,44.99774305739472],[-93.18786241512451,44.99768261586426],[-93.18774406314861,44.99760296241473],[-93.1876659850144,44.99753234863841],[-93.18756851445131,44.99741727189852],[-93.18746915756743,44.99726886425862],[-93.18743248720868,44.99719762264596],[-93.18739300825736,44.99711120850643],[-93.18738327954837,44.99698412928068],[-93.18738863726115,44.99689299959248],[-93.18743126753999,44.99676394824445],[-93.18747821082613,44.9966703255934],[-93.18757214377567,44.99653944064199],[-93.1876569562686,44.99645858707607],[-93.18783355573203,44.99631812702499],[-93.18799629829836,44.99619387506127],[-93.18815135225026,44.99608798147661],[-93.18831062036605,44.99597776013918],[-93.18847076800289,44.99586438429238],[-93.1886030241539,44.99578331803445],[-93.18872983273806,44.99571303028049],[-93.18889746057708,44.99561558987788],[-93.18905133784503,44.99555335714436],[-93.18916350958835,44.99550868015935],[-93.1892751094478,44.99545411522881],[-93.18940919849575,44.99537968231211],[-93.18949218272539,44.99532910171519],[-93.18961922506315,44.9952516434264],[-93.18972288875159,44.99518453550503],[-93.18981795763541,44.99511123105996],[-93.18991812702036,44.99503532005132],[-93.19009094306031,44.9949140352789],[-93.19016878083512,44.99487228931011],[-93.19028759543046,44.99481562142881],[-93.19042131210783,44.994780261465],[-93.19055946886571,44.9947574937442],[-93.19075809712577,44.99473707733868],[-93.19099194479092,44.99472491092408],[-93.19128694244101,44.99471748312002],[-93.19160750965027,44.9946998017702],[-93.19184198532922,44.99467898883909],[-93.19197397246322,44.99466099010841],[-93.19212929638407,44.99462019472574],[-93.19220152511105,44.99458550924568],[-93.19229732840721,44.99450792141388],[-93.19233922328785,44.9944565916089],[-93.1923776776406,44.99436519529539],[-93.19241551184987,44.99426387943542],[-93.19259127727562,44.99373316117879],[-93.19261277921926,44.99362576885573],[-93.19262446466175,44.9935362329189],[-93.19263412808871,44.99338283380736],[-93.19265003616536,44.99329853248283],[-93.1926599656006,44.99322166355729],[-93.19268121185178,44.9931619973618],[-93.19270994019396,44.99307636313543],[-93.19275888671189,44.99299124642529],[-93.19280643573478,44.99293911034008],[-93.19285418429165,44.99288381510187],[-93.19293029419055,44.99282870971553],[-93.1929882622218,44.99279659156156],[-93.1930683318787,44.99274846779163],[-93.19317219222178,44.99271892948353],[-93.19329311408143,44.9926887679932],[-93.19348315862656,44.99267235209971],[-93.1936255653971,44.99266940282686],[-93.19388639153067,44.99268297970653],[-93.19408207584905,44.99270508117092],[-93.19426400878629,44.9927207640792],[-93.19444639259699,44.99273988051005],[-93.19455703296943,44.99274275488816],[-93.19479530099166,44.99275283161122],[-93.1951735965325,44.99274717039845],[-93.19558657309658,44.99274415739959],[-93.19581126847666,44.99274062992529],[-93.19598682804684,44.99273743646572],[-93.19614788062304,44.99272765742229],[-93.19629991727575,44.9927144649354],[-93.19644885683607,44.99269435609757],[-93.1965767833616,44.99267791541863],[-93.1966862698988,44.99268039477908],[-93.19677499573876,44.99269979549832],[-93.19684990576029,44.99272914163852],[-93.19691647221353,44.99277832739784],[-93.19698463753096,44.9928374706037],[-93.197033796155,44.99289348934361],[-93.19707473260456,44.99296630910708],[-93.19709602269509,44.99303275446963],[-93.19712861616564,44.99312272385182],[-93.1971526896944,44.99322009010231],[-93.19716050873865,44.99333893658494],[-93.19715776151016,44.99423770287279],[-93.19715546054506,44.99446784778423],[-93.19715954489544,44.99469075204524],[-93.1971620336803,44.99497407442348],[-93.19716957413414,44.99540957491035],[-93.19716972320839,44.99582829739391],[-93.19717420785254,44.99607486533808],[-93.19718222989827,44.99650240253006],[-93.19718424854798,44.99685764219924],[-93.19717670521597,44.99712163026975],[-93.19716097212986,44.99720999175194],[-93.19712451074473,44.99729923017634],[-93.19706374979569,44.99739499610919],[-93.19697731127228,44.99746718534126],[-93.19686417071902,44.99754486740563],[-93.19664265760305,44.99767280466497],[-93.19639363502877,44.9977949163641],[-93.1961427612222,44.99790667867793],[-93.19589404891732,44.99801149742871],[-93.19562757917146,44.99812411622838],[-93.195420328021,44.99823095134111],[-93.1952832687581,44.99832793486059],[-93.19516282556808,44.99841478982143],[-93.19501995326584,44.99850477211273],[-93.19492370836022,44.99854641514302],[-93.19484825479715,44.99855576507744],[-93.19476190209619,44.99854482933907],[-93.19470268750166,44.99852010041182],[-93.19462754427535,44.99847641653828],[-93.19456327129502,44.99839965101172],[-93.1945097855131,44.998322879355],[-93.19446157346285,44.9982138723601],[-93.1944242021738,44.99810500596531],[-93.19439738548023,44.99792811342823],[-93.19438664998471,44.99779588792754],[-93.19439615230979,44.99750443794547],[-93.1944109391359,44.99736807025335],[-93.19444599227066,44.9972863925877],[-93.19451591060594,44.99719844927525],[-93.19461565612364,44.99713339152339],[-93.1947495531279,44.99705791725805],[-93.19490264119833,44.99699706128417],[-93.195050779783,44.99694076080418],[-93.19521935733573,44.99689906933287],[-93.19540250986819,44.99685389684095],[-93.19558019327847,44.9968121412807],[-93.19571732479173,44.99677374513318],[-93.19590234395052,44.99671279837536],[-93.19601149377749,44.99665771563522],[-93.1961320441584,44.99660054318845],[-93.19625165737392,44.99653710662206],[-93.19635512189804,44.99647452326821],[-93.1964427308101,44.99641966440158],[-93.19653027573993,44.99635384007119],[-93.19659745859009,44.99627667233616],[-93.19665442969269,44.99620592488789],[-93.19670588184295,44.99612529682632],[-93.19673180438211,44.99604531382259],[-93.19675271072589,44.99594779568092],[-93.19675846095721,44.9958547844554],[-93.19675414462988,44.99576987167772],[-93.19673602173889,44.99526603610115],[-93.1967037954821,44.99509473823468],[-93.19668770726337,44.99498928107358],[-93.19666704024803,44.99472705232106],[-93.19665419760263,44.99452699045737],[-93.19664940092011,44.99433918477438],[-93.19664018382016,44.99415009384732],[-93.19664052654892,44.99396012844126],[-93.19663488362102,44.99380644806671],[-93.19659958621924,44.99369117560854],[-93.19653585211316,44.99360377460161],[-93.19644411857435,44.99354086636291],[-93.19633279329817,44.99350501087935],[-93.19619206691584,44.99349282192296],[-93.19606115196385,44.99349743920902],[-93.1958823745019,44.9935263184357],[-93.19557298336626,44.99361066620244],[-93.19525819022122,44.99370920989193],[-93.19496178599516,44.99380337671443],[-93.19460749170781,44.99390559349057],[-93.1941578147425,44.99405123633724],[-93.19381716562552,44.9941696306811],[-93.1935519427263,44.99427368116392],[-93.19333343732899,44.99436018264132],[-93.19320428750218,44.99441395141321],[-93.19311478659658,44.99448136649217],[-93.19309261681633,44.99454530197067],[-93.19313353147761,44.99459526727263],[-93.19321491363745,44.99466614634756],[-93.19343232562638,44.99478197960054],[-93.19369025048367,44.99491652580765],[-93.19408024972932,44.99513514557393],[-93.19432725615324,44.99527679826061],[-93.1945237660668,44.99540219213308],[-93.19462440438916,44.99547495625156],[-93.19470046471955,44.99554781730375],[-93.19477175139637,44.99563347130015],[-93.19478234631367,44.99571001674758],[-93.194751987546,44.99580944736017],[-93.1946668241643,44.99596565309046],[-93.19458175130875,44.99609662316151],[-93.19445161146557,44.99630849482796],[-93.19430171455866,44.99655500355647],[-93.19414377449877,44.99681295213691],[-93.19404659478339,44.99697296357273],[-93.19400021997741,44.99706478693832],[-93.19397764543079,44.99713206235159],[-93.19396021363302,44.99720320194535],[-93.19394827828998,44.99728554672065],[-93.19395161187252,44.9973651382766],[-93.19396545486244,44.99745607480491],[-93.19399431599943,44.99754022393629],[-93.19403965948399,44.99764368586187],[-93.19414127821203,44.99785238852756],[-93.1942476692136,44.99803994408707],[-93.1942887581036,44.99813889902291],[-93.1943346950177,44.9982408770612],[-93.19433921773673,44.99836166583372],[-93.19429028905347,44.99844612123557],[-93.19417205531617,44.99850483886538],[-93.19402637874678,44.99853027703532],[-93.19382213577016,44.9985472232693],[-93.19355977697671,44.9985506252601],[-93.19331436866176,44.99855373693448],[-93.19292000212737,44.99856225271935],[-93.19260516003996,44.9985644130476],[-93.19234200096871,44.9985724570539],[-93.19208009343967,44.99857956253877],[-93.19185430030588,44.99856872621728],[-93.1916519047569,44.99855322447237],[-93.19149508441964,44.99852691109156],[-93.19130804503422,44.99848534205496],[-93.1911853943092,44.99844875028431],[-93.19101025349869,44.99839176957746],[-93.19082873063105,44.99832189926958],[-93.19064487389842,44.9982621574682],[-93.1904524127708,44.99818804042298],[-93.19020875074392,44.99809744323595],[-93.19005164412592,44.9980320331763],[-93.18994026137258,44.99796665136095],[-93.18988210048438,44.9978967647311],[-93.18984880196818,44.99777021672806],[-93.18984649069877,44.99764389895971],[-93.18986669407758,44.99750697409814],[-93.18991357609629,44.99703430757821],[-93.18995545201625,44.99685021256939],[-93.18999361046254,44.99668541247475],[-93.19004175094568,44.99652226294512],[-93.19008105044216,44.9963705276487],[-93.19012027199972,44.99620942058054],[-93.1901512113354,44.99598491537815],[-93.19018930773782,44.99578862859379],[-93.19022546571817,44.99555609508609],[-93.19024414401296,44.99540536260307],[-93.19026470463383,44.99524887513995],[-93.19028043797627,44.99511761045592],[-93.19029328909768,44.99498572866825],[-93.19031108749023,44.99486829272392],[-93.19034922781134,44.994711025379],[-93.19042248990307,44.9945246998067],[-93.19049503411375,44.99441867351855],[-93.19061354692975,44.99427112651598],[-93.19076260661951,44.99409766234965],[-93.19090696619523,44.99392747449632],[-93.19104394917984,44.99376744016777],[-93.19124601626243,44.9935309339448],[-93.191506818022,44.99323064168128],[-93.19165169350144,44.99305293597778],[-93.19177277495744,44.99290676399545]]}}
