{"type":"Feature","properties":{"name":"Illinois-6k","legacyMeetId":"7558","distance":"6k"},"geometry":{"type":"LineString","coordinates":[[-88.26069351217795,40.04638877445097],[-88.26162737565998,40.04642912567115],[-88.262668189582,40.04642103347339],[-88.26343287253951,40.04636465474045],[-88.2639467512191,40.04616672335475],[-88.26472494066708,40.04576402751396],[-88.26543364705918,40.04527168319154],[-88.26553813444136,40.04518269400348],[-88.26561961971555,40.04504800517366],[-88.2656338662143,40.04485085870507],[-88.26557219849782,40.04396772457328],[-88.26568591722234,40.04294094490862],[-88.26568407295429,40.04282316932687],[-88.26562982837451,40.04272609024311],[-88.26552785107945,40.04264419104215],[-88.26528302323585,40.04255013527804],[-88.26439176433773,40.04223514386239],[-88.2636153360825,40.04192568103436],[-88.26277525896747,40.04172779741027],[-88.26266645232518,40.04172779741791],[-88.26234848326007,40.04173541635011],[-88.26187627589425,40.0417583409593],[-88.26127856511863,40.04181997644646],[-88.26074066528359,40.04190200244086],[-88.26059364164352,40.04197335279886],[-88.26052336128673,40.04203356115863],[-88.26049455374269,40.042151942748],[-88.26052397559928,40.04223095177193],[-88.26060443280534,40.04231113783501],[-88.2607624642779,40.04235382296334],[-88.26136095948608,40.04225614737194],[-88.26193432592552,40.0421726252906],[-88.26209894382552,40.04215194635945],[-88.26215745010856,40.04216020850249],[-88.26222841332016,40.0421975462996],[-88.26229469019137,40.04225194143752],[-88.26234784873468,40.04230689063213],[-88.26238685050274,40.04239252977018],[-88.26240778902064,40.04247953246591],[-88.26240552075042,40.04256793166223],[-88.26235520654954,40.04267590186719],[-88.26226612995671,40.04289826713513],[-88.26169391690344,40.04373485121919],[-88.2613701125674,40.04419786970476],[-88.26079405360532,40.04479281922755],[-88.26033827450952,40.04527857297543],[-88.25975230042444,40.04564676639632],[-88.25971153696929,40.04569783506604],[-88.25971569826947,40.0458234030237],[-88.25971929234325,40.04619805647155],[-88.25973444493454,40.04650234459659],[-88.2598449797437,40.04659278673509],[-88.25994312630748,40.04661764098938],[-88.2601654796209,40.04659364811479],[-88.26038742978372,40.04656017657844],[-88.2611162594069,40.04646157368414],[-88.26184361001258,40.04642103535768],[-88.26280133082946,40.04641295322075],[-88.26338863951531,40.04636465457575],[-88.26347359949067,40.04634940321986],[-88.26391077228405,40.04618138690144],[-88.26469543176714,40.04577592516065],[-88.26541208704927,40.04528297595007],[-88.26552065439165,40.0451947940818],[-88.26561174046924,40.04506872495392],[-88.26563203387794,40.04487016613805],[-88.26557290879441,40.04398359682369],[-88.26568546247302,40.04296301418655],[-88.26568864363577,40.04284624089424],[-88.2656425148766,40.04273774118147],[-88.26555232555937,40.04265575867235],[-88.26529391279348,40.04255699265419],[-88.26441168179362,40.04224331933691],[-88.26363588812589,40.04193125677465],[-88.26279539266056,40.04173131810321],[-88.26271298940065,40.04172531607476],[-88.26255269566846,40.04172527639648],[-88.26224065130116,40.04173929256553],[-88.26194021229927,40.0417536919416],[-88.26178227687521,40.04176573194052],[-88.26132439162424,40.04181265797372],[-88.26078176230685,40.04189306212063],[-88.26069703310021,40.04192402819642],[-88.26061810625427,40.04196161944915],[-88.26055189623524,40.04199983344804],[-88.26051406981733,40.04208168958905],[-88.26049970869747,40.04218725850727],[-88.26055766237698,40.0422701244913],[-88.26058274855254,40.04229727070041],[-88.26065024600233,40.04232412487896],[-88.26077510963864,40.04235260310784],[-88.26133764455126,40.04225670802691],[-88.2619111004273,40.04217531267254],[-88.26207508942613,40.04215559011468],[-88.26213163202715,40.04215436361562],[-88.26220306844372,40.04217992659714],[-88.26227195190967,40.04222975211604],[-88.2623267018952,40.04228269699558],[-88.2623637973438,40.04234579181848],[-88.26239727045359,40.04243857701301],[-88.26240535836232,40.04253484427472],[-88.262387904643,40.0426045443458],[-88.26227701629807,40.04288455026776],[-88.2617024551026,40.04371934301122],[-88.26138042747353,40.04418306761229],[-88.26081025961193,40.04478188439794],[-88.260350988144,40.04526903362508],[-88.25977377591614,40.04563391664303],[-88.25972906395653,40.04566915335167],[-88.25971499248844,40.04571827344189],[-88.2597143589092,40.04584797504648],[-88.25972734129095,40.04646875430211],[-88.259787651514,40.04655263887727],[-88.2598950985677,40.04660562934254],[-88.25997488115603,40.04661700779207],[-88.26037168325286,40.04655978448922],[-88.26108222643693,40.04646824899849],[-88.26158619401778,40.04643622096023],[-88.2618119468742,40.04642063609334],[-88.26265098593328,40.04641694035429],[-88.26283792354485,40.04640936355719],[-88.26340996196737,40.04636283193572],[-88.26350981726651,40.04632975794265],[-88.26388977782383,40.04618971220738],[-88.26468175212577,40.04578073267011],[-88.26474863887611,40.04574927210358],[-88.26539218383337,40.0452965208674],[-88.26551129120404,40.04520900756305],[-88.26560122801496,40.04508064454719],[-88.26563026482094,40.04488915036979],[-88.26563281633128,40.04482669257725],[-88.26557362381148,40.04400709944618],[-88.26568363291001,40.04297991722256],[-88.26568362886552,40.04285727490335],[-88.26564693238929,40.04275169285538],[-88.26557022146095,40.04267478762958],[-88.2653149427938,40.04256813843129],[-88.26443377747334,40.04224836226523],[-88.26365903224142,40.04193976267572],[-88.26282212516213,40.04173953805294],[-88.26268779423272,40.04172404316349],[-88.26244850644572,40.04172888843775],[-88.26182950695193,40.04176116510918],[-88.26134924238487,40.04181060950305],[-88.2610354199014,40.04185720846122],[-88.26075663124388,40.04189955374561],[-88.26065563375103,40.0419409535772],[-88.26053757861554,40.04202288848536],[-88.26050200014795,40.04211222901122],[-88.2605090341438,40.04220997061932],[-88.26054369131285,40.04225062887802],[-88.26062656139317,40.04231832379813],[-88.26070594163853,40.04234073893395],[-88.2607520769548,40.04234872636596],[-88.2608000017104,40.0423464984982],[-88.26131471991745,40.04226316100955],[-88.26188788671773,40.04217571800367],[-88.26205890473894,40.04215580365986],[-88.26217843769419,40.04216842783202],[-88.26225547431523,40.04221572739871],[-88.26231319059147,40.04226644632477],[-88.2623573174565,40.04232928570259],[-88.26237621467253,40.042366979945],[-88.26239588611361,40.04241541021674],[-88.26240499920937,40.04250992511808],[-88.26239784963504,40.04259022012774],[-88.26236403087314,40.04265320162621],[-88.26228210873795,40.04286870566828],[-88.261715889737,40.04370529659726],[-88.26138796948509,40.04416747473329],[-88.26081892280219,40.0447668696193],[-88.26035766707584,40.0452555695986],[-88.25979088525098,40.04561959864744],[-88.25974020886217,40.04565485779842],[-88.25972013250373,40.0456795483631],[-88.25971024673446,40.04576381903036],[-88.25972875104533,40.04586084953304],[-88.25981331969209,40.0459204051202],[-88.26132107987732,40.04572719155799]]}}
