{"type":"Feature","properties":{"name":"IowaState-6k","legacyMeetId":"5857","distance":"6k"},"geometry":{"type":"LineString","coordinates":[[-93.65222027387205,42.01254254803564],[-93.65425240380084,42.0125156617888],[-93.65720895277474,42.01216644447167],[-93.6576354823057,42.01217540860701],[-93.65827914473995,42.01221826013293],[-93.65841192752933,42.0122920005675],[-93.65850723126833,42.01239680186052],[-93.65855378885058,42.01252907088154],[-93.65859286238219,42.01279295851263],[-93.65863741939194,42.01481398816587],[-93.65852811662627,42.01494106377608],[-93.65837167459449,42.01497047173951],[-93.65793537809611,42.01495168235055],[-93.6574246213835,42.01494585284736],[-93.65714915622429,42.01494422781117],[-93.65683441647286,42.01492250569076],[-93.65658400531184,42.01486341978801],[-93.6563258845631,42.01484367172197],[-93.65611423591132,42.01486439246064],[-93.6555640630167,42.01495869153371],[-93.65537132308049,42.01496797803639],[-93.65464335570057,42.01499827018837],[-93.65387271162061,42.01498877903634],[-93.65307525108591,42.0149711715087],[-93.6526897689881,42.01496902353051],[-93.65253957020236,42.01494892162252],[-93.65250264183447,42.01490738545679],[-93.6524746410675,42.01478579194742],[-93.6524407478464,42.01428269676526],[-93.65235599031665,42.0138757509886],[-93.65195652157624,42.01323853945046],[-93.65194412897826,42.01312374024685],[-93.65194565511536,42.01305956301059],[-93.65199119730573,42.0129961169068],[-93.65204172286879,42.01295655208263],[-93.65213294417303,42.01291509554149],[-93.6522895519024,42.01286717417912],[-93.65346180294115,42.0126827456866],[-93.65453693893245,42.01252874151869],[-93.657211021998,42.01218970675772],[-93.65762845114553,42.01219038748498],[-93.65822929466792,42.01221386055652],[-93.65830607081048,42.01222944389808],[-93.6583789455262,42.0122697062138],[-93.6584897770647,42.01237530527249],[-93.65851044123016,42.01242022132113],[-93.65854626026558,42.01250888728909],[-93.65855957172626,42.01256091418414],[-93.65858705544456,42.01276634960916],[-93.65861065148408,42.01361413243357],[-93.65864412742528,42.01472025205764],[-93.65863927296027,42.01479448556977],[-93.65859816116766,42.01486666014303],[-93.65856534037297,42.01489532247655],[-93.65850870257161,42.01494640733846],[-93.65844165293767,42.01496067988579],[-93.65830002902982,42.01496918003175],[-93.65787859113392,42.01494970300462],[-93.65734580729045,42.01494382990634],[-93.65707446811469,42.01493391244458],[-93.65686075353723,42.01492490610863],[-93.65662509215043,42.01487686153776],[-93.65649127875423,42.01485468751405],[-93.65623966985635,42.01485235308431],[-93.65601068055473,42.01488051337481],[-93.65569731527246,42.01493964214704],[-93.6554728891845,42.01495991707993],[-93.6552769614349,42.01497208027559],[-93.65467266635673,42.01500320284629],[-93.65390860638801,42.01498260662667],[-93.6531164960755,42.01497155978834],[-93.65276591137616,42.01497112947489],[-93.65262949043688,42.01495426100944],[-93.65251943115732,42.01493330046845],[-93.65249052307814,42.01486226782394],[-93.65246680976425,42.01474042482336],[-93.6524420365612,42.0143170250619],[-93.65236051295477,42.01390004623409],[-93.65233820918733,42.01385494254946],[-93.65196250448513,42.01326247995036],[-93.65194945809,42.01316603534289],[-93.65193776445217,42.01308684836969],[-93.65196848524546,42.01303082654224],[-93.65201487287699,42.01297880236241],[-93.65208596088551,42.01293637458522],[-93.6522039550294,42.0128944053053],[-93.65234349608109,42.01285498959835],[-93.654609412699,42.01252192269349],[-93.65717230463072,42.01219425515072],[-93.6575958294598,42.01218015298766],[-93.65819083413875,42.01221120466661],[-93.65828268760751,42.01222096428412],[-93.65835506433424,42.01225656577849],[-93.65842442525141,42.01231397724834],[-93.65847137838746,42.01236143830008],[-93.65852695505593,42.01245630280447],[-93.65857522013546,42.01260526916581],[-93.65859595630687,42.01283805635973],[-93.658649958906,42.01500511944749],[-93.65866219488089,42.01571328637247],[-93.65866648955375,42.01602243994427],[-93.65866398612802,42.01696011096801],[-93.65861374768154,42.01727734623837],[-93.65853868114556,42.01735325272017],[-93.65830700648414,42.01737178568356],[-93.6578059036268,42.01737412068171],[-93.65764433099595,42.01737550061083],[-93.6575044181878,42.01734439409354],[-93.65743492824235,42.01730234947352],[-93.6574369893129,42.01718234290098],[-93.65746838441581,42.01704951760324],[-93.65756951794692,42.01665379600956],[-93.65762103158357,42.01642857878738],[-93.65765750136025,42.01625251511352],[-93.65766314346143,42.01601727401953],[-93.65756393651004,42.0158536528477],[-93.65742358701108,42.01577920887703],[-93.65726817894067,42.01564991565692],[-93.65716985712176,42.01549867906358],[-93.65699146732365,42.01534003200883],[-93.65684769658048,42.0152618818973],[-93.65652087142622,42.01515724984677],[-93.65627161752673,42.01515341129732],[-93.65608673473947,42.01518846415817],[-93.65580215780244,42.01530794455513],[-93.65579507522258,42.01531063038851],[-93.65556138525245,42.01541107926955],[-93.65531455998654,42.01550693791447],[-93.65504057949217,42.01552001131564],[-93.65461765308997,42.01553140740001],[-93.65444996084835,42.01557255822519],[-93.65427796743988,42.01566127510539],[-93.6542744638329,42.01566127961271],[-93.65394051355256,42.0158662123563],[-93.65368808045446,42.01592898692144],[-93.65345511664019,42.01595646933448],[-93.65316838011822,42.01595871267907],[-93.6528368121011,42.01596648117685],[-93.65269507373377,42.01594645442875],[-93.65257548866438,42.01590846773904],[-93.65253358068802,42.01581636272066],[-93.65250499794794,42.01559530421596],[-93.65241442261295,42.01514291799423],[-93.65243011984916,42.01507676793295],[-93.65251748989621,42.01501653323905],[-93.6527746024303,42.01499228991665],[-93.65382036719359,42.0149863799804],[-93.6546147312335,42.01499977331283],[-93.65532576060168,42.014969646497],[-93.6555199994429,42.01495978398654],[-93.65565763997763,42.01494260225296],[-93.65607044887386,42.01487088077089],[-93.65628209491379,42.01484329270133],[-93.65655149030232,42.01485786951607],[-93.65679693304259,42.01491121795952],[-93.65710947362396,42.0149406696146],[-93.65737825410525,42.01494186499623],[-93.6579052116306,42.01494987989393],[-93.65833336334771,42.01496485711896],[-93.65840744528356,42.01496562573987],[-93.65849297025788,42.0149476313853],[-93.65855202370729,42.01492117895172],[-93.6586191805428,42.01483401617737],[-93.65863626385548,42.01475491836023],[-93.6586135154404,42.01373854995019],[-93.65857450771986,42.01370945498336],[-93.65848799385373,42.01368687180802],[-93.65828783243161,42.01367820968784],[-93.65491608614306,42.01362181301585],[-93.65407338095018,42.01361697166728]]}}
