{"type":"Feature","properties":{"name":"IowaState-8k","legacyMeetId":"5857","distance":"8k"},"geometry":{"type":"LineString","coordinates":[[-93.65221818533287,42.01253987180178],[-93.65425338754686,42.01251258744719],[-93.65695384812412,42.01219443712154],[-93.65719352759167,42.01216619356238],[-93.65760206509731,42.01217668363778],[-93.65781732199608,42.01218822550508],[-93.65827338441274,42.01221691304178],[-93.65834868728058,42.0122600096553],[-93.65847471101912,42.01236887660186],[-93.65852242186315,42.01245111576463],[-93.65856463675166,42.01258494853958],[-93.65858279233457,42.01277893739558],[-93.65859700574083,42.01318387389421],[-93.65861519602171,42.01367783777226],[-93.65863743362067,42.01455536370165],[-93.65864084279656,42.01478216364038],[-93.65862415302988,42.01483411435804],[-93.65851306306905,42.01494227966293],[-93.65839533246165,42.01496851982539],[-93.658242753519,42.01496891146731],[-93.65704758853165,42.01493912984242],[-93.65683439119339,42.01491938157825],[-93.65660658266954,42.01487360981054],[-93.65646148689984,42.01485519272106],[-93.65632210653675,42.01485024647689],[-93.65607228381334,42.01487476338581],[-93.65571029060825,42.0149322951547],[-93.65544955572565,42.01491652783312],[-93.65537212582774,42.01485457184167],[-93.65527488856796,42.01470697764005],[-93.65527478081108,42.01438956203948],[-93.65524783475269,42.01266052666436],[-93.65525327694596,42.01252656050828],[-93.65532876130322,42.0124350863655],[-93.65663660499888,42.01226195678101],[-93.65721040723722,42.01218883735282],[-93.65764969871309,42.01218157146712],[-93.65787000121013,42.01219475880738],[-93.65822998044109,42.01221242078044],[-93.65830817003751,42.01223368261611],[-93.65841925248861,42.01231079504256],[-93.65849605653818,42.01241098691411],[-93.65854362619797,42.01251890362857],[-93.65858784132475,42.01269835411273],[-93.65859320436651,42.01299172863064],[-93.65861512131936,42.01361073517834],[-93.65863757311485,42.01450909540398],[-93.65864378610574,42.014744213496],[-93.65863556281714,42.01480963018818],[-93.65857108613827,42.01488347061931],[-93.65853589838943,42.0149329009507],[-93.65844280073172,42.01496205883954],[-93.65831510816992,42.0149696567191],[-93.65811937841347,42.01495991770319],[-93.65710135752515,42.01493463378772],[-93.65695399054965,42.01493061038519],[-93.65671320756134,42.01489386261045],[-93.65654140750419,42.01486189613745],[-93.65639514153311,42.01485024510632],[-93.65622944467111,42.0148509373172],[-93.65613465893915,42.01486019815776],[-93.65588003426015,42.014906709459],[-93.65558930334059,42.01494858884458],[-93.65520804433338,42.01497439179237],[-93.65488489241515,42.01499049040031],[-93.65457961182595,42.01499820972391],[-93.65398134154509,42.0149815129168],[-93.65334348758327,42.01497410531125],[-93.65291726471573,42.01496834367027],[-93.65266558235925,42.01495532603801],[-93.6525356073125,42.01494461928326],[-93.65249363113533,42.01488423840919],[-93.65247253548924,42.01478276540883],[-93.65245000983316,42.01437658837511],[-93.65238807003323,42.01404837405534],[-93.6523570849781,42.01388551915925],[-93.65213400260652,42.013522496963],[-93.6519591693397,42.01326474837224],[-93.65193752271188,42.01309147629091],[-93.65196385530896,42.01302968794102],[-93.65205683206639,42.01295005917026],[-93.65223609982979,42.01288314197775],[-93.6523866222795,42.01284675701135],[-93.6543920816138,42.0125502255191],[-93.6561254026406,42.01232701560428],[-93.65685685727674,42.01223555306968],[-93.657162005553,42.01219328493561],[-93.6574421991357,42.01218280120533],[-93.65773557346314,42.01218116560022],[-93.65798851946664,42.01220106512217],[-93.65820097634177,42.01220989598428],[-93.65824994244413,42.01221131200518],[-93.65829082984804,42.01222607898438],[-93.65832980051077,42.01224746839716],[-93.65840423832194,42.01229893883352],[-93.65845465268474,42.01234373411331],[-93.65848520983523,42.01238526903374],[-93.6585122858334,42.01243290447805],[-93.65853390190262,42.01249236066446],[-93.65857618349344,42.0126475477696],[-93.65858871794248,42.01274737173362],[-93.65858797413948,42.01282799959014],[-93.6586090135146,42.01363613491004],[-93.65863067003951,42.01448098279715],[-93.65864757239127,42.01470899367454],[-93.65865217168188,42.01545084182994],[-93.65865744456913,42.01582282048922],[-93.65866498333402,42.01636517550203],[-93.65866318479041,42.01665643031262],[-93.65866707532282,42.01696268105477],[-93.65861211977592,42.01725239049122],[-93.65859651763839,42.01729763194579],[-93.65852940605397,42.01735731962446],[-93.65841785903243,42.01736709588246],[-93.658092477395,42.0173772641325],[-93.6578172850634,42.01737942641085],[-93.65765889915993,42.01737780512639],[-93.65757180307494,42.01735711864502],[-93.65749955849421,42.01733895021967],[-93.65743847753599,42.01729664735728],[-93.65743247359262,42.01723024233756],[-93.6574450141391,42.0171524591823],[-93.65746222464963,42.01705293182258],[-93.65752979034049,42.01679718656648],[-93.65762748999241,42.01638489203242],[-93.6576532081101,42.01626890466328],[-93.65765952966031,42.01613507822158],[-93.65766240722942,42.0160177917067],[-93.65760647708827,42.01592162509979],[-93.65756824942513,42.01585334874213],[-93.65745983968716,42.01579858521837],[-93.65739387871297,42.01575584111156],[-93.65725778576835,42.01563242312747],[-93.6572012865986,42.01555016083668],[-93.6571294116422,42.0154582348237],[-93.65700464906824,42.01535554532443],[-93.65688310632238,42.01528136247949],[-93.65674598699765,42.01522881947319],[-93.65651721170092,42.01516137164727],[-93.65626133561408,42.01515139569721],[-93.65608933646881,42.01518393688971],[-93.655786845236,42.01531167275984],[-93.65536070392545,42.01548850048617],[-93.6553053145588,42.01550776047436],[-93.65519278384033,42.01551359587621],[-93.65464097811163,42.01553074915826],[-93.65457617703203,42.01554378720228],[-93.65444635511503,42.01557298749986],[-93.65427447002187,42.01566346308533],[-93.65394171250419,42.0158620588034],[-93.65386815874352,42.01588551766758],[-93.65369296736549,42.01592393653004],[-93.65355339118437,42.01594646924397],[-93.65339953847638,42.0159555685043],[-93.65311275775902,42.01596254069624],[-93.65287141390083,42.01596585572873],[-93.65280221835015,42.01596384706718],[-93.65273216018268,42.01595483085692],[-93.65259315796183,42.01592066482507],[-93.65255363661308,42.01588036500407],[-93.65252731973492,42.01581915683352],[-93.65242061422853,42.01518800259716],[-93.65241598940435,42.0151093975604],[-93.65242242793705,42.01507621912426],[-93.65246938535893,42.01479980726614],[-93.65244636914755,42.01438879141125],[-93.65238950245727,42.01406477592923],[-93.65235781339993,42.01390198513712],[-93.65213795496481,42.01353892498055],[-93.65197185203533,42.01328050680407],[-93.65195399452767,42.0132490047589],[-93.65194344637558,42.01311625190101],[-93.65194246952878,42.01306818971169],[-93.65198629609833,42.01300547902493],[-93.65207955910275,42.01294465418855],[-93.65227382053256,42.01287141535931],[-93.65236146074417,42.01285326799756],[-93.65424867502081,42.01257101134858],[-93.65660786378736,42.01226724512532],[-93.65683764885303,42.01223961686621],[-93.65713528587096,42.01219424920129],[-93.65723419597559,42.01218697256724],[-93.65741319277166,42.01218180545482],[-93.65755069506443,42.01217948181518],[-93.65769317679852,42.01217882839465],[-93.65777093841508,42.01218730952054],[-93.65791784735225,42.01219149739148],[-93.65818061451037,42.01220908151604],[-93.65821469505144,42.01221102570615],[-93.65824053166003,42.01221256410047],[-93.65828341464594,42.01222170524463],[-93.65831930537426,42.01224089228985],[-93.65833833899099,42.01225259185135],[-93.65839198598088,42.01228738148009],[-93.65844580821526,42.01233292649183],[-93.65848363939267,42.01237954473108],[-93.65851728551681,42.01244119873193],[-93.65853116827383,42.01247242927865],[-93.6585561543153,42.01254940035258],[-93.65857170906939,42.01263183935855],[-93.6585803297552,42.01268590834032],[-93.65858514134165,42.01280996381242],[-93.65859671283009,42.01298188527321],[-93.65859308309678,42.0131497529803],[-93.65861074855967,42.01351241921041],[-93.65862338490814,42.01374619926772],[-93.65863857921731,42.01441851249695],[-93.65863857241027,42.01466585657047],[-93.65864448921704,42.01514497023335],[-93.6586563084409,42.01540796044186],[-93.65866068211878,42.01577789026003],[-93.65866575393898,42.01633437809804],[-93.65866077805421,42.01661762267256],[-93.65866905481224,42.01692838687255],[-93.65864403818928,42.01706595484047],[-93.65860948345718,42.01721907060616],[-93.658579605822,42.01732023410062],[-93.65847616617593,42.01735845294153],[-93.65833653974427,42.01737117019727],[-93.6580146187519,42.01737193959864],[-93.6577461595495,42.01737417732845],[-93.65761250144048,42.01737174250509],[-93.65753642445965,42.01735165081706],[-93.65746937494639,42.01732028909806],[-93.65743511433743,42.01726214834263],[-93.65742985038435,42.01719002379648],[-93.65744666762946,42.01709614791812],[-93.65752294730412,42.01684920411881],[-93.65761168416479,42.01643348671031],[-93.65764772573318,42.01632452281579],[-93.65765594271991,42.01620606219689],[-93.65765879185858,42.01607724064269],[-93.65765300701612,42.01598916238134],[-93.65762729040674,42.01595201174251],[-93.65758696596772,42.01589188426428],[-93.65755684583374,42.01584445917543],[-93.65749831841227,42.01581241985923],[-93.65742751163825,42.01577747965963],[-93.65734618827348,42.01571166423881],[-93.65728725412231,42.01565742230271],[-93.65723335189304,42.01559442234556],[-93.65717383479125,42.01550838486256],[-93.65707306328014,42.01540524526982],[-93.65693747649357,42.01531383524573],[-93.65682083710406,42.01525496364976],[-93.65665590739206,42.01520386802246],[-93.65655355829826,42.01516488241919],[-93.65645192531784,42.0151589677895],[-93.65630170232551,42.01514993393959],[-93.65621987503415,42.0151598301911],[-93.6561289965463,42.01517972904666],[-93.65603323066293,42.01520305145669],[-93.65581065201437,42.01530202696788],[-93.65573749494195,42.01532599901545],[-93.65538607476589,42.01547452123082],[-93.65533183967464,42.01549615599457],[-93.65524739638194,42.01551702938495],[-93.65511804453737,42.01551535601055],[-93.65468645785062,42.01553613064907],[-93.65460533343172,42.01553310042764],[-93.65453336992516,42.01554634522333],[-93.65447727442665,42.01556433335501],[-93.65439455981684,42.01560154898526],[-93.6542937631116,42.01565504999895],[-93.654209243886,42.01569607631544],[-93.65396912195688,42.01584180964704],[-93.65390477706762,42.0158780703425],[-93.65383579802514,42.01588984459281],[-93.65372674123888,42.01591657323902],[-93.6536281679957,42.01593286778925],[-93.65346645566736,42.01594838494498],[-93.65323980965151,42.01595606387938],[-93.65298469133106,42.01596070740031],[-93.65283116649229,42.0159674997539],[-93.65276328897313,42.01595705780685],[-93.65264685037226,42.01593278826096],[-93.65257469051085,42.01590276013786],[-93.65254378870874,42.01585263267965],[-93.65252309583336,42.01577451620124],[-93.65242718160188,42.01521582170431],[-93.65241479018658,42.01515225882964],[-93.652426257493,42.01501080947009],[-93.65246422240101,42.01482586267933],[-93.65246653809184,42.01475733671623],[-93.65244064241084,42.01441441206053],[-93.65239671098041,42.01409093471418],[-93.65236322544858,42.01392383257961],[-93.65234225935039,42.01386394182285],[-93.65215485049904,42.01357052638467],[-93.65198743186033,42.01329597547628],[-93.6519546244785,42.01319845019518],[-93.65194291261231,42.01313405043475],[-93.65194208042331,42.01310358819729],[-93.6519515949464,42.013049094739],[-93.65197507855818,42.01301784982908],[-93.6520224143312,42.0129793911489],[-93.65209800638847,42.01293294469688],[-93.65221665205272,42.01288808194444],[-93.65230009077206,42.01286541077223],[-93.65240854291616,42.01284509515802],[-93.65422710912387,42.01257356455682],[-93.65437249474942,42.01255353000228],[-93.6553485446697,42.01242579084828],[-93.65610183465097,42.01233305235061],[-93.65658615762177,42.01226782150598],[-93.6568145472156,42.01224066506268],[-93.65711780228229,42.01220142134623],[-93.65734093376602,42.01218591179466],[-93.6574931784903,42.01218108426906],[-93.65757542962851,42.01217721197174],[-93.65806306146557,42.01220052503177],[-93.65816281998892,42.01220724108666],[-93.65825990408113,42.01221805931714],[-93.65837149203706,42.01227099076198],[-93.6584288119409,42.01232148252559],[-93.65846143165314,42.012353876367],[-93.65849283517659,42.01239642682268],[-93.65852374454879,42.01246161918424],[-93.65854133816586,42.01250673176967],[-93.65855885508184,42.01257148420215],[-93.65856617006695,42.01261052053189],[-93.65857834794154,42.01267194514416],[-93.65858335072085,42.01272445394657],[-93.65858739983571,42.01279884025243],[-93.65858903193258,42.0128501446376],[-93.65859735747345,42.01313396655868],[-93.65861149732673,42.01350303478546],[-93.6585902881433,42.01359818427775],[-93.65854880163552,42.01362224565972],[-93.65848971831448,42.01363344606592],[-93.65756578036071,42.01363894454894],[-93.65526335504832,42.01362781813188],[-93.6540778128574,42.01361653901856]]}}
