<?xml version="1.0" encoding="UTF-8"?>
<kml xmlns="http://www.opengis.net/kml/2.2">
  <Document>
    <Placemark>
      <name>Ironman 70.3 St George Run</name>
      <LineString>
        <tessellate>1</tessellate>
        <coordinates>
          -113.38235,37.121057,0
          -113.374432,37.125065,0
          -113.374432,37.125065,0
          -113.372898,37.123696,0
          -113.372898,37.123696,0
          -113.382285,37.120924,0
          -113.382285,37.120924,0
          -113.382476,37.120807,0
          -113.382476,37.120807,0
          -113.382631,37.120757,0
          -113.382631,37.120757,0
          -113.382803,37.120794,0
          -113.382803,37.120794,0
          -113.382937,37.120954,0
          -113.382937,37.120954,0
          -113.382894,37.12114,0
          -113.382894,37.12114,0
          -113.382859,37.121307,0
          -113.382859,37.121307,0
          -113.382814,37.121502,0
          -113.382814,37.121502,0
          -113.382778,37.121668,0
          -113.382778,37.121668,0
          -113.382731,37.121903,0
          -113.382731,37.121903,0
          -113.382668,37.122154,0
          -113.382668,37.122154,0
          -113.3826,37.122386,0
          -113.3826,37.122386,0
          -113.382536,37.122707,0
          -113.382536,37.122707,0
          -113.382478,37.122852,0
          -113.382478,37.122852,0
          -113.38249,37.122888,0
          -113.38249,37.122888,0
          -113.382569,37.122911,0
          -113.382569,37.122911,0
          -113.38308,37.122994,0
          -113.38308,37.122994,0
          -113.383154,37.122818,0
          -113.383154,37.122818,0
          -113.383228,37.122506,0
          -113.383228,37.122506,0
          -113.38333,37.122104,0
          -113.38333,37.122104,0
          -113.383421,37.121733,0
          -113.383421,37.121733,0
          -113.383516,37.121336,0
          -113.383516,37.121336,0
          -113.383551,37.121199,0
          -113.383551,37.121199,0
          -113.383561,37.121157,0
          -113.383561,37.121157,0
          -113.38356,37.121104,0
          -113.38356,37.121104,0
          -113.383516,37.121049,0
          -113.383516,37.121049,0
          -113.383502,37.121023,0
          -113.383502,37.121023,0
          -113.383472,37.120968,0
          -113.383472,37.120968,0
          -113.383609,37.120838,0
          -113.383609,37.120838,0
          -113.383686,37.12065,0
          -113.383686,37.12065,0
          -113.383753,37.120278,0
          -113.383753,37.120278,0
          -113.383793,37.120032,0
          -113.383793,37.120032,0
          -113.383869,37.119664,0
          -113.383869,37.119664,0
          -113.383789,37.119545,0
          -113.383789,37.119545,0
          -113.383789,37.11944,0
          -113.383789,37.11944,0
          -113.383821,37.119371,0
          -113.383821,37.119371,0
          -113.383936,37.119288,0
          -113.383936,37.119288,0
          -113.384328,37.119083,0
          -113.384328,37.119083,0
          -113.384577,37.118999,0
          -113.384577,37.118999,0
          -113.384859,37.118907,0
          -113.384859,37.118907,0
          -113.385221,37.118865,0
          -113.385221,37.118865,0
          -113.385551,37.118856,0
          -113.385551,37.118856,0
          -113.385966,37.11886,0
          -113.385966,37.11886,0
          -113.386406,37.118849,0
          -113.386406,37.118849,0
          -113.386752,37.118776,0
          -113.386752,37.118776,0
          -113.387121,37.118698,0
          -113.387121,37.118698,0
          -113.387231,37.118546,0
          -113.387231,37.118546,0
          -113.387175,37.118405,0
          -113.387175,37.118405,0
          -113.387067,37.118129,0
          -113.387067,37.118129,0
          -113.387035,37.117975,0
          -113.387035,37.117975,0
          -113.387094,37.117804,0
          -113.387094,37.117804,0
          -113.387234,37.117633,0
          -113.387234,37.117633,0
          -113.387434,37.117491,0
          -113.387434,37.117491,0
          -113.387751,37.117295,0
          -113.387751,37.117295,0
          -113.388169,37.117076,0
          -113.388169,37.117076,0
          -113.388566,37.11685,0
          -113.388566,37.11685,0
          -113.388968,37.116642,0
          -113.388968,37.116642,0
          -113.38914,37.116518,0
          -113.38914,37.116518,0
          -113.389338,37.116354,0
          -113.389338,37.116354,0
          -113.389533,37.116095,0
          -113.389533,37.116095,0
          -113.389672,37.115872,0
          -113.389672,37.115872,0
          -113.389918,37.115488,0
          -113.389918,37.115488,0
          -113.390215,37.115041,0
          -113.390215,37.115041,0
          -113.390475,37.114617,0
          -113.390475,37.114617,0
          -113.390779,37.114153,0
          -113.390779,37.114153,0
          -113.391283,37.113353,0
          -113.391283,37.113353,0
          -113.39198,37.112277,0
          -113.39198,37.112277,0
          -113.392413,37.111562,0
          -113.39242,37.11156,0
          -113.39269,37.11107,0
          -113.39269,37.11107,0
          -113.39308,37.11034,0
          -113.39326,37.10993,0
          -113.39339,37.10952,0
          -113.39345,37.10923,0
          -113.39352,37.10907,0
          -113.39355,37.10889,0
          -113.39366,37.10859,0
          -113.39369,37.10852,0
          -113.39369,37.10852,0
          -113.39409,37.10752,0
          -113.39441,37.10665,0
          -113.3945,37.1063,0
          -113.39452,37.10599,0
          -113.39446,37.10581,0
          -113.39442,37.10578,0
          -113.39429,37.10563,0
          -113.39414,37.1055,0
          -113.39396,37.10538,0
          -113.39377,37.1053,0
          -113.39342,37.1052,0
          -113.39245,37.10492,0
          -113.3919,37.10476,0
          -113.39106,37.10452,0
          -113.39058,37.10436,0
          -113.3898,37.10413,0
          -113.3898,37.10413,0
          -113.3892,37.10394,0
          -113.38851,37.10375,0
          -113.38781,37.10361,0
          -113.38715,37.1035,0
          -113.38632,37.10335,0
          -113.38509,37.10314,0
          -113.38368,37.10285,0
          -113.38319,37.10279,0
          -113.38272,37.10276,0
          -113.38194,37.10275,0
          -113.38145,37.10273,0
          -113.38095,37.10269,0
          -113.38069,37.10264,0
          -113.38011,37.10248,0
          -113.3798,37.10232,0
          -113.37952,37.10214,0
          -113.37929,37.102,0
          -113.37929,37.102,0
          -113.37876,37.10172,0
          -113.3782,37.10148,0
          -113.37786,37.10133,0
          -113.37628,37.10104,0
          -113.37475,37.10077,0
          -113.37415,37.10072,0
          -113.37361,37.10072,0
          -113.37293,37.10079,0
          -113.37205,37.10098,0
          -113.37099,37.10127,0
          -113.37034,37.1014,0
          -113.3699,37.10144,0
          -113.36956,37.10144,0
          -113.36894,37.10143,0
          -113.36855,37.10136,0
          -113.36779,37.10128,0
          -113.36728,37.10124,0
          -113.36668,37.10125,0
          -113.36622,37.10135,0
          -113.36577,37.10149,0
          -113.3654,37.10165,0
          -113.36504,37.10187,0
          -113.3646,37.10219,0
          -113.36395,37.10271,0
          -113.36355,37.10304,0
          -113.36291,37.10352,0
          -113.36283,37.10358,0
          -113.36265,37.10317,0
          -113.36264,37.10317,0
          -113.360344,37.098173,0
          -113.360344,37.098173,0
          -113.360891,37.098049,0
          -113.360891,37.098049,0
          -113.361325,37.097968,0
          -113.361325,37.097968,0
          -113.362071,37.097959,0
          -113.362071,37.097959,0
          -113.363095,37.097955,0
          -113.363095,37.097955,0
          -113.364077,37.097934,0
          -113.364077,37.097934,0
          -113.364469,37.097946,0
          -113.364469,37.097946,0
          -113.364715,37.097989,0
          -113.364715,37.097989,0
          -113.365526,37.097976,0
          -113.365526,37.097976,0
          -113.36653,37.098032,0
          -113.36653,37.098032,0
          -113.367554,37.098135,0
          -113.367554,37.098135,0
          -113.368538,37.098228,0
          -113.368538,37.098228,0
          -113.369841,37.098399,0
          -113.369841,37.098399,0
          -113.370787,37.09852,0
          -113.370787,37.09852,0
          -113.37186,37.098644,0
          -113.37186,37.098644,0
          -113.372965,37.098738,0
          -113.372965,37.098738,0
          -113.375323,37.098963,0
          -113.375323,37.098963,0
          -113.377232,37.099331,0
          -113.377232,37.099331,0
          -113.378799,37.099896,0
          -113.378799,37.099896,0
          -113.380108,37.100512,0
          -113.380108,37.100512,0
          -113.381535,37.101111,0
          -113.381535,37.101111,0
          -113.381921,37.101256,0
          -113.381921,37.101256,0
          -113.382581,37.101449,0
          -113.382581,37.101449,0
          -113.383085,37.10156,0
          -113.383085,37.10156,0
          -113.383611,37.101658,0
          -113.383611,37.101658,0
          -113.384254,37.101795,0
          -113.384254,37.101795,0
          -113.384236,37.101857,0
          -113.384236,37.101857,0
          -113.384035,37.101812,0
          -113.384035,37.101812,0
          -113.383908,37.101787,0
          -113.383908,37.101787,0
          -113.383375,37.101678,0
          -113.383375,37.101678,0
          -113.382838,37.10157,0
          -113.382838,37.10157,0
          -113.382441,37.101458,0
          -113.382441,37.101458,0
          -113.382052,37.101349,0
          -113.382052,37.101349,0
          -113.381577,37.101193,0
          -113.381577,37.101193,0
          -113.381081,37.100994,0
          -113.381081,37.100994,0
          -113.380603,37.100802,0
          -113.380603,37.100802,0
          -113.379686,37.100397,0
          -113.379686,37.100397,0
          -113.379064,37.100096,0
          -113.379064,37.100096,0
          -113.378144,37.099708,0
          -113.378144,37.099708,0
          -113.377548,37.09951,0
          -113.377548,37.09951,0
          -113.376964,37.099336,0
          -113.376964,37.099336,0
          -113.376124,37.099157,0
          -113.376124,37.099157,0
          -113.375405,37.09902,0
          -113.375405,37.09902,0
          -113.374171,37.098889,0
          -113.374171,37.098889,0
          -113.373303,37.098824,0
          -113.373303,37.098824,0
          -113.372088,37.098719,0
          -113.372088,37.098719,0
          -113.371433,37.098653,0
          -113.371433,37.098653,0
          -113.370022,37.098466,0
          -113.370022,37.098466,0
          -113.369026,37.098346,0
          -113.369026,37.098346,0
          -113.367806,37.098209,0
          -113.367806,37.098209,0
          -113.366945,37.098115,0
          -113.366945,37.098115,0
          -113.365366,37.098038,0
          -113.365366,37.098038,0
          -113.364287,37.098053,0
          -113.364287,37.098053,0
          -113.363539,37.098118,0
          -113.363539,37.098118,0
          -113.362898,37.098205,0
          -113.362898,37.098205,0
          -113.361867,37.098377,0
          -113.361867,37.098377,0
          -113.361183,37.098546,0
          -113.361183,37.098546,0
          -113.360609,37.098678,0
          -113.360609,37.098678,0
          -113.359698,37.098978,0
          -113.359698,37.098978,0
          -113.359354,37.099119,0
          -113.359354,37.099119,0
          -113.358249,37.099579,0
          -113.358249,37.099579,0
          -113.357621,37.099848,0
          -113.357621,37.099848,0
          -113.355978,37.100556,0
          -113.355978,37.100556,0
          -113.354832,37.101047,0
          -113.354832,37.101047,0
          -113.353433,37.101643,0
          -113.353433,37.101643,0
          -113.352741,37.101951,0
          -113.352741,37.101951,0
          -113.35192,37.102332,0
          -113.35192,37.102332,0
          -113.351373,37.102612,0
          -113.351373,37.102612,0
          -113.351003,37.102834,0
          -113.351003,37.102834,0
          -113.35057,37.103058,0
          -113.35059,37.10307,0
          -113.34982,37.10364,0
          -113.34916,37.10409,0
          -113.34904,37.10418,0
          -113.34904,37.10418,0
          -113.34867,37.10445,0
          -113.34834,37.10475,0
          -113.34783,37.10521,0
          -113.34783,37.10521,0
          -113.34759,37.10543,0
          -113.34734,37.1057,0
          -113.34652,37.10659,0
          -113.34558,37.1076,0
          -113.34458,37.1087,0
          -113.34458,37.1087,0
          -113.34432,37.10902,0
          -113.34424,37.10919,0
          -113.34409,37.10942,0
          -113.34385,37.10991,0
          -113.34372,37.11029,0
          -113.34353,37.11082,0
          -113.34343,37.11118,0
          -113.34324,37.11216,0
          -113.34319,37.1125,0
          -113.34317,37.11318,0
          -113.34319,37.11405,0
          -113.34311,37.11539,0
          -113.34307,37.11865,0
          -113.34306,37.11942,0
          -113.34307,37.12007,0
          -113.34315,37.12065,0
          -113.34315,37.12069,0
          -113.34327,37.12133,0
          -113.34327,37.12133,0
          -113.34334,37.12169,0
          -113.34351,37.12221,0
          -113.34382,37.12312,0
          -113.3449,37.12577,0
          -113.34617,37.12895,0
          -113.34666,37.13025,0
          -113.34665,37.13025,0
          -113.34733,37.13192,0
          -113.3475,37.13246,0
          -113.34764,37.13298,0
          -113.34774,37.13351,0
          -113.34782,37.13405,0
          -113.34786,37.13469,0
          -113.34782,37.13565,0
          -113.34762,37.13708,0
          -113.34725,37.13918,0
          -113.34691,37.14119,0
          -113.34636,37.14438,0
          -113.3461,37.14594,0
          -113.34602,37.14649,0
          -113.34602,37.14649,0
          -113.3459,37.14743,0
          -113.34581,37.14833,0
          -113.34575,37.1493,0
          -113.34575,37.15013,0
          -113.34575,37.15193,0
          -113.34576,37.15373,0
          -113.34578,37.1566,0
          -113.34579,37.1602,0
          -113.34582,37.16272,0
          -113.34586,37.16398,0
          -113.34594,37.16516,0
          -113.34594,37.16516,0
          -113.34597,37.1657,0
          -113.34598,37.16687,0
          -113.34601,37.1703,0
          -113.34601,37.17049,0
          -113.34596,37.17063,0
          -113.3459,37.17117,0
          -113.34587,37.17203,0
          -113.34587,37.17203,0
          -113.345829,37.172146,0
          -113.345829,37.172146,0
          -113.345614,37.172355,0
          -113.345614,37.172355,0
          -113.345142,37.172458,0
          -113.345142,37.172458,0
          -113.344686,37.172565,0
          -113.344686,37.172565,0
          -113.344262,37.172761,0
          -113.344262,37.172761,0
          -113.343801,37.172962,0
          -113.343801,37.172962,0
          -113.343216,37.173193,0
          -113.343216,37.173193,0
          -113.341961,37.17371,0
          -113.341961,37.17371,0
          -113.341505,37.173975,0
          -113.341505,37.173975,0
          -113.341007,37.174167,0
          -113.341007,37.174167,0
          -113.340374,37.174368,0
          -113.340374,37.174368,0
          -113.33936,37.17471,0
          -113.33936,37.17471,0
          -113.339435,37.174795,0
          -113.339435,37.174795,0
          -113.341693,37.174,0
          -113.341693,37.174,0
          -113.342681,37.173655,0
          -113.342681,37.173655,0
          -113.343512,37.1734,0
          -113.343512,37.1734,0
          -113.344638,37.173169,0
          -113.344638,37.173169,0
          -113.345743,37.173037,0
          -113.345743,37.173037,0
          -113.346537,37.173003,0
          -113.346537,37.173003,0
          -113.348512,37.173051,0
          -113.348512,37.173051,0
          -113.349617,37.173038,0
          -113.349617,37.173038,0
          -113.350759,37.17291,0
          -113.350759,37.17291,0
          -113.352047,37.172641,0
          -113.35206,37.17266,0
          -113.35198,37.17268,0
          -113.35279,37.17249,0
          -113.35279,37.17249,0
          -113.35381,37.17225,0
          -113.35381,37.17225,0
          -113.36379,37.16992,0
          -113.36379,37.16992,0
          -113.36893,37.16871,0
          -113.37388,37.16754,0
          -113.37589,37.16706,0
          -113.37589,37.16706,0
          -113.38158,37.1657,0
          -113.38238,37.16551,0
          -113.38321,37.16529,0
          -113.38332,37.1653,0
          -113.38356,37.16522,0
          -113.38393,37.16509,0
          -113.38477,37.16472,0
          -113.38565,37.16424,0
          -113.38597,37.16404,0
          -113.38626,37.16385,0
          -113.38765,37.16284,0
          -113.38848,37.16224,0
          -113.38893,37.162,0
          -113.38941,37.16179,0
          -113.39013,37.16157,0
          -113.39039,37.16152,0
          -113.39086,37.16146,0
          -113.39132,37.16144,0
          -113.39166,37.16145,0
          -113.3921,37.16148,0
          -113.39257,37.16155,0
          -113.39291,37.16163,0
          -113.393,37.16166,0
          -113.393,37.16166,0
          -113.39353,37.16184,0
          -113.39376,37.16193,0
          -113.39437,37.16226,0
          -113.39566,37.16304,0
          -113.39604,37.1633,0
          -113.39622,37.16345,0
          -113.39645,37.16365,0
          -113.39667,37.16392,0
          -113.39742,37.16496,0
          -113.39798,37.16571,0
          -113.39837,37.16621,0
          -113.39837,37.16621,0
          -113.39877,37.16664,0
          -113.39907,37.1669,0
          -113.39945,37.16718,0
          -113.39977,37.16739,0
          -113.40034,37.16771,0
          -113.40106,37.16802,0
          -113.40159,37.16819,0
          -113.40209,37.16832,0
          -113.40262,37.16841,0
          -113.40339,37.16849,0
          -113.40388,37.1685,0
          -113.40637,37.16843,0
          -113.40786,37.16838,0
          -113.40807,37.16837,0
          -113.40816,37.16833,0
          -113.41023,37.16827,0
          -113.41115,37.16824,0
          -113.41265,37.16818,0
          -113.41355,37.16809,0
          -113.41422,37.168,0
          -113.41534,37.1678,0
          -113.41596,37.16765,0
          -113.41684,37.1674,0
          -113.41767,37.16713,0
          -113.41848,37.16681,0
          -113.41928,37.16646,0
          -113.42041,37.16587,0
          -113.42124,37.16535,0
          -113.42179,37.16498,0
          -113.42382,37.16361,0
          -113.42442,37.16324,0
          -113.425,37.16291,0
          -113.42542,37.1627,0
          -113.42604,37.16244,0
          -113.42627,37.16235,0
          -113.42708,37.16208,0
          -113.42781,37.16188,0
          -113.42888,37.16166,0
          -113.43186,37.16113,0
          -113.43487,37.16059,0
          -113.4356,37.16047,0
          -113.43558,37.16038,0
          -113.4356,37.16009,0
          -113.43563,37.15982,0
          -113.43563,37.15982,0
          -113.43566,37.15951,0
          -113.43575,37.15899,0
          -113.43594,37.15851,0
          -113.43615,37.15815,0
          -113.43638,37.15786,0
          -113.43663,37.1576,0
          -113.43712,37.15719,0
          -113.4375,37.15698,0
          -113.43784,37.15682,0
          -113.43815,37.1567,0
          -113.43851,37.15659,0
          -113.43902,37.1565,0
          -113.43991,37.15634,0
          -113.44027,37.15626,0
          -113.44057,37.15616,0
          -113.44086,37.15605,0
          -113.44124,37.15587,0
          -113.44161,37.15565,0
          -113.44198,37.15537,0
          -113.44239,37.155,0
          -113.44279,37.1546,0
          -113.44314,37.15427,0
          -113.44423,37.15341,0
          -113.44567,37.15243,0
          -113.44645,37.15187,0
          -113.447,37.15136,0
          -113.44725,37.15108,0
          -113.44755,37.1507,0
          -113.44782,37.15023,0
          -113.44799,37.14984,0
          -113.44829,37.14913,0
          -113.44854,37.14876,0
          -113.44886,37.14841,0
          -113.44925,37.14812,0
          -113.44948,37.14798,0
          -113.45101,37.1472,0
          -113.45135,37.14698,0
          -113.45197,37.14646,0
          -113.45299,37.14558,0
          -113.4532,37.14539,0
          -113.45331,37.14535,0
          -113.45379,37.14491,0
          -113.45405,37.14468,0
          -113.4547,37.14417,0
          -113.45521,37.14386,0
          -113.45553,37.14371,0
          -113.456,37.14357,0
          -113.45677,37.14329,0
          -113.45769,37.14296,0
          -113.46053,37.14188,0
          -113.46267,37.14108,0
          -113.46367,37.14068,0
          -113.46415,37.14043,0
          -113.46533,37.1396,0
          -113.46574,37.13938,0
          -113.46617,37.13922,0
          -113.46716,37.13887,0
          -113.46761,37.13872,0
          -113.46816,37.13856,0
          -113.46849,37.13848,0
          -113.46892,37.13843,0
          -113.46981,37.13833,0
          -113.47062,37.13824,0
          -113.47123,37.13815,0
          -113.47169,37.13802,0
          -113.47189,37.13794,0
          -113.47231,37.13773,0
          -113.47293,37.13725,0
          -113.47336,37.13691,0
          -113.47353,37.1368,0
          -113.47392,37.13659,0
          -113.47428,37.13645,0
          -113.47457,37.13635,0
          -113.47491,37.13628,0
          -113.47541,37.13617,0
          -113.47643,37.13595,0
          -113.47685,37.13581,0
          -113.47707,37.13572,0
          -113.47744,37.13551,0
          -113.47778,37.13526,0
          -113.47793,37.13511,0
          -113.47868,37.13422,0
          -113.47926,37.13354,0
          -113.47951,37.13329,0
          -113.47979,37.13305,0
          -113.48033,37.13265,0
          -113.48078,37.13239,0
          -113.48136,37.13212,0
          -113.48171,37.13197,0
          -113.482,37.13187,0
          -113.48254,37.13172,0
          -113.48284,37.13166,0
          -113.48347,37.13156,0
          -113.48507,37.13145,0
          -113.48507,37.13145,0
          -113.4852,37.13144,0
          -113.48521,37.13155,0
          -113.48524,37.13176,0
          -113.48524,37.13176,0
          -113.48531,37.13236,0
          -113.48531,37.13236,0
          -113.48544,37.13333,0
          -113.48547,37.1338,0
          -113.48549,37.13454,0
          -113.48549,37.13454,0
          -113.48549,37.13496,0
          -113.48549,37.13496,0
          -113.48549,37.13515,0
          -113.48549,37.13515,0
          -113.48549,37.13523,0
          -113.48549,37.13523,0
          -113.48549,37.13531,0
          -113.48549,37.13531,0
          -113.48549,37.13849,0
          -113.48549,37.13903,0
          -113.48547,37.13947,0
          -113.48537,37.14018,0
          -113.48507,37.14161,0
          -113.48502,37.14202,0
          -113.48505,37.14249,0
          -113.48509,37.1427,0
          -113.48519,37.14304,0
          -113.48548,37.14379,0
          -113.48562,37.14416,0
          -113.48562,37.14429,0
          -113.48563,37.1444,0
          -113.4856,37.14442,0
          -113.48555,37.1445,0
          -113.48553,37.14463,0
          -113.48554,37.14471,0
          -113.48559,37.1448,0
          -113.48571,37.14487,0
          -113.48581,37.14491,0
          -113.48587,37.14493,0
          -113.48591,37.145,0
          -113.48597,37.1451,0
          -113.48608,37.14532,0
          -113.48615,37.14538,0
          -113.48622,37.14553,0
          -113.48641,37.14596,0
          -113.48674,37.14634,0
          -113.48713,37.1468,0
          -113.48764,37.14741,0
          -113.48825,37.14812,0
          -113.48831,37.1482,0
          -113.48837,37.14817,0
          -113.48903,37.14884,0
          -113.48923,37.14904,0
          -113.4894,37.14915,0
          -113.48974,37.14934,0
          -113.49014,37.14947,0
          -113.49055,37.14952,0
          -113.49197,37.14964,0
          -113.49242,37.14972,0
          -113.49287,37.14977,0
          -113.49438,37.1499,0
          -113.49438,37.1499,0
          -113.49564,37.14995,0
          -113.49641,37.14992,0
          -113.4967,37.14989,0
          -113.49734,37.14975,0
          -113.4988,37.14941,0
          -113.49993,37.14911,0
          -113.50108,37.14879,0
          -113.50254,37.14844,0
          -113.50302,37.14838,0
          -113.5034,37.14836,0
          -113.50447,37.14835,0
          -113.5059,37.14837,0
          -113.50748,37.14834,0
          -113.50897,37.14835,0
          -113.5095,37.14832,0
          -113.50994,37.14829,0
          -113.51065,37.14827,0
          -113.51131,37.1483,0
          -113.51241,37.14838,0
          -113.51308,37.14848,0
          -113.51385,37.14869,0
          -113.51459,37.14901,0
          -113.51502,37.14922,0
          -113.51551,37.14953,0
          -113.51592,37.14982,0
          -113.51622,37.15009,0
          -113.51639,37.15027,0
          -113.51654,37.15047,0
          -113.51683,37.15083,0
          -113.51706,37.15122,0
          -113.51713,37.15137,0
          -113.5173,37.15183,0
          -113.51742,37.15222,0
          -113.51752,37.15244,0
          -113.51764,37.15263,0
          -113.51788,37.15294,0
          -113.51809,37.15315,0
          -113.51829,37.15331,0
          -113.51844,37.15348,0
          -113.51886,37.1539,0
          -113.51909,37.15413,0
          -113.51931,37.15448,0
          -113.5194,37.15468,0
          -113.51946,37.15486,0
          -113.5195,37.15515,0
          -113.5195,37.15557,0
          -113.51949,37.15613,0
          -113.51945,37.15713,0
          -113.51951,37.15755,0
          -113.51961,37.15806,0
          -113.51978,37.15841,0
          -113.51996,37.15868,0
          -113.52026,37.15895,0
          -113.52079,37.15924,0
          -113.52136,37.15945,0
          -113.52155,37.15949,0
          -113.52201,37.15954,0
          -113.52265,37.15952,0
          -113.52331,37.1594,0
          -113.52416,37.15924,0
          -113.5246,37.1592,0
          -113.52503,37.15911,0
          -113.52533,37.15905,0
          -113.52582,37.15901,0
          -113.52635,37.15903,0
          -113.52637,37.15858,0
          -113.52637,37.15858,0
          -113.52638,37.15835,0
          -113.52637,37.15818,0
          -113.52627,37.1579,0
          -113.52614,37.15761,0
          -113.52603,37.1574,0
          -113.52588,37.15698,0
          -113.52581,37.15657,0
          -113.5258,37.15549,0
          -113.52577,37.15304,0
          -113.5258,37.15271,0
          -113.52594,37.15244,0
          -113.5262,37.15212,0
          -113.52648,37.15192,0
          -113.5272,37.15148,0
          -113.52796,37.15106,0
          -113.52859,37.15069,0
          -113.52873,37.15057,0
          -113.52903,37.15026,0
          -113.52922,37.14993,0
          -113.52957,37.14873,0
          -113.53029,37.14628,0
          -113.53035,37.14608,0
          -113.53036,37.14575,0
          -113.53036,37.14551,0
          -113.53023,37.14523,0
          -113.53017,37.14512,0
          -113.52989,37.14477,0
          -113.52961,37.14449,0
          -113.5294,37.1443,0
          -113.52901,37.14393,0
          -113.52893,37.14377,0
          -113.52877,37.14346,0
          -113.52876,37.14321,0
          -113.52875,37.14198,0
          -113.52874,37.14162,0
          -113.52866,37.14129,0
          -113.52852,37.14103,0
          -113.52823,37.14064,0
          -113.52783,37.14028,0
          -113.52679,37.1394,0
          -113.52655,37.13914,0
          -113.52638,37.13889,0
          -113.52631,37.13784,0
          -113.52628,37.13588,0
          -113.5263,37.13511,0
          -113.52651,37.13397,0
          -113.52703,37.13139,0
          -113.52701,37.13081,0
          -113.52687,37.13044,0
          -113.52673,37.13024,0
          -113.52656,37.13006,0
          -113.52638,37.12988,0
          -113.52627,37.12979,0
          -113.52627,37.12979,0
          -113.52607,37.1296,0
          -113.5264,37.12938,0
          -113.52679,37.12908,0
          -113.52688,37.129,0
          -113.52688,37.129,0
          -113.52824,37.12779,0
          -113.52855,37.12751,0
          -113.52911,37.12709,0
          -113.53078,37.12596,0
          -113.53195,37.12521,0
          -113.53218,37.12508,0
          -113.5334,37.12446,0
          -113.5334,37.12446,0
          -113.53372,37.12431,0
          -113.53493,37.12376,0
          -113.53653,37.12308,0
          -113.53867,37.12218,0
          -113.53919,37.12198,0
          -113.53945,37.12187,0
          -113.53945,37.12187,0
          -113.54275,37.12052,0
          -113.5442,37.1199,0
          -113.54572,37.11929,0
          -113.54593,37.11918,0
          -113.54619,37.1191,0
          -113.54649,37.11904,0
          -113.54708,37.11902,0
          -113.54715,37.11901,0
          -113.54715,37.11901,0
          -113.54756,37.11896,0
          -113.54774,37.1189,0
          -113.54808,37.11877,0
          -113.54824,37.11868,0
          -113.5485,37.1185,0
          -113.54856,37.11844,0
          -113.54871,37.11829,0
          -113.54885,37.11809,0
          -113.54914,37.11784,0
          -113.54929,37.11775,0
          -113.55004,37.11741,0
          -113.55206,37.11655,0
          -113.55265,37.11629,0
          -113.55354,37.11585,0
          -113.55382,37.11568,0
          -113.55382,37.11568,0
          -113.55441,37.1153,0
          -113.55517,37.11475,0
          -113.55545,37.11452,0
          -113.55639,37.11369,0
          -113.55694,37.11318,0
          -113.55712,37.11309,0
          -113.55755,37.11295,0
          -113.55778,37.11291,0
          -113.55816,37.11289,0
          -113.5586,37.1129,0
          -113.55919,37.11293,0
          -113.55986,37.11293,0
          -113.56039,37.11293,0
          -113.56039,37.11293,0
          -113.56085,37.11291,0
          -113.56107,37.11284,0
          -113.56127,37.11273,0
          -113.56167,37.11248,0
          -113.56183,37.11238,0
          -113.56203,37.1123,0
          -113.5622,37.11226,0
          -113.56263,37.11225,0
          -113.56395,37.11227,0
          -113.56624,37.11226,0
          -113.56658,37.11229,0
          -113.56713,37.11233,0
          -113.56727,37.11239,0
          -113.56786,37.11245,0
          -113.56917,37.11255,0
          -113.56957,37.11259,0
          -113.56957,37.11259,0
          -113.57049,37.11268,0
          -113.57097,37.11276,0
          -113.57106,37.11271,0
          -113.57162,37.11285,0
          -113.57163,37.11289,0
          -113.57163,37.1129,0
          -113.57165,37.11291,0
          -113.57234,37.11307,0
          -113.57288,37.1132,0
          -113.57319,37.11324,0
          -113.57411,37.11335,0
          -113.57432,37.11336,0
          -113.57442,37.11333,0
          -113.57516,37.11343,0
          -113.57625,37.11358,0
          -113.5763,37.11364,0
          -113.5764,37.11368,0
          -113.57673,37.11378,0
          -113.57694,37.11388,0
          -113.57738,37.11414,0
          -113.57789,37.11456,0
          -113.57814,37.11471,0
          -113.57848,37.11486,0
          -113.57891,37.11497,0
          -113.57952,37.11512,0
          -113.57982,37.11527,0
          -113.58012,37.11549,0
          -113.58034,37.11574,0
          -113.58045,37.11596,0
          -113.58048,37.11603,0
          -113.58048,37.11603,0
          -113.58052,37.11616,0
          -113.58063,37.11654,0
          -113.5808,37.11683,0
          -113.5811,37.1172,0
          -113.58174,37.11793,0
          -113.58202,37.11824,0
          -113.58225,37.11852,0
          -113.5826,37.11902,0
          -113.58286,37.11943,0
          -113.58318,37.12006,0
          -113.58333,37.12047,0
          -113.58395,37.12235,0
          -113.58412,37.12289,0
          -113.58417,37.1231,0
          -113.5842,37.12331,0
          -113.58419,37.12361,0
          -113.58413,37.12394,0
          -113.58402,37.12425,0
          -113.58391,37.12446,0
          -113.5837,37.12477,0
          -113.5835,37.125,0
          -113.5833,37.12521,0
          -113.58307,37.12552,0
          -113.58294,37.12576,0
          -113.58279,37.12618,0
          -113.58274,37.12639,0
          -113.58273,37.12667,0
          -113.58273,37.12784,0
          -113.58275,37.13,0
          -113.58279,37.13029,0
          -113.58285,37.13051,0
          -113.58293,37.13072,0
          -113.58309,37.13103,0
          -113.58337,37.13139,0
          -113.58363,37.13165,0
          -113.58395,37.13188,0
          -113.58417,37.13202,0
          -113.58492,37.13238,0
          -113.58619,37.13296,0
          -113.58686,37.13325,0
          -113.5872,37.13337,0
          -113.58774,37.13352,0
          -113.58818,37.13361,0
          -113.58876,37.13371,0
          -113.58997,37.13385,0
          -113.59309,37.13424,0
          -113.59573,37.13456,0
          -113.59618,37.13461,0
          -113.5966,37.13471,0
          -113.59698,37.13487,0
          -113.59724,37.13505,0
          -113.59746,37.13525,0
          -113.59778,37.13554,0
          -113.5981,37.13576,0
          -113.5983,37.13586,0
          -113.59854,37.13594,0
          -113.59891,37.13603,0
          -113.5992,37.13605,0
          -113.59948,37.13605,0
          -113.59988,37.13598,0
          -113.60017,37.1359,0
          -113.6003,37.13584,0
          -113.60064,37.13566,0
          -113.60083,37.13552,0
          -113.60108,37.13524,0
          -113.6012,37.13504,0
          -113.6014,37.13472,0
          -113.6015,37.13461,0
          -113.6015,37.13461,0
          -113.601844,37.134326,0
          -113.601844,37.134326,0
          -113.602182,37.134138,0
          -113.602182,37.134138,0
          -113.602702,37.134017,0
          -113.602702,37.134017,0
          -113.60319,37.133969,0
          -113.60319,37.133969,0
          -113.604054,37.133914,0
          -113.60404,37.13392,0
          -113.60468,37.13387,0
          -113.60468,37.13387,0
          -113.60526,37.13377,0
          -113.60526,37.13377,0
          -113.60614,37.13363,0
          -113.60614,37.13363,0
          -113.60684,37.13354,0
          -113.60703,37.13353,0
          -113.60703,37.13353,0
          -113.6077,37.1335,0
          -113.60836,37.13351,0
          -113.60928,37.13354,0
          -113.60955,37.13355,0
          -113.60955,37.13355,0
          -113.61154,37.13361,0
          -113.61255,37.13366,0
          -113.61289,37.1337,0
          -113.61289,37.1337,0
          -113.61336,37.1338,0
          -113.6137,37.13389,0
          -113.61391,37.13395,0
          -113.61439,37.13414,0
          -113.61471,37.13429,0
          -113.6153,37.1346,0
          -113.61579,37.1349,0
          -113.61647,37.13537,0
          -113.61867,37.13697,0
          -113.61894,37.1372,0
          -113.61937,37.13763,0
          -113.61966,37.138,0
          -113.62074,37.13967,0
          -113.62133,37.14056,0
          -113.62183,37.14133,0
          -113.62221,37.14214,0
          -113.62249,37.14276,0
          -113.62265,37.14306,0
          -113.62292,37.14346,0
          -113.62406,37.14509,0
          -113.62468,37.14596,0
          -113.62518,37.14663,0
          -113.62587,37.14746,0
          -113.62644,37.14808,0
          -113.62728,37.14896,0
          -113.62763,37.14928,0
          -113.62789,37.14955,0
          -113.62894,37.15047,0
          -113.63024,37.15149,0
          -113.63227,37.153,0
          -113.63305,37.1536,0
          -113.63339,37.15394,0
          -113.63515,37.156,0
          -113.63787,37.1592,0
          -113.63816,37.15954,0
          -113.63866,37.16006,0
          -113.6391,37.16049,0
          -113.63941,37.16071,0
          -113.63986,37.16094,0
          -113.6407,37.16128,0
          -113.64105,37.16146,0
          -113.64113,37.16151,0
          -113.64158,37.16179,0
          -113.64328,37.16286,0
          -113.64347,37.16303,0
          -113.64346,37.16312,0
          -113.64347,37.1632,0
          -113.64356,37.1633,0
          -113.64369,37.16334,0
          -113.64381,37.16335,0
          -113.64387,37.16334,0
          -113.64399,37.16341,0
          -113.64449,37.16379,0
          -113.64513,37.1643,0
          -113.64714,37.1659,0
          -113.64889,37.16727,0
          -113.64949,37.16776,0
          -113.64968,37.16796,0
          -113.64968,37.16796,0
          -113.649941,37.168271,0
          -113.649941,37.168271,0
          -113.650553,37.168578,0
          -113.650553,37.168578,0
          -113.651379,37.168644,0
          -113.651379,37.168644,0
          -113.652184,37.168644,0
          -113.652184,37.168644,0
          -113.653192,37.168644,0
          -113.653192,37.168644,0
          -113.65345,37.168606,0
          -113.65345,37.168606,0
          -113.653718,37.168554,0
          -113.653718,37.168554,0
          -113.653997,37.168683,0
          -113.653997,37.168683,0
          -113.654673,37.168546,0
          -113.654673,37.168546,0
          -113.655145,37.168561,0
          -113.655145,37.168561,0
          -113.655595,37.168561,0
          -113.655595,37.168561,0
          -113.655692,37.168555,0
          -113.655692,37.168555,0
          -113.655837,37.168561,0
          -113.655837,37.168561,0
          -113.659109,37.168526,0
          -113.659109,37.168526,0
          -113.661777,37.168492,0
          -113.661777,37.168492,0
          -113.664165,37.168468,0
          -113.664165,37.168468,0
          -113.668431,37.168402,0
          -113.668431,37.168402,0
          -113.688401,37.16824,0
          -113.688401,37.16824,0
          -113.688517,37.168228,0
          -113.688517,37.168228,0
          -113.688611,37.168209,0
          -113.688611,37.168209,0
          -113.688705,37.168167,0
          -113.688705,37.168167,0
          -113.688801,37.168173,0
          -113.688801,37.168173,0
          -113.688841,37.168214,0
          -113.688841,37.168214,0
          -113.688867,37.168273,0
          -113.688867,37.168273,0
          -113.688855,37.168324,0
          -113.688855,37.168324,0
          -113.688832,37.168376,0
          -113.688832,37.168376,0
          -113.688782,37.168403,0
          -113.688782,37.168403,0
          -113.688734,37.16842,0
          -113.688734,37.16842,0
          -113.688671,37.16841,0
          -113.688671,37.16841,0
          -113.688627,37.168374,0
          -113.688627,37.168374,0
          -113.688558,37.168347,0
          -113.688558,37.168347,0
          -113.688497,37.16832,0
          -113.688497,37.16832,0
          -113.688419,37.168297,0
          -113.688419,37.168297,0
          -113.688326,37.168299,0
          -113.688326,37.168299,0
          -113.68798,37.168294,0
          -113.68798,37.168294,0
          -113.687382,37.168303,0
          -113.687382,37.168303,0
          -113.686738,37.168305,0
          -113.686738,37.168305,0
          -113.686106,37.168306,0
          -113.686106,37.168306,0
          -113.685543,37.168321,0
          -113.685543,37.168321,0
          -113.684643,37.168327,0
          -113.684643,37.168327,0
          -113.683809,37.168339,0
          -113.683809,37.168339,0
          -113.682285,37.168326,0
          -113.682285,37.168326,0
          -113.681252,37.168338,0
          -113.681252,37.168338,0
          -113.679919,37.168341,0
          -113.679919,37.168341,0
          -113.678924,37.168353,0
          -113.678924,37.168353,0
          -113.67705,37.168372,0
          -113.67705,37.168372,0
          -113.67506,37.168444,0
          -113.67506,37.168444,0
          -113.674083,37.168452,0
          -113.674083,37.168452,0
          -113.666337,37.168538,0
          -113.666337,37.168538,0
          -113.655836,37.168622,0
          -113.655836,37.168622,0
          -113.654959,37.168615,0
          -113.654959,37.168615,0
          -113.65438,37.168674,0
          -113.65438,37.168674,0
          -113.653608,37.168922,0
          -113.653608,37.168922,0
          -113.653479,37.169127,0
          -113.653479,37.169127,0
          -113.653227,37.169472,0
          -113.65323,37.16947,0
          -113.65278,37.16998,0
          -113.65237,37.17058,0
          -113.65237,37.17058,0
          -113.65213,37.17093,0
          -113.6519,37.17126,0
          -113.65167,37.17171,0
          -113.65162,37.17181,0
          -113.65107,37.17287,0
          -113.65076,37.17329,0
          -113.65048,37.17357,0
          -113.64962,37.17429,0
          -113.64953,37.17437,0
          -113.64953,37.17437,0
          -113.64824,37.17541,0
          -113.64824,37.17541,0
          -113.64719,37.17623,0
          -113.64643,37.17687,0
          -113.64605,37.1772,0
          -113.64575,37.17742,0
          -113.64551,37.17757,0
          -113.64536,37.1777,0
          -113.64514,37.17794,0
          -113.64498,37.17823,0
          -113.64489,37.17846,0
          -113.64479,37.17877,0
          -113.64474,37.1799,0
          -113.64472,37.1803,0
          -113.64472,37.1803,0
          -113.64471,37.18065,0
          -113.64473,37.18127,0
          -113.64482,37.18197,0
          -113.64482,37.18197,0
          -113.64493,37.18288,0
          -113.64512,37.18414,0
          -113.64526,37.18492,0
          -113.64539,37.18565,0
          -113.64538,37.18593,0
          -113.64532,37.18626,0
          -113.64526,37.18643,0
          -113.64522,37.18664,0
          -113.64504,37.18708,0
          -113.64467,37.18776,0
          -113.64467,37.18776,0
          -113.64446,37.18816,0
          -113.64441,37.1883,0
          -113.64443,37.18844,0
          -113.64454,37.1889,0
          -113.64485,37.1896,0
          -113.64523,37.19035,0
          -113.64547,37.19087,0
          -113.64579,37.19152,0
          -113.64607,37.19213,0
          -113.64623,37.19243,0
          -113.64648,37.19289,0
          -113.64666,37.19329,0
          -113.64674,37.19346,0
          -113.64674,37.19373,0
          -113.64662,37.19401,0
          -113.64657,37.19413,0
          -113.64657,37.19424,0
          -113.6466,37.19448,0
          -113.6466,37.19459,0
          -113.64661,37.19472,0
          -113.64656,37.19487,0
          -113.64634,37.19525,0
          -113.64599,37.19559,0
          -113.64588,37.19567,0
          -113.64559,37.19594,0
          -113.64531,37.19627,0
          -113.64519,37.19673,0
          -113.64502,37.19709,0
          -113.64477,37.19759,0
          -113.6446,37.19789,0
          -113.64456,37.1981,0
          -113.6445,37.19838,0
          -113.6443,37.19871,0
          -113.64385,37.19921,0
          -113.64329,37.19984,0
          -113.64294,37.20023,0
          -113.64234,37.20112,0
          -113.64201,37.20187,0
          -113.64183,37.2022,0
          -113.64159,37.20264,0
          -113.64146,37.20296,0
          -113.64131,37.20336,0
          -113.64113,37.20367,0
          -113.64103,37.2039,0
          -113.641,37.20409,0
          -113.64103,37.20442,0
          -113.64112,37.20471,0
          -113.64129,37.20497,0
          -113.64168,37.20538,0
          -113.64194,37.20567,0
          -113.64228,37.20599,0
          -113.64324,37.20658,0
          -113.64388,37.20717,0
          -113.64402,37.20734,0
          -113.64405,37.20751,0
          -113.64402,37.20772,0
          -113.64327,37.2091,0
          -113.64312,37.20931,0
          -113.64291,37.20954,0
          -113.64281,37.20969,0
          -113.64273,37.20985,0
          -113.64272,37.21003,0
          -113.64275,37.21025,0
          -113.64288,37.21083,0
          -113.64292,37.21121,0
          -113.64291,37.21146,0
          -113.64281,37.21181,0
          -113.6427,37.21219,0
          -113.64253,37.21267,0
          -113.64234,37.21343,0
          -113.64231,37.21354,0
          -113.64232,37.21379,0
          -113.64235,37.21393,0
          -113.64244,37.2141,0
          -113.64291,37.21471,0
          -113.64324,37.21511,0
          -113.6434,37.21532,0
          -113.64357,37.21556,0
          -113.6436,37.21565,0
          -113.64362,37.21584,0
          -113.64361,37.21591,0
          -113.64351,37.21619,0
          -113.64296,37.21755,0
          -113.64287,37.21772,0
          -113.64277,37.21786,0
          -113.64255,37.21824,0
          -113.64243,37.21849,0
          -113.64238,37.21864,0
          -113.64224,37.21909,0
          -113.64202,37.21949,0
          -113.64181,37.21979,0
          -113.64171,37.22002,0
          -113.64168,37.22033,0
          -113.64172,37.22109,0
          -113.64171,37.22184,0
          -113.64172,37.22208,0
          -113.64177,37.2223,0
          -113.64198,37.22267,0
          -113.64226,37.22308,0
          -113.64236,37.22333,0
          -113.64235,37.22358,0
          -113.64231,37.22376,0
          -113.6422,37.22406,0
          -113.64205,37.22439,0
          -113.64188,37.22465,0
          -113.64157,37.22502,0
          -113.641,37.22555,0
          -113.64081,37.2258,0
          -113.64069,37.22598,0
          -113.64016,37.22699,0
          -113.64001,37.22731,0
          -113.63985,37.22763,0
          -113.6397,37.22786,0
          -113.6392,37.22843,0
          -113.63895,37.22866,0
          -113.63875,37.22881,0
          -113.63856,37.2289,0
          -113.63829,37.22898,0
          -113.63789,37.22901,0
          -113.63732,37.22903,0
          -113.63697,37.22907,0
          -113.63672,37.22914,0
          -113.63626,37.22939,0
          -113.63591,37.22963,0
          -113.63571,37.22985,0
          -113.63561,37.23003,0
          -113.63551,37.23017,0
          -113.63545,37.23023,0
          -113.63527,37.23036,0
          -113.63509,37.23045,0
          -113.63468,37.23059,0
          -113.63449,37.23065,0
          -113.63449,37.23065,0
          -113.63397,37.23078,0
          -113.63397,37.23078,0
          -113.63386,37.23081,0
          -113.63386,37.23081,0
          -113.63374,37.23084,0
          -113.63372,37.23072,0
          -113.63372,37.23072,0
          -113.63363,37.23014,0
          -113.6336,37.22963,0
          -113.63356,37.22815,0
          -113.63346,37.22366,0
          -113.63341,37.22163,0
          -113.63341,37.22163,0
          -113.63336,37.21959,0
          -113.63332,37.21892,0
          -113.63322,37.21808,0
          -113.63311,37.2175,0
          -113.63293,37.21677,0
          -113.63272,37.21606,0
          -113.63244,37.21527,0
          -113.63212,37.21455,0
          -113.63108,37.21254,0
          -113.62976,37.20998,0
          -113.62976,37.20998,0
          -113.62881,37.20811,0
          -113.62844,37.20737,0
          -113.62802,37.20646,0
          -113.62722,37.2047,0
          -113.62643,37.203,0
          -113.62498,37.19977,0
          -113.62342,37.19634,0
          -113.62334,37.19617,0
          -113.62334,37.19617,0
          -113.62104,37.1911,0
          -113.62066,37.19023,0
          -113.62042,37.18974,0
          -113.62018,37.18916,0
          -113.61998,37.18862,0
          -113.61979,37.18806,0
          -113.61966,37.18756,0
          -113.61947,37.18665,0
          -113.61941,37.18625,0
          -113.61941,37.18625,0
          -113.61932,37.1854,0
          -113.61919,37.18309,0
          -113.6191,37.18108,0
          -113.61905,37.18032,0
          -113.61899,37.1787,0
          -113.61886,37.17612,0
          -113.61885,37.17583,0
          -113.61885,37.17583,0
          -113.61875,37.17353,0
          -113.61868,37.17198,0
          -113.61863,37.1715,0
          -113.61856,37.17122,0
          -113.61843,37.1708,0
          -113.61823,37.17043,0
          -113.61804,37.17014,0
          -113.61782,37.16986,0
          -113.61736,37.1694,0
          -113.6156,37.16788,0
          -113.6156,37.16788,0
          -113.61451,37.16693,0
          -113.61288,37.16553,0
          -113.61236,37.16505,0
          -113.61204,37.16474,0
          -113.61166,37.16429,0
          -113.6113,37.1638,0
          -113.61072,37.16283,0
          -113.61047,37.16248,0
          -113.61016,37.162,0
          -113.60992,37.16172,0
          -113.60977,37.16158,0
          -113.6095,37.16135,0
          -113.60902,37.16106,0
          -113.60859,37.16088,0
          -113.60468,37.15961,0
          -113.6043,37.15945,0
          -113.60393,37.15922,0
          -113.60359,37.15894,0
          -113.60333,37.15866,0
          -113.60314,37.15838,0
          -113.60295,37.15794,0
          -113.60289,37.15761,0
          -113.60289,37.15726,0
          -113.60294,37.15695,0
          -113.60306,37.15656,0
          -113.60321,37.15627,0
          -113.60341,37.15596,0
          -113.60385,37.15549,0
          -113.60439,37.15496,0
          -113.60505,37.15424,0
          -113.60588,37.15337,0
          -113.60629,37.15295,0
          -113.60656,37.1526,0
          -113.60689,37.1521,0
          -113.60712,37.15166,0
          -113.60727,37.15131,0
          -113.60749,37.15054,0
          -113.60756,37.15013,0
          -113.6076,37.14925,0
          -113.60758,37.14892,0
          -113.60752,37.14856,0
          -113.60738,37.14803,0
          -113.60726,37.14768,0
          -113.60705,37.14719,0
          -113.60692,37.14688,0
          -113.60692,37.14688,0
          -113.6062,37.14505,0
          -113.6062,37.14505,0
          -113.60485,37.1416,0
          -113.60459,37.14091,0
          -113.60454,37.14071,0
          -113.604,37.13942,0
          -113.604,37.13942,0
          -113.603618,37.138462,0
          -113.603618,37.138462,0
          -113.603125,37.137008,0
          -113.603125,37.137008,0
          -113.60306,37.136246,0
          -113.60306,37.136246,0
          -113.603035,37.134515,0
          -113.603035,37.134515,0
          -113.603024,37.132932,0
          -113.603024,37.132932,0
          -113.602936,37.13139,0
          -113.602936,37.13139,0
          -113.602823,37.130634,0
          -113.60281,37.13064,0
          -113.60273,37.13032,0
          -113.60262,37.13016,0
          -113.60256,37.1299,0
          -113.6024,37.12931,0
          -113.60228,37.12897,0
          -113.6021,37.12848,0
          -113.6021,37.12848,0
          -113.60153,37.127038,0
          -113.60153,37.127038,0
          -113.601208,37.126413,0
          -113.601208,37.126413,0
          -113.600817,37.125466,0
          -113.600817,37.125466,0
          -113.60057,37.124932,0
          -113.60057,37.124932,0
          -113.600393,37.124266,0
          -113.600393,37.124266,0
          -113.600307,37.12407,0
          -113.600307,37.12407,0
          -113.600103,37.12389,0
          -113.600103,37.12389,0
          -113.599755,37.123256,0
          -113.599755,37.123256,0
          -113.599529,37.122846,0
          -113.599529,37.122846,0
          -113.599293,37.122924,0
          -113.599293,37.122924,0
          -113.599106,37.122821,0
          -113.599106,37.122821,0
          -113.598853,37.122609,0
          -113.598853,37.122609,0
          -113.598682,37.122476,0
          -113.598682,37.122476,0
          -113.598306,37.122138,0
          -113.598306,37.122138,0
          -113.597464,37.121443,0
          -113.597464,37.121443,0
          -113.596031,37.120454,0
          -113.596031,37.120454,0
          -113.595597,37.120121,0
          -113.595597,37.120121,0
          -113.594078,37.119026,0
          -113.594078,37.119026,0
          -113.592748,37.118076,0
          -113.592748,37.118076,0
          -113.590414,37.116388,0
          -113.590414,37.116388,0
          -113.588038,37.1147,0
          -113.588038,37.1147,0
          -113.583885,37.111739,0
          -113.583885,37.111739,0
          -113.583722,37.111647,0
          -113.583722,37.111647,0
          -113.583545,37.111605,0
          -113.583545,37.111605,0
          -113.583438,37.111538,0
          -113.583438,37.111538,0
          -113.583384,37.111429,0
          -113.583384,37.111429,0
          -113.583358,37.111314,0
          -113.583358,37.111314,0
          -113.583347,37.111121,0
          -113.583347,37.111121,0
          -113.583358,37.110788,0
          -113.583358,37.110788,0
          -113.583341,37.109959,0
          -113.583341,37.109959,0
          -113.583347,37.10913,0
          -113.583347,37.10913,0
          -113.583374,37.108453,0
          -113.583374,37.108453,0
          -113.583395,37.108332,0
          -113.583395,37.108332,0
          -113.583455,37.108273,0
          -113.583455,37.108273,0
          -113.583513,37.108245,0
          -113.583513,37.108245,0
          -113.583581,37.108234,0
          -113.583581,37.108234,0
          -113.583642,37.108237,0
          -113.583642,37.108237,0
          -113.584021,37.108254,0
          -113.584021,37.108254,0
          -113.584859,37.108262,0
          -113.584859,37.108262,0
          -113.589578,37.108271,0
          -113.589578,37.108271,0
          -113.589578,37.10818,0
          -113.589578,37.10818,0
          -113.58814,37.108183,0
          -113.58814,37.108183,0
          -113.58616,37.108186,0
          -113.58616,37.108186,0
          -113.584818,37.108179,0
          -113.584818,37.108179,0
          -113.584482,37.108162,0
          -113.584482,37.108162,0
          -113.58429,37.10816,0
          -113.58429,37.10816,0
          -113.583992,37.108163,0
          -113.583992,37.108163,0
          -113.583737,37.108175,0
          -113.583737,37.108175,0
          -113.583643,37.108172,0
          -113.583643,37.108172,0
          -113.583509,37.10817,0
          -113.583509,37.10817,0
          -113.58348,37.108187,0
          -113.58348,37.108187,0
          -113.583421,37.108242,0
          -113.583421,37.108242,0
          -113.583366,37.108275,0
          -113.583366,37.108275,0
          -113.583317,37.10831,0
          -113.583317,37.10831,0
          -113.5833,37.108336,0
          -113.5833,37.108336,0
          -113.583304,37.108378,0
          -113.583304,37.108378,0
          -113.583312,37.108467,0
          -113.583312,37.108467,0
          -113.583304,37.10857,0
          -113.583304,37.10857,0
          -113.583302,37.108779,0
          -113.583302,37.108779,0
          -113.583291,37.108926,0
          -113.583291,37.108926,0
          -113.58329,37.109049,0
          -113.58329,37.109049,0
          -113.583285,37.109273,0
          -113.583285,37.109273,0
          -113.583274,37.109668,0
          -113.583274,37.109668,0
          -113.583273,37.110093,0
          -113.583273,37.110093,0
          -113.583267,37.110428,0
          -113.583267,37.110428,0
          -113.583257,37.110967,0
          -113.583257,37.110967,0
          -113.583262,37.111328,0
          -113.583262,37.111328,0
          -113.583246,37.111446,0
          -113.583246,37.111446,0
          -113.583184,37.111543,0
          -113.583184,37.111543,0
          -113.583224,37.111633,0
          -113.583224,37.111633,0
          -113.583289,37.111653,0
          -113.583289,37.111653,0
          -113.583389,37.111621,0
          -113.583389,37.111621,0
          -113.583462,37.111624,0
          -113.583462,37.111624,0
          -113.583537,37.111634,0
          -113.583537,37.111634,0
          -113.583601,37.111656,0
          -113.583601,37.111656,0
          -113.583688,37.111687,0
          -113.583688,37.111687,0
          -113.583825,37.111777,0
          -113.583825,37.111777,0
          -113.584259,37.112074,0
          -113.584259,37.112074,0
          -113.584627,37.112328,0
          -113.584627,37.112328,0
          -113.58562,37.113038,0
          -113.58562,37.113038,0
          -113.586988,37.114017,0
          -113.586988,37.114017,0
          -113.588766,37.1153,0
          -113.588766,37.1153,0
          -113.590859,37.116818,0
          -113.590859,37.116818,0
          -113.595533,37.120171,0
          -113.595533,37.120171,0
          -113.597996,37.121963,0
          -113.597996,37.121963,0
          -113.599044,37.122852,0
          -113.599044,37.122852,0
          -113.599288,37.122991,0
          -113.599288,37.122991,0
          -113.599407,37.12307,0
          -113.599407,37.12307,0
          -113.59953,37.123161,0
          -113.59953,37.123161,0
          -113.599663,37.123323,0
          -113.599663,37.123323,0
          -113.599856,37.123806,0
          -113.599856,37.123806,0
          -113.601106,37.126524,0
          -113.601106,37.126524,0
          -113.601905,37.128132,0
          -113.601905,37.128132,0
          -113.602093,37.128701,0
          -113.602093,37.128701,0
          -113.601988,37.12874,0
          -113.601988,37.12874,0
          -113.601629,37.128728,0
          -113.601629,37.128728,0
          -113.601049,37.128719,0
          -113.601049,37.128719,0
          -113.600824,37.128728,0
          -113.600824,37.128728,0
          -113.600735,37.128734,0
          -113.600735,37.128734,0
          -113.600486,37.128776,0
          -113.600486,37.128776,0
          -113.600304,37.128808,0
          -113.600304,37.128808,0
          -113.60005,37.128788,0
          -113.60005,37.128788,0
          -113.599632,37.128736,0
          -113.599632,37.128736,0
          -113.599364,37.128712,0
          -113.599364,37.128712,0
          -113.599069,37.128736,0
          -113.599069,37.128736,0
          -113.598801,37.12876,0
          -113.598801,37.12876,0
          -113.598302,37.128742,0
          -113.598302,37.128742,0
          -113.597943,37.128658,0
          -113.597943,37.128658,0
          -113.597741,37.128618,0
          -113.597741,37.128618,0
          -113.597522,37.128594,0
          -113.597522,37.128594,0
          -113.597369,37.128633,0
          -113.597369,37.128633,0
          -113.59724,37.12867,0
          -113.59724,37.12867,0
          -113.597166,37.12868,0
          -113.597166,37.12868,0
          -113.597115,37.128661,0
          -113.597115,37.128661,0
          -113.596741,37.128487,0
          -113.596741,37.128487,0
          -113.596594,37.128463,0
          -113.596594,37.128463,0
          -113.596414,37.128475,0
          -113.596414,37.128475,0
          -113.596242,37.128535,0
          -113.596242,37.128535,0
          -113.596191,37.128576,0
          -113.596191,37.128576,0
          -113.596148,37.128555,0
          -113.596148,37.128555,0
          -113.596117,37.128505,0
          -113.596117,37.128505,0
          -113.596158,37.128449,0
          -113.596158,37.128449,0
          -113.596309,37.128393,0
          -113.596309,37.128393,0
          -113.596541,37.128351,0
          -113.596541,37.128351,0
          -113.596701,37.128351,0
          -113.596701,37.128351,0
          -113.59686,37.128396,0
          -113.59686,37.128396,0
          -113.597097,37.128494,0
          -113.597097,37.128494,0
          -113.59729,37.12854,0
          -113.59729,37.12854,0
          -113.597342,37.128538,0
          -113.597342,37.128538,0
          -113.597343,37.128493,0
          -113.597343,37.128493,0
          -113.597227,37.128378,0
          -113.597227,37.128378,0
          -113.596485,37.127788,0
          -113.596485,37.127788,0
          -113.596413,37.12776,0
          -113.596413,37.12776,0
          -113.596351,37.127747,0
          -113.596351,37.127747,0
          -113.59628,37.127732,0
          -113.59628,37.127732,0
          -113.596189,37.127731,0
          -113.596189,37.127731,0
          -113.596099,37.127737,0
          -113.596099,37.127737,0
          -113.59602,37.127758,0
          -113.59602,37.127758,0
          -113.595955,37.127788,0
          -113.595955,37.127788,0
          -113.595876,37.127823,0
          -113.595876,37.127823,0
          -113.595773,37.127852,0
          -113.595773,37.127852,0
          -113.595668,37.127877,0
          -113.595668,37.127877,0
          -113.595576,37.127896,0
          -113.595576,37.127896,0
          -113.595444,37.127947,0
          -113.595444,37.127947,0
          -113.595352,37.127986,0
          -113.595352,37.127986,0
          -113.595303,37.128024,0
          -113.5953,37.12802,0
          -113.59472,37.128469,0
          -113.59472,37.128469,0
          -113.594393,37.129124,0
          -113.594393,37.129124,0
          -113.59319,37.12926,0
          -113.59319,37.12926,0
          -113.59286,37.1294,0
          -113.59253,37.12947,0
          -113.59253,37.12947,0
          -113.59247,37.12947,0
          -113.59243,37.12945,0
          -113.59239,37.12934,0
          -113.59239,37.12934,0
          -113.59238,37.12924,0
          -113.5924,37.12921,0
          -113.59247,37.12913,0
          -113.59255,37.12905,0
          -113.59274,37.12891,0
          -113.59297,37.12887,0
          -113.59297,37.12886,0
          -113.59297,37.12886,0
          -113.593142,37.128788,0
          -113.593142,37.128788,0
          -113.593222,37.128719,0
          -113.593222,37.128719,0
          -113.593338,37.128311,0
          -113.593338,37.128311,0
          -113.593563,37.128096,0
          -113.593563,37.128096,0
          -113.593869,37.127905,0
          -113.593869,37.127905,0
          -113.594097,37.127639,0
          -113.594097,37.127639,0
          -113.594046,37.127367,0
          -113.594046,37.127367,0
          -113.59396,37.127176,0
          -113.59396,37.127176,0
          -113.59389,37.127007,0
          -113.59389,37.127007,0
          -113.593641,37.126532,0
          -113.593641,37.126532,0
          -113.593523,37.126381,0
          -113.593523,37.126381,0
          -113.593474,37.126284,0
          -113.593474,37.126284,0
          -113.593407,37.126163,0
          -113.593407,37.126163,0
          -113.593339,37.126,0
          -113.593339,37.126,0
          -113.593284,37.125836,0
          -113.593284,37.125836,0
          -113.593289,37.125657,0
          -113.593289,37.125657,0
          -113.593279,37.125518,0
          -113.593279,37.125518,0
          -113.593262,37.125387,0
          -113.593262,37.125387,0
          -113.593234,37.125186,0
          -113.593234,37.125186,0
          -113.593222,37.12508,0
          -113.593222,37.12508,0
          -113.593227,37.125023,0
          -113.593227,37.125023,0
          -113.593185,37.12485,0
          -113.593185,37.12485,0
          -113.593187,37.124852,0
          -113.593187,37.124852,0
          -113.593251,37.124835,0
          -113.593251,37.124835,0
          -113.593309,37.124847,0
          -113.593309,37.124847,0
          -113.59335,37.124909,0
          -113.59335,37.124909,0
          -113.593385,37.12497,0
          -113.593385,37.12497,0
          -113.59342,37.125001,0
          -113.59342,37.125001,0
          -113.593497,37.125011,0
          -113.593497,37.125011,0
          -113.593561,37.124991,0
          -113.593561,37.124991,0
          -113.593679,37.125032,0
          -113.593679,37.125032,0
          -113.593795,37.125099,0
          -113.593795,37.125099,0
          -113.593885,37.125208,0
          -113.593885,37.125208,0
          -113.593963,37.125282,0
          -113.593963,37.125282,0
          -113.594067,37.125362,0
          -113.594067,37.125362,0
          -113.594081,37.125406,0
          -113.594081,37.125406,0
          -113.594038,37.125453,0
          -113.594038,37.125453,0
          -113.593982,37.125509,0
          -113.593982,37.125509,0
          -113.593967,37.125597,0
          -113.593967,37.125597,0
          -113.593988,37.12567,0
          -113.593988,37.12567,0
          -113.594047,37.125738,0
          -113.594047,37.125738,0
          -113.594293,37.125968,0
          -113.594293,37.125968,0
          -113.594766,37.126294,0
          -113.594766,37.126294,0
          -113.595028,37.126626,0
          -113.595028,37.126626,0
          -113.595334,37.126777,0
          -113.595334,37.126777,0
          -113.595903,37.12679,0
          -113.595903,37.12679,0
          -113.596139,37.126747,0
          -113.596139,37.126747,0
          -113.596681,37.126572,0
          -113.596681,37.126572,0
          -113.597029,37.126269,0
          -113.597029,37.126269,0
          -113.59726,37.126082,0
          -113.59726,37.126082,0
          -113.5974,37.125906,0
          -113.5974,37.125906,0
          -113.597442,37.125779,0
          -113.597442,37.125779,0
          -113.597464,37.125604,0
          -113.597464,37.125604,0
          -113.59748,37.125406,0
          -113.59748,37.125406,0
          -113.597528,37.125302,0
          -113.597528,37.125302,0
          -113.59763,37.125168,0
          -113.59763,37.125168,0
          -113.597759,37.125066,0
          -113.597759,37.125066,0
          -113.597952,37.124975,0
          -113.597952,37.124975,0
          -113.598075,37.124836,0
          -113.598075,37.124836,0
          -113.598097,37.124721,0
          -113.598097,37.124721,0
          -113.598093,37.124232,0
          -113.598093,37.124232,0
          -113.598119,37.123276,0
          -113.598119,37.123276,0
          -113.598093,37.12223,0
          -113.598093,37.12223,0
          -113.598052,37.122079,0
          -113.598052,37.122079,0
          -113.597892,37.121933,0
          -113.597892,37.121933,0
          -113.597637,37.121755,0
          -113.597637,37.121755,0
          -113.596632,37.121015,0
          -113.596632,37.121015,0
          -113.595506,37.120195,0
          -113.595506,37.120195,0
          -113.594268,37.119302,0
          -113.594268,37.119302,0
          -113.592861,37.118304,0
          -113.592861,37.118304,0
          -113.59161,37.117393,0
          -113.59161,37.117393,0
          -113.589941,37.116184,0
          -113.589941,37.116184,0
          -113.58826,37.114954,0
          -113.58826,37.114954,0
          -113.58739,37.114333,0
          -113.58739,37.114333,0
          -113.586603,37.113758,0
          -113.586603,37.113758,0
          -113.58578,37.113174,0
          -113.58578,37.113174,0
          -113.58541,37.112908,0
          -113.58541,37.112908,0
          -113.584417,37.11221,0
          -113.584417,37.11221,0
          -113.583712,37.111741,0
          -113.583712,37.111741,0
          -113.583613,37.111687,0
          -113.583613,37.111687,0
          -113.58355,37.111658,0
          -113.58355,37.111658,0
          -113.583494,37.11166,0
          -113.583494,37.11166,0
          -113.583408,37.111664,0
          -113.583408,37.111664,0
          -113.583294,37.111681,0
          -113.583294,37.111681,0
          -113.583199,37.111661,0
          -113.583199,37.111661,0
          -113.583165,37.111602,0
          -113.583165,37.111602,0
          -113.583149,37.111531,0
          -113.583149,37.111531,0
          -113.583189,37.111481,0
          -113.583189,37.111481,0
          -113.583222,37.111431,0
          -113.583222,37.111431,0
          -113.583244,37.111365,0
          -113.583244,37.111365,0
          -113.583244,37.111189,0
          -113.583244,37.111189,0
          -113.583244,37.110639,0
          -113.583244,37.110639,0
          -113.58325,37.109984,0
          -113.58325,37.109984,0
          -113.583257,37.109373,0
          -113.583257,37.109373,0
          -113.583257,37.109267,0
          -113.583257,37.109267,0
          -113.583266,37.108565,0
          -113.583266,37.108565,0
          -113.583273,37.108434,0
          -113.583273,37.108434,0
          -113.583255,37.10834,0
          -113.583255,37.10834,0
          -113.583195,37.108261,0
          -113.583195,37.108261,0
          -113.583136,37.108243,0
          -113.583136,37.108243,0
          -113.582991,37.108231,0
          -113.582991,37.108231,0
          -113.582567,37.108223,0
          -113.582567,37.108223,0
          -113.581492,37.108217,0
          -113.581492,37.108217,0
          -113.579062,37.108198,0
          -113.579062,37.108198,0
          -113.579054,37.107777,0
          -113.579054,37.107777,0
          -113.579062,37.10484,0
          -113.579062,37.10484,0
          -113.579002,37.104843,0
          -113.579002,37.104843,0
          -113.578495,37.104816,0
          -113.578495,37.104816,0
          -113.577867,37.104807,0
          -113.577867,37.104807,0
          -113.577426,37.104803,0
          -113.577426,37.104803,0
          -113.576981,37.104876,0
          -113.576981,37.104876,0
          -113.576531,37.104933,0
          -113.576531,37.104933,0
          -113.576155,37.104948,0
          -113.576155,37.104948,0
          -113.575801,37.104975,0
          -113.575801,37.104975,0
          -113.575779,37.104616,0
          -113.575779,37.104616,0
          -113.575673,37.10448,0
          -113.575673,37.10448,0
          -113.575426,37.104472,0
          -113.575426,37.104472,0
          -113.575319,37.104292,0
          -113.575319,37.104292,0
          -113.575201,37.104087,0
          -113.575201,37.104087,0
          -113.575072,37.10395,0
          -113.575072,37.10395,0
          -113.575018,37.103693,0
          -113.575018,37.103693,0
          -113.575018,37.103428,0
          -113.575018,37.103428,0
          -113.575029,37.103296,0
          -113.575029,37.103296,0
          -113.575179,37.10323,0
          -113.575179,37.10323,0
          -113.576451,37.103302,0
          -113.576451,37.103302,0
          -113.576681,37.10338,0
          -113.576681,37.10338,0
          -113.576756,37.103748,0
          -113.576756,37.103748,0
          -113.576735,37.104536,0
          -113.576735,37.104536,0
          -113.576864,37.104655,0
          -113.576864,37.104655,0
          -113.577153,37.104752,0
          -113.577153,37.104752,0
          -113.577706,37.104734,0
          -113.577706,37.104734,0
          -113.578645,37.104752,0
          -113.578645,37.104752,0
          -113.579052,37.104734,0
          -113.579052,37.104734,0
          -113.579109,37.104752,0
          -113.579109,37.104752,0
          -113.579095,37.105413,0
          -113.579095,37.105413,0
          -113.579098,37.106413,0
          -113.579098,37.106413,0
          -113.579092,37.107624,0
          -113.579092,37.107624,0
          -113.579106,37.108151,0
          -113.579106,37.108151,0
          -113.57931,37.108154,0
          -113.57931,37.108154,0
          -113.582064,37.108172,0
          -113.582064,37.108172,0
          -113.583126,37.108175,0
          -113.583126,37.108175,0
          -113.583185,37.108124,0
          -113.583185,37.108124,0
          -113.583265,37.108072,0
          -113.583265,37.108072,0
          -113.583354,37.108072,0
          -113.583354,37.108072,0
          -113.583424,37.108109,0
          -113.583424,37.108109,0
          -113.583442,37.108163,0
          -113.583442,37.108163,0
          -113.583422,37.108202,0
          -113.583422,37.108202,0
          -113.583381,37.108251,0
          -113.583381,37.108251,0
          -113.583343,37.108289,0
          -113.583343,37.108289,0
          -113.583301,37.108334,0
          -113.583301,37.108334,0
          -113.583307,37.108378,0
          -113.583307,37.108378,0
          -113.583304,37.108575,0
          -113.583304,37.108575,0
          -113.583297,37.108781,0
          -113.583297,37.108781,0
          -113.583285,37.109272,0
          -113.583285,37.109272,0
          -113.583277,37.109671,0
          -113.583277,37.109671,0
          -113.583273,37.110093,0
          -113.583273,37.110093,0
          -113.583272,37.110432,0
          -113.583272,37.110432,0
          -113.583257,37.110972,0
          -113.583257,37.110972,0
          -113.583265,37.111327,0
          -113.583265,37.111327,0
          -113.583249,37.111447,0
          -113.583249,37.111447,0
          -113.583183,37.111542,0
          -113.583183,37.111542,0
          -113.583227,37.111633,0
          -113.583227,37.111633,0
          -113.583292,37.111651,0
          -113.583292,37.111651,0
          -113.583388,37.111621,0
          -113.583388,37.111621,0
          -113.583461,37.111625,0
          -113.583461,37.111625,0
          -113.583537,37.111634,0
          -113.583537,37.111634,0
          -113.5836,37.111656,0
          -113.5836,37.111656,0
          -113.583691,37.111687,0
          -113.583691,37.111687,0
          -113.583825,37.111775,0
          -113.583825,37.111775,0
          -113.584258,37.112076,0
          -113.584258,37.112076,0
          -113.584628,37.112328,0
          -113.584628,37.112328,0
          -113.585622,37.113038,0
          -113.585622,37.113038,0
          -113.586989,37.11402,0
          -113.586989,37.11402,0
          -113.587498,37.11438,0
          -113.587498,37.11438,0
          -113.588769,37.115297,0
          -113.588769,37.115297,0
          -113.590868,37.116819,0
          -113.590868,37.116819,0
          -113.591627,37.117366,0
          -113.591627,37.117366,0
          -113.595172,37.119912,0
          -113.595172,37.119912,0
          -113.595534,37.12016,0
          -113.595534,37.12016,0
          -113.597989,37.121958,0
          -113.597989,37.121958,0
          -113.599043,37.12285,0
          -113.599043,37.12285,0
          -113.599287,37.122983,0
          -113.599287,37.122983,0
          -113.59941,37.123071,0
          -113.59941,37.123071,0
          -113.599526,37.123162,0
          -113.599526,37.123162,0
          -113.599668,37.123319,0
          -113.599668,37.123319,0
          -113.599845,37.123815,0
          -113.599845,37.123815,0
          -113.601109,37.126513,0
          -113.601109,37.126513,0
          -113.601895,37.128129,0
          -113.601895,37.128129,0
          -113.602098,37.128701,0
          -113.602098,37.128701,0
          -113.602098,37.128697,0
          -113.602098,37.128697,0
          -113.601968,37.128732,0
          -113.601968,37.128732,0
          -113.601603,37.128732,0
          -113.601603,37.128732,0
          -113.601029,37.128708,0
          -113.601029,37.128708,0
          -113.600815,37.128732,0
          -113.600815,37.128732,0
          -113.600739,37.128731,0
          -113.600739,37.128731,0
          -113.600489,37.12878,0
          -113.600489,37.12878,0
          -113.600304,37.128807,0
          -113.600304,37.128807,0
          -113.600052,37.128786,0
          -113.600052,37.128786,0
          -113.599631,37.128736,0
          -113.599631,37.128736,0
          -113.599365,37.128713,0
          -113.599365,37.128713,0
          -113.599072,37.12874,0
          -113.599072,37.12874,0
          -113.598802,37.12876,0
          -113.598802,37.12876,0
          -113.598303,37.12874,0
          -113.598303,37.12874,0
          -113.597942,37.12866,0
          -113.597942,37.12866,0
          -113.597738,37.128621,0
          -113.597738,37.128621,0
          -113.597518,37.128595,0
          -113.597518,37.128595,0
          -113.597368,37.128636,0
          -113.597368,37.128636,0
          -113.59724,37.128669,0
          -113.59724,37.128669,0
          -113.597164,37.128686,0
          -113.597164,37.128686,0
          -113.597113,37.128657,0
          -113.597113,37.128657,0
          -113.596738,37.128489,0
          -113.596738,37.128489,0
          -113.596594,37.128457,0
          -113.596594,37.128457,0
          -113.596416,37.128471,0
          -113.596416,37.128471,0
          -113.596242,37.128535,0
          -113.596242,37.128535,0
          -113.596192,37.12858,0
          -113.596192,37.12858,0
          -113.596148,37.128556,0
          -113.596148,37.128556,0
          -113.596116,37.128506,0
          -113.596116,37.128506,0
          -113.596156,37.128448,0
          -113.596156,37.128448,0
          -113.59631,37.128392,0
          -113.59631,37.128392,0
          -113.596538,37.128349,0
          -113.596538,37.128349,0
          -113.5967,37.128352,0
          -113.5967,37.128352,0
          -113.59686,37.128395,0
          -113.59686,37.128395,0
          -113.597097,37.128488,0
          -113.597097,37.128488,0
          -113.597285,37.128538,0
          -113.597285,37.128538,0
          -113.597339,37.128535,0
          -113.597339,37.128535,0
          -113.597343,37.128493,0
          -113.597343,37.128493,0
          -113.597225,37.128379,0
          -113.597225,37.128379,0
          -113.59648,37.127788,0
          -113.59648,37.127788,0
          -113.596409,37.127757,0
          -113.596409,37.127757,0
          -113.596348,37.12775,0
          -113.596348,37.12775,0
          -113.596279,37.127735,0
          -113.596279,37.127735,0
          -113.596186,37.12773,0
          -113.596186,37.12773,0
          -113.596098,37.127738,0
          -113.596098,37.127738,0
          -113.59602,37.127757,0
          -113.59602,37.127757,0
          -113.595955,37.127791,0
          -113.595955,37.127791,0
          -113.595874,37.127822,0
          -113.595874,37.127822,0
          -113.59577,37.127854,0
          -113.59577,37.127854,0
          -113.59567,37.127877,0
          -113.59567,37.127877,0
          -113.595581,37.127897,0
          -113.595581,37.127897,0
          -113.595441,37.127943,0
          -113.595441,37.127943,0
          -113.59535,37.127991,0
          -113.59535,37.127991,0
          -113.595298,37.128017,0
          -113.595298,37.128017,0
          -113.594716,37.128467,0
          -113.594716,37.128467,0
          -113.594395,37.129119,0
          -113.594395,37.129119,0
          -113.594175,37.129116,0
          -113.594175,37.129116,0
          -113.593197,37.129252,0
          -113.593197,37.129252,0
          -113.592532,37.129458,0
          -113.592532,37.129458,0
          -113.592432,37.129446,0
          -113.592432,37.129446,0
          -113.592389,37.129345,0
          -113.592389,37.129345,0
          -113.592387,37.129218,0
          -113.592387,37.129218,0
          -113.592595,37.129015,0
          -113.592595,37.129015,0
          -113.592742,37.128906,0
          -113.592742,37.128906,0
          -113.592968,37.128856,0
          -113.592968,37.128856,0
          -113.593139,37.128795,0
          -113.593139,37.128795,0
          -113.59322,37.128721,0
          -113.59322,37.128721,0
          -113.593338,37.128309,0
          -113.593338,37.128309,0
          -113.593565,37.128098,0
          -113.593565,37.128098,0
          -113.593872,37.127909,0
          -113.593872,37.127909,0
          -113.594095,37.127643,0
          -113.594095,37.127643,0
          -113.594041,37.127364,0
          -113.594041,37.127364,0
          -113.593954,37.127183,0
          -113.593954,37.127183,0
          -113.593894,37.12701,0
          -113.593894,37.12701,0
          -113.593642,37.126537,0
          -113.593642,37.126537,0
          -113.593522,37.126376,0
          -113.593522,37.126376,0
          -113.593475,37.126283,0
          -113.593475,37.126283,0
          -113.593406,37.126163,0
          -113.593406,37.126163,0
          -113.593336,37.125998,0
          -113.593336,37.125998,0
          -113.593288,37.125836,0
          -113.593288,37.125836,0
          -113.593293,37.125658,0
          -113.593293,37.125658,0
          -113.59328,37.125519,0
          -113.59328,37.125519,0
          -113.593261,37.125389,0
          -113.593261,37.125389,0
          -113.593233,37.125188,0
          -113.593233,37.125188,0
          -113.593217,37.125082,0
          -113.593217,37.125082,0
          -113.593226,37.125023,0
          -113.593226,37.125023,0
          -113.593189,37.124854,0
          -113.593189,37.124854,0
          -113.593248,37.124836,0
          -113.593248,37.124836,0
          -113.593186,37.124856,0
          -113.593186,37.124856,0
          -113.593313,37.124846,0
          -113.593313,37.124846,0
          -113.593351,37.124908,0
          -113.593351,37.124908,0
          -113.593386,37.124967,0
          -113.593386,37.124967,0
          -113.593418,37.125002,0
          -113.593418,37.125002,0
          -113.593495,37.125008,0
          -113.593495,37.125008,0
          -113.59356,37.12499,0
          -113.59356,37.12499,0
          -113.593678,37.125036,0
          -113.593678,37.125036,0
          -113.593792,37.125102,0
          -113.593792,37.125102,0
          -113.593882,37.125209,0
          -113.593882,37.125209,0
          -113.593963,37.125282,0
          -113.593963,37.125282,0
          -113.594063,37.125364,0
          -113.594063,37.125364,0
          -113.594083,37.125405,0
          -113.594083,37.125405,0
          -113.594039,37.125451,0
          -113.594039,37.125451,0
          -113.593983,37.125512,0
          -113.593983,37.125512,0
          -113.593965,37.125603,0
          -113.593965,37.125603,0
          -113.593988,37.125672,0
          -113.593988,37.125672,0
          -113.594046,37.12574,0
          -113.594046,37.12574,0
          -113.594292,37.125969,0
          -113.594292,37.125969,0
          -113.594769,37.126298,0
          -113.594769,37.126298,0
          -113.595026,37.126626,0
          -113.595026,37.126626,0
          -113.595332,37.126772,0
          -113.595332,37.126772,0
          -113.595902,37.126788,0
          -113.595902,37.126788,0
          -113.596138,37.126749,0
          -113.596138,37.126749,0
          -113.59668,37.126571,0
          -113.59668,37.126571,0
          -113.59703,37.126271,0
          -113.59703,37.126271,0
          -113.59726,37.12608,0
          -113.59726,37.12608,0
          -113.597396,37.125908,0
          -113.597396,37.125908,0
          -113.59744,37.125778,0
          -113.59744,37.125778,0
          -113.597465,37.125602,0
          -113.597465,37.125602,0
          -113.597481,37.125406,0
          -113.597481,37.125406,0
          -113.59753,37.125301,0
          -113.59753,37.125301,0
          -113.597632,37.125168,0
          -113.597632,37.125168,0
          -113.597758,37.125061,0
          -113.597758,37.125061,0
          -113.597952,37.124973,0
          -113.597952,37.124973,0
          -113.598073,37.124837,0
          -113.598073,37.124837,0
          -113.598096,37.124718,0
          -113.598096,37.124718,0
          -113.598096,37.124234,0
          -113.598096,37.124234,0
          -113.598117,37.123274,0
          -113.598117,37.123274,0
          -113.598097,37.122228,0
          -113.598097,37.122228,0
          -113.598054,37.122077,0
          -113.598054,37.122077,0
          -113.597891,37.121935,0
          -113.597891,37.121935,0
          -113.597636,37.121759,0
          -113.597636,37.121759,0
          -113.596627,37.121021,0
          -113.596627,37.121021,0
          -113.595498,37.120202,0
          -113.595498,37.120202,0
          -113.594265,37.119294,0
          -113.594265,37.119294,0
          -113.592857,37.118308,0
          -113.592857,37.118308,0
          -113.591611,37.117387,0
          -113.591611,37.117387,0
          -113.589939,37.116186,0
          -113.589939,37.116186,0
          -113.588265,37.114957,0
          -113.588265,37.114957,0
          -113.587391,37.114337,0
          -113.587391,37.114337,0
          -113.585403,37.112914,0
          -113.585403,37.112914,0
          -113.584414,37.112212,0
          -113.584414,37.112212,0
          -113.583712,37.11174,0
          -113.583712,37.11174,0
          -113.583613,37.111689,0
          -113.583613,37.111689,0
          -113.583551,37.11166,0
          -113.583551,37.11166,0
          -113.583494,37.11166,0
          -113.583494,37.11166,0
          -113.58341,37.111666,0
          -113.58341,37.111666,0
          -113.583295,37.111684,0
          -113.583295,37.111684,0
          -113.583199,37.111663,0
          -113.583199,37.111663,0
          -113.583165,37.111604,0
          -113.583165,37.111604,0
          -113.583146,37.111531,0
          -113.583146,37.111531,0
          -113.583193,37.111481,0
          -113.583193,37.111481,0
          -113.583215,37.111435,0
          -113.583215,37.111435,0
          -113.58324,37.111366,0
          -113.58324,37.111366,0
          -113.583244,37.111201,0
          -113.583244,37.111201,0
          -113.583242,37.11064,0
          -113.583242,37.11064,0
          -113.583242,37.109982,0
          -113.583242,37.109982,0
          -113.583257,37.109375,0
          -113.583257,37.109375,0
          -113.583251,37.10927,0
          -113.583251,37.10927,0
          -113.583266,37.108561,0
          -113.583266,37.108561,0
          -113.583266,37.108432,0
          -113.583266,37.108432,0
          -113.583261,37.108338,0
          -113.583261,37.108338,0
          -113.583192,37.108264,0
          -113.583192,37.108264,0
          -113.583132,37.108244,0
          -113.583132,37.108244,0
          -113.582991,37.108234,0
          -113.582991,37.108234,0
          -113.582563,37.108226,0
          -113.582563,37.108226,0
          -113.58149,37.108219,0
          -113.58149,37.108219,0
          -113.57931,37.108202,0
          -113.57931,37.108202,0
          -113.579061,37.108198,0
          -113.579061,37.108198,0
          -113.579052,37.107776,0
          -113.579052,37.107776,0
          -113.579057,37.105465,0
          -113.579057,37.105465,0
          -113.57906,37.104842,0
          -113.57906,37.104842,0
          -113.578998,37.104848,0
          -113.578998,37.104848,0
          -113.578492,37.104815,0
          -113.578492,37.104815,0
          -113.577867,37.104799,0
          -113.577867,37.104799,0
          -113.577427,37.104803,0
          -113.577427,37.104803,0
          -113.576981,37.104872,0
          -113.576981,37.104872,0
          -113.576536,37.10493,0
          -113.576536,37.10493,0
          -113.576155,37.104948,0
          -113.576155,37.104948,0
          -113.575799,37.104975,0
          -113.575799,37.104975,0
          -113.575784,37.104623,0
          -113.575784,37.104623,0
          -113.575671,37.104478,0
          -113.575671,37.104478,0
          -113.575422,37.104466,0
          -113.575422,37.104466,0
          -113.575313,37.104292,0
          -113.575313,37.104292,0
          -113.575201,37.104086,0
          -113.575201,37.104086,0
          -113.575069,37.103956,0
          -113.575069,37.103956,0
          -113.575022,37.10369,0
          -113.575022,37.10369,0
          -113.575008,37.103427,0
          -113.575008,37.103427,0
          -113.575027,37.1033,0
          -113.575027,37.1033,0
          -113.575177,37.103228,0
          -113.575177,37.103228,0
          -113.576451,37.103294,0
          -113.576451,37.103294,0
          -113.576684,37.103382,0
          -113.576684,37.103382,0
          -113.57676,37.103757,0
          -113.57676,37.103757,0
          -113.576727,37.104537,0
          -113.576727,37.104537,0
          -113.576867,37.104662,0
          -113.576867,37.104662,0
          -113.577156,37.104746,0
          -113.577156,37.104746,0
          -113.5777,37.104737,0
          -113.5777,37.104737,0
          -113.57865,37.104755,0
          -113.57865,37.104755,0
          -113.579049,37.104731,0
          -113.579049,37.104731,0
          -113.579106,37.104749,0
          -113.579106,37.104749,0
          -113.579098,37.106416,0
          -113.579098,37.106416,0
          -113.579092,37.107628,0
          -113.579092,37.107628,0
          -113.579106,37.108151,0
          -113.579106,37.108151,0
          -113.579307,37.108148,0
          -113.579307,37.108148,0
          -113.58207,37.108172,0
          -113.58207,37.108172,0
          -113.583126,37.108172,0
          -113.583126,37.108172,0
          -113.583185,37.108121,0
          -113.583185,37.108121,0
          -113.583246,37.108051,0
          -113.583246,37.108051,0
          -113.58327,37.107994,0
          -113.58327,37.107994,0
          -113.583289,37.107867,0
          -113.583289,37.107867,0
          -113.583289,37.107708,0
          -113.583289,37.107708,0
          -113.583282,37.107192,0
        </coordinates>
      </LineString>
    </Placemark>
  </Document>
</kml>
