{"type":"Feature","properties":{"name":"MichiganState-8k","legacyMeetId":"8189","distance":"8k"},"geometry":{"type":"LineString","coordinates":[[-84.49064182395446,42.70951564866159],[-84.48903155960812,42.70695229311966],[-84.4886268979761,42.70587663370277],[-84.48847788974432,42.70534761502346],[-84.48843755197038,42.70517980128126],[-84.48832262806015,42.70508379718984],[-84.48822788420051,42.70506617312142],[-84.4880589709695,42.70506337506599],[-84.48776302774282,42.70506138611518],[-84.4875195434378,42.70510049242451],[-84.48750006225048,42.7051007866588],[-84.48729230181404,42.70512680552567],[-84.4871159558912,42.70518667780403],[-84.48703668557178,42.70527631056749],[-84.48699360335233,42.70536142959745],[-84.48696121748462,42.70552542634034],[-84.48696396030934,42.70554627144988],[-84.48696196965003,42.70555347433135],[-84.48697969775357,42.70568754165764],[-84.48697566587812,42.70570262783463],[-84.48688293335877,42.70592933098175],[-84.48687364724067,42.70594634289414],[-84.48686152390087,42.70597263076557],[-84.48668892152968,42.70628516642488],[-84.4865838349259,42.7065020412093],[-84.48641428628784,42.7068231976914],[-84.48633874898977,42.70725399615754],[-84.48636532321443,42.70763834806698],[-84.48650589082195,42.70823970363912],[-84.48655310852214,42.70854427671657],[-84.48652447045644,42.70874959797807],[-84.48632093337552,42.70895325218234],[-84.48602161818636,42.70861256899999],[-84.48603167698454,42.70816837245082],[-84.4860770412266,42.70717296431375],[-84.48616849483017,42.70616682474018],[-84.48613508531722,42.70555268730287],[-84.48605013196726,42.70548426666089],[-84.48585715964975,42.70550131100008],[-84.48563945806174,42.70558197248982],[-84.48549001098394,42.70571925938765],[-84.48531425402382,42.70584836056016],[-84.4850133013178,42.70593043384847],[-84.48461372455509,42.70592828607207],[-84.48441941030552,42.70595629334138],[-84.48430397334559,42.70606276413231],[-84.48426751196146,42.70618980965656],[-84.48428562254156,42.70657991319089],[-84.48431257738396,42.7069530821551],[-84.48441057927239,42.70733485298165],[-84.48463063799356,42.7076973058976],[-84.48481232044202,42.70791143656854],[-84.48518570156695,42.7079930297071],[-84.48532107670559,42.70788237736075],[-84.48543443059732,42.70765675613995],[-84.48560258118407,42.70736806955325],[-84.48570005499482,42.70737719675177],[-84.48577343192909,42.70744661728783],[-84.48587439458018,42.70774455665756],[-84.48587762022252,42.70790895134234],[-84.48578889639435,42.70828696175638],[-84.4853768781027,42.70907745524269],[-84.48495778341696,42.70981085268708],[-84.4847832328305,42.71025513871999],[-84.48486866926027,42.71045385433888],[-84.48544473494782,42.7107166289936],[-84.48588741002246,42.71086365049155],[-84.48635877356722,42.71075599951654],[-84.4868661812704,42.71063071977726],[-84.48733154574121,42.71037026460233],[-84.48774873526162,42.7099648332692],[-84.48769584521177,42.70961221666889],[-84.48743303959651,42.70934954563796],[-84.48735906505381,42.70906354811212],[-84.48733801166563,42.70856345915513],[-84.48736005453549,42.70764811531207],[-84.48737057395209,42.70723512997161],[-84.48757948820477,42.70710619534609],[-84.48797724433993,42.70684898954176],[-84.4883471967338,42.7066532546156],[-84.48853679333538,42.70655475577331],[-84.48861593208026,42.70653373999568],[-84.48874522888124,42.70657378197345],[-84.48873905696732,42.70687145929659],[-84.48865321390848,42.70718312524668],[-84.48863718292905,42.70742753603366],[-84.48864497775529,42.70745123637428],[-84.488797573252,42.707647401438],[-84.48900966251709,42.70778615329098],[-84.48927634033481,42.7078779627547],[-84.4894907197693,42.70808490743106],[-84.4895227253716,42.70818073873712],[-84.48954419514698,42.70858725448633],[-84.48939749510124,42.70877218367842],[-84.48915781863816,42.7090256676005],[-84.48913003342706,42.70920465839617],[-84.48922389608035,42.70945171745726],[-84.48979459609663,42.70963732373956],[-84.49022792357917,42.70993876928571],[-84.49062840627069,42.71021836282893],[-84.49067354307893,42.71032974617989],[-84.49071977671237,42.71063550345432],[-84.49070610700034,42.71107074552972],[-84.49078647164413,42.71127150465772],[-84.49114497064619,42.71146333882822],[-84.4917001030151,42.7115238111459],[-84.49198787863884,42.71145169388421],[-84.49225264521277,42.71130102800555],[-84.49237142229988,42.71111508783656],[-84.49236559045136,42.71091962373832],[-84.49218193535914,42.71070004791661],[-84.49206192240445,42.71049510058339],[-84.49173385723446,42.70969101436214],[-84.49149127066515,42.70940120040223],[-84.4911430616855,42.70913843872945],[-84.49053173391351,42.70872841098061],[-84.48998697436912,42.70818082879156],[-84.48923700363261,42.70699192221869],[-84.48881393775396,42.70618740151943],[-84.48846724032305,42.70527893971615],[-84.4883685385904,42.70511565481156],[-84.48826842859663,42.70506862644548],[-84.48815714476179,42.70506466337903],[-84.48787341568314,42.70506232964114],[-84.48762756809306,42.70506679615568],[-84.48740589937337,42.70510124679325],[-84.48719098364757,42.70515705998627],[-84.48707616969754,42.70523465910082],[-84.48700263455983,42.7053155256685],[-84.48697682504665,42.70545579612984],[-84.48698175944057,42.70564564289322],[-84.48691807987164,42.70583846233032],[-84.48672551311816,42.70618700004344],[-84.48661421889446,42.70641840173271],[-84.48645192156057,42.70671623309693],[-84.48635472783239,42.70706138161553],[-84.48635516983593,42.70748130332731],[-84.48641872443183,42.70798282841118],[-84.48642027737966,42.70800998680357],[-84.48654218593596,42.70846839695837],[-84.48654978916554,42.70868783363522],[-84.4863768441429,42.70890560522228],[-84.48602823373318,42.70862866229194],[-84.48601347278212,42.7084183006645],[-84.4860477264747,42.70794188758097],[-84.48610145783329,42.70700421920314],[-84.48615699078722,42.70627862305966],[-84.48615895158521,42.70599380743714],[-84.486101711051,42.70552675969227],[-84.4859616199635,42.70549826815868],[-84.48571327172723,42.70555290862804],[-84.48556539940924,42.70566336338426],[-84.4853824062579,42.70580681809086],[-84.48517034697036,42.70589854424738],[-84.48469482223693,42.70592426476163],[-84.48449792245117,42.70594020803262],[-84.48434841699357,42.70600093462854],[-84.4842907302947,42.70613419158047],[-84.48428410548124,42.70627711692613],[-84.48431306837153,42.70680709376592],[-84.4843678049288,42.70717383517592],[-84.48451712860415,42.70750712672807],[-84.48474427766772,42.7078478795019],[-84.48520690481287,42.70797946756078],[-84.48537680303177,42.70778425023354],[-84.48547691485534,42.70754355372502],[-84.48564620305413,42.70737795905717],[-84.48579632608104,42.70748734346432],[-84.48584704056336,42.70799634874866],[-84.48571060880279,42.70839727983476],[-84.48526384566945,42.70924461283441],[-84.48498325066814,42.70972425373891],[-84.48479182213991,42.7103818217077],[-84.48510357914033,42.71057504955303],[-84.48559163886463,42.71077475576678],[-84.48607899822085,42.71085399805322],[-84.4865964295709,42.7106433114502],[-84.48714357535621,42.71047011930861],[-84.48772007318166,42.71004224522822],[-84.4877358221521,42.70976168976787],[-84.48758325934055,42.70946733389849],[-84.48736426082198,42.70924829673854],[-84.48732234007277,42.7088885519257],[-84.48734815683103,42.7082306353818],[-84.48736065604483,42.70753214388979],[-84.48740965440224,42.70718928388533],[-84.48770462445223,42.70704897874949],[-84.48820027247599,42.70672097406396],[-84.48846272871697,42.70658477472967],[-84.48868128179419,42.7065217990489],[-84.48876161057143,42.70669911935283],[-84.48873146689105,42.70701426052561],[-84.48865366059782,42.70728383708357],[-84.48870068497632,42.70751751393275],[-84.48894117255838,42.70773243891485],[-84.48917055350496,42.70785044796135],[-84.48952398275657,42.70816830992189],[-84.48950397544169,42.708179133283],[-84.4894696181138,42.708721441852],[-84.48921313644608,42.70887615348306],[-84.489128417286,42.70909377839543],[-84.4891833059529,42.70935030612808],[-84.48940907563616,42.70952421261667],[-84.48999005074289,42.70972828841815],[-84.49049904545954,42.71016137620903],[-84.4906516684319,42.71032571059389],[-84.49070110232208,42.71071170978875],[-84.49074253800977,42.71119032272738],[-84.49092276437234,42.71137049573337],[-84.49137351590484,42.71154141428706],[-84.49182330676483,42.71153371938887],[-84.49234235238987,42.71126570256217],[-84.49272359275957,42.71063380583227],[-84.4923134113003,42.70931564411855]]}}
