{"type":"Feature","properties":{"name":"MichiganState-6k","legacyMeetId":"8189","distance":"6k"},"geometry":{"type":"LineString","coordinates":[[-84.49064182395446,42.70951564866159],[-84.48903155960812,42.70695229311966],[-84.4886268979761,42.70587663370277],[-84.48847788974432,42.70534761502346],[-84.48843755197038,42.70517980128126],[-84.48832262806015,42.70508379718984],[-84.48822788420051,42.70506617312142],[-84.4880589709695,42.70506337506599],[-84.48776302774282,42.70506138611518],[-84.4875195434378,42.70510049242451],[-84.48750006225048,42.7051007866588],[-84.48729230181404,42.70512680552567],[-84.4871159558912,42.70518667780403],[-84.48703668557178,42.70527631056749],[-84.48699360335233,42.70536142959745],[-84.48696121748462,42.70552542634034],[-84.48696396030934,42.70554627144988],[-84.48696196965003,42.70555347433135],[-84.48697969775357,42.70568754165764],[-84.48697566587812,42.70570262783463],[-84.48688293335877,42.70592933098175],[-84.48687364724067,42.70594634289414],[-84.48686152390087,42.70597263076557],[-84.48668892152968,42.70628516642488],[-84.4865838349259,42.7065020412093],[-84.48641428628784,42.7068231976914],[-84.48633874898977,42.70725399615754],[-84.48636532321443,42.70763834806698],[-84.48650589082195,42.70823970363912],[-84.48655310852214,42.70854427671657],[-84.48652447045644,42.70874959797807],[-84.48632093337552,42.70895325218234],[-84.48602161818636,42.70861256899999],[-84.48603167698454,42.70816837245082],[-84.4860770412266,42.70717296431375],[-84.48616849483017,42.70616682474018],[-84.48613508531722,42.70555268730287],[-84.48605013196726,42.70548426666089],[-84.48585715964975,42.70550131100008],[-84.48563945806174,42.70558197248982],[-84.48549001098394,42.70571925938765],[-84.48531425402382,42.70584836056016],[-84.4850133013178,42.70593043384847],[-84.48461372455509,42.70592828607207],[-84.48441941030552,42.70595629334138],[-84.48430397334559,42.70606276413231],[-84.48426751196146,42.70618980965656],[-84.48428562254156,42.70657991319089],[-84.48431257738396,42.7069530821551],[-84.48441057927239,42.70733485298165],[-84.48463063799356,42.7076973058976],[-84.48481232044202,42.70791143656854],[-84.48518570156695,42.7079930297071],[-84.48532107670559,42.70788237736075],[-84.48543443059732,42.70765675613995],[-84.48560258118407,42.70736806955325],[-84.48570005499482,42.70737719675177],[-84.48577343192909,42.70744661728783],[-84.48587439458018,42.70774455665756],[-84.48587762022252,42.70790895134234],[-84.48578889639435,42.70828696175638],[-84.4853768781027,42.70907745524269],[-84.48495778341696,42.70981085268708],[-84.4847832328305,42.71025513871999],[-84.48486866926027,42.71045385433888],[-84.48544473494782,42.7107166289936],[-84.48588741002246,42.71086365049155],[-84.48635877356722,42.71075599951654],[-84.4868661812704,42.71063071977726],[-84.48733154574121,42.71037026460233],[-84.48774873526162,42.7099648332692],[-84.48769584521177,42.70961221666889],[-84.48743303959651,42.70934954563796],[-84.48735906505381,42.70906354811212],[-84.48733801166563,42.70856345915513],[-84.48736005453549,42.70764811531207],[-84.48737057395209,42.70723512997161],[-84.48757948820477,42.70710619534609],[-84.48797724433993,42.70684898954176],[-84.4883471967338,42.7066532546156],[-84.48853679333538,42.70655475577331],[-84.48861593208026,42.70653373999568],[-84.48874522888124,42.70657378197345],[-84.48873905696732,42.70687145929659],[-84.48865321390848,42.70718312524668],[-84.48863718292905,42.70742753603366],[-84.48864497775529,42.70745123637428],[-84.488797573252,42.707647401438],[-84.48900966251709,42.70778615329098],[-84.48927634033481,42.7078779627547],[-84.4894907197693,42.70808490743106],[-84.4895227253716,42.70818073873712],[-84.48954419514698,42.70858725448633],[-84.48939749510124,42.70877218367842],[-84.48915781863816,42.7090256676005],[-84.48913003342706,42.70920465839617],[-84.48922389608035,42.70945171745726],[-84.48979459609663,42.70963732373956],[-84.49022792357917,42.70993876928571],[-84.49062840627069,42.71021836282893],[-84.49067354307893,42.71032974617989],[-84.49071977671237,42.71063550345432],[-84.49070610700034,42.71107074552972],[-84.49078647164413,42.71127150465772],[-84.49114497064619,42.71146333882822],[-84.4917001030151,42.7115238111459],[-84.49198787863884,42.71145169388421],[-84.49225264521277,42.71130102800555],[-84.49237142229988,42.71111508783656],[-84.49236559045136,42.71091962373832],[-84.49218193535914,42.71070004791661],[-84.49206192240445,42.71049510058339],[-84.49173385723446,42.70969101436214],[-84.49149127066515,42.70940120040223],[-84.49109556285615,42.70911244048673],[-84.49065725112754,42.70879744721879],[-84.4901081066344,42.70832208134546],[-84.48982092833884,42.70792089927589],[-84.48947494843982,42.70741098754181],[-84.48902819420233,42.70659958062744],[-84.4888656687751,42.70631758708192],[-84.48847922473901,42.7052792575819],[-84.48838991390508,42.70513699651306],[-84.48828481304378,42.70508103004342],[-84.48816079604617,42.70506164787101],[-84.48795797856171,42.7050700481385],[-84.48766206624357,42.70507210865237],[-84.48739362699031,42.70511079177523],[-84.48718312226657,42.70515724812494],[-84.48707948203496,42.70524072274686],[-84.48701342268977,42.70532544851305],[-84.4869662442108,42.7054422922463],[-84.48696843870167,42.7056188803766],[-84.4869640786836,42.70575158510037],[-84.4868103619834,42.7060684415262],[-84.48662014704037,42.70638393452079],[-84.48658457197558,42.70659985231783],[-84.48663200954363,42.70678304207099],[-84.4868500344164,42.70696730859511],[-84.4871892635573,42.70712649596128],[-84.48745228402363,42.70717224837884],[-84.48779208980604,42.70696030764498],[-84.48821032058966,42.70672539401748],[-84.48857867691736,42.70654350466415],[-84.48870384381262,42.70655008614304],[-84.4887576822662,42.7066688766734],[-84.48871543665004,42.70696529874171],[-84.4886425001863,42.70727800461873],[-84.48867429712882,42.70752463863147],[-84.48891737363066,42.70772048540994],[-84.48918858124891,42.70782288379649],[-84.48945014718795,42.70808498658656],[-84.4895109268165,42.70832548492595],[-84.48945735835045,42.70872207400428],[-84.48919944886485,42.70895795056632],[-84.48911779653893,42.70911109105307],[-84.48915578034264,42.70933924375143],[-84.48930562567398,42.70951357988713],[-84.4899511398204,42.70973918210781],[-84.49050612015981,42.71016117752997],[-84.49063901243665,42.7103076631253],[-84.4906846656432,42.71082784493442],[-84.49072691815276,42.71119031990685],[-84.49092606679082,42.71138344039718],[-84.49134182309861,42.71154253861355],[-84.49186266917683,42.71153193908955],[-84.49230396631994,42.71128993096478],[-84.49270844530353,42.71063340398278],[-84.49228170955865,42.70927278597951]]}}
