{"type":"Feature","properties":{"name":"MountainWest2025-8k","legacyMeetId":"8244","distance":"8k"},"geometry":{"type":"LineString","coordinates":[[-119.7858884334554,36.86539780081523],[-119.7873649460613,36.86416287286799],[-119.7876678518961,36.86356426229887],[-119.7877609642748,36.86309154904188],[-119.7879356328133,36.862859985705],[-119.788152620564,36.86254472103334],[-119.7886211677305,36.86183620907762],[-119.7886972109315,36.86157436218608],[-119.7887983068612,36.86150225028591],[-119.7890752059891,36.86144697963208],[-119.7893501310809,36.86145730727134],[-119.7895468044954,36.8615117973652],[-119.7897556312173,36.86154155734722],[-119.790083028589,36.86157441231957],[-119.7903839520208,36.86163927351117],[-119.7906155156096,36.86184532547067],[-119.790725744688,36.86202026564916],[-119.7908658413308,36.86229980102246],[-119.7909949816352,36.86266208539436],[-119.7910085503972,36.86290782730109],[-119.7910281604898,36.86398418442049],[-119.7910725433937,36.8653047606818],[-119.7911006235641,36.86592435614464],[-119.7910723132003,36.86617280712682],[-119.79061859705,36.86600755312062],[-119.7898525776112,36.86576560114862],[-119.7895078598091,36.86552084662225],[-119.7892469316957,36.86541184471933],[-119.7890162213744,36.86549788806577],[-119.7887054992576,36.86566278119044],[-119.7879117235064,36.86585251717672],[-119.7873819583772,36.86590693918933],[-119.7870859564322,36.86604921871866],[-119.7866891092681,36.86638197223728],[-119.786532723964,36.86667214274514],[-119.7864857248501,36.86691706455175],[-119.7864125819489,36.86730118184792],[-119.7862114646155,36.86747257888522],[-119.7858709439205,36.86753309317695],[-119.7855506629325,36.86757249943503],[-119.785272371403,36.86763138045475],[-119.7849650509997,36.86761987474047],[-119.7846358445651,36.86760505305019],[-119.7844623088987,36.86740040809001],[-119.7844546828498,36.86719722698795],[-119.7843268983725,36.86705358634351],[-119.784233303609,36.86682166440428],[-119.7841486630627,36.86660676349388],[-119.7839591077462,36.86654548799797],[-119.7838055012701,36.86651957273865],[-119.783471090006,36.866579839236],[-119.7832401689893,36.86669567454073],[-119.7831457529226,36.86685005282899],[-119.7830949468633,36.86722016082152],[-119.7829767727951,36.86754694119087],[-119.7829717712125,36.86756847643676],[-119.7826363102843,36.86779263228598],[-119.7824046433762,36.86790044494062],[-119.7821687041819,36.86802704424182],[-119.7818708357453,36.86830425001006],[-119.7817689077207,36.86911423141327],[-119.7820162099079,36.8692975575922],[-119.782187812222,36.86932432627741],[-119.7827258099154,36.86947342602475],[-119.7829956344508,36.87010641819002],[-119.7833792833103,36.8706766418986],[-119.7838063715886,36.87097758365847],[-119.7842913141731,36.87096190088949],[-119.7846816476659,36.87066765944959],[-119.785014227339,36.87070078511363],[-119.785510292076,36.87074486657336],[-119.786021320449,36.87071637746578],[-119.7861151009202,36.87064538417043],[-119.7860395276034,36.870371908252],[-119.786037399061,36.87002485638865],[-119.7858645273131,36.86971780159916],[-119.7858043446841,36.86944952537873],[-119.7858140077428,36.86922743114167],[-119.786011264054,36.86879326084942],[-119.7862648236248,36.86823401433397],[-119.7863336280718,36.86754572874526],[-119.7864479155314,36.86711517955901],[-119.7865119737955,36.8667639183003],[-119.786620540469,36.86649347523335],[-119.7868134278066,36.86625673556748],[-119.7871811346306,36.86599919127464],[-119.7875028210473,36.86589155597917],[-119.7880038294539,36.8658374304322],[-119.7887569026104,36.86563880635229],[-119.7890891039277,36.86545951711526],[-119.789295056265,36.86541633270389],[-119.7896223420192,36.86559551319984],[-119.7899447688677,36.86578782524111],[-119.7905385301069,36.8659729963212],[-119.790933648898,36.86612042483363],[-119.7911849892898,36.8662298690016],[-119.7911953174564,36.86643628988995],[-119.7912135991852,36.86670938741683],[-119.7912479009193,36.86688468113379],[-119.7912476398841,36.86690747573086],[-119.7911978731816,36.86720731368614],[-119.791165155181,36.86747476829005],[-119.7911302417867,36.86779225171018],[-119.7911649476389,36.86849769811612],[-119.7911119664111,36.86927359555158],[-119.7910231310693,36.86944375654053],[-119.7907115155212,36.86960455058511],[-119.7904286974604,36.86969278272738],[-119.7899384571687,36.86965345620789],[-119.7896462912658,36.86957884886577],[-119.7894146150804,36.86972615813844],[-119.7895546920781,36.86982630882579],[-119.7899603861132,36.86994088244607],[-119.7903430519953,36.8699699447701],[-119.7907112805927,36.8698471849097],[-119.7909527738453,36.86975998706654],[-119.7910114058269,36.86989571272943],[-119.7908980378728,36.87013591823483],[-119.7907191889344,36.87031594351728],[-119.7901709001181,36.87047911693102],[-119.7895754512508,36.87051419680698],[-119.7890996029293,36.87051970510556],[-119.7888269976307,36.87049113098819],[-119.7884449103345,36.87044483032199],[-119.788286134606,36.87078545773324],[-119.7875035328427,36.87116442488495],[-119.7870289278676,36.87123547418995],[-119.7867993173529,36.8713854561574],[-119.7859596040075,36.87108829746779],[-119.7854341665199,36.87087721587301],[-119.7852077319006,36.87072768359006],[-119.7848010898007,36.87067338839843],[-119.784525697207,36.87075333188602],[-119.7842161733216,36.87101892850362],[-119.7839866404738,36.87106241017469],[-119.7837177102213,36.87097295264137],[-119.7834698679598,36.8707478297834],[-119.7831519896551,36.87037976767335],[-119.7828763942742,36.86982090532906],[-119.7826258337666,36.86940056556821],[-119.7820755303586,36.86933631105098],[-119.7817503146498,36.86907480281579],[-119.7818258476262,36.86841864116267],[-119.7819803080112,36.86816706686483],[-119.7824325468909,36.86788075828277],[-119.7825824030145,36.86780417702751],[-119.7829241990765,36.86760418109127],[-119.7830502937188,36.86743797633947],[-119.7830807186603,36.86729700518016],[-119.7831351891107,36.86708325598959],[-119.7831761044693,36.86678711876796],[-119.7833616360672,36.86663114214639],[-119.7836304626606,36.86654061678247],[-119.7838856459986,36.86652519105641],[-119.7840873092028,36.86658264388845],[-119.7842087659391,36.86672254483445],[-119.7842818816938,36.86694035148486],[-119.784383762394,36.86713848966829],[-119.784494070094,36.8672962098378],[-119.7845241414827,36.86742972180475],[-119.7845956778853,36.86757485830672],[-119.7847333087683,36.86761193691331],[-119.7851546045873,36.86762058245278],[-119.7854323079237,36.86760849114138],[-119.7857150069714,36.8675521130507],[-119.7860555051195,36.86749301863063],[-119.7863126698282,36.86740446024733],[-119.7864117830383,36.86722841200901],[-119.7864690327088,36.86700696111836],[-119.7865635324249,36.8665881360927],[-119.7867703673562,36.86631635512408],[-119.7871028348796,36.8660424097368],[-119.7872792992516,36.86596132321594],[-119.7874380452048,36.86590756695209],[-119.7878217044898,36.86586085368042],[-119.7880263389453,36.86584056519456],[-119.7887972136371,36.86562785269177],[-119.7890587216429,36.86546682031621],[-119.7892007428587,36.8654252832454],[-119.789388132125,36.86546583992523],[-119.7896928266331,36.86564271192525],[-119.790020513807,36.86581825786664],[-119.7904359429542,36.86593979903345],[-119.7908636116592,36.86610001076838],[-119.7911203573175,36.86614836960807],[-119.7910739180591,36.86599652006348],[-119.7910679937339,36.86536416427951],[-119.791019113093,36.86403805061367],[-119.7910164825,36.86294777169857],[-119.7909966357672,36.86270898670993],[-119.7908950589233,36.86234382810631],[-119.7907574092834,36.86206406244525],[-119.7906428748307,36.8618845625834],[-119.7904240702176,36.86165846284182],[-119.7901254343827,36.86157807733817],[-119.7897655703485,36.86152860892906],[-119.7895908057474,36.86150874432791],[-119.78934895574,36.86145045183673],[-119.7891142992819,36.86144464848547],[-119.788838087179,36.86149151617801],[-119.7887060703743,36.86152452137418],[-119.7886283556132,36.86179012060502],[-119.7881862361449,36.86252041724996],[-119.7878456035659,36.86296860553565],[-119.7876952581481,36.86339410699135],[-119.7874476396325,36.86397822138305],[-119.7866635437165,36.86540623036173]]}}
