{"type":"Feature","properties":{"name":"MountainWest2025-6k","legacyMeetId":"8244","distance":"6k"},"geometry":{"type":"LineString","coordinates":[[-119.7858884334554,36.86539780081523],[-119.7873649460613,36.86416287286799],[-119.7876678518961,36.86356426229887],[-119.7877609642748,36.86309154904188],[-119.7879356328133,36.862859985705],[-119.788152620564,36.86254472103334],[-119.7886211677305,36.86183620907762],[-119.7886972109315,36.86157436218608],[-119.7887983068612,36.86150225028591],[-119.7890752059891,36.86144697963208],[-119.7893501310809,36.86145730727134],[-119.7895468044954,36.8615117973652],[-119.7897556312173,36.86154155734722],[-119.790083028589,36.86157441231957],[-119.7903839520208,36.86163927351117],[-119.7906155156096,36.86184532547067],[-119.790725744688,36.86202026564916],[-119.7908658413308,36.86229980102246],[-119.7909949816352,36.86266208539436],[-119.7910085503972,36.86290782730109],[-119.7910281604898,36.86398418442049],[-119.7910725433937,36.8653047606818],[-119.7911006235641,36.86592435614464],[-119.7910723132003,36.86617280712682],[-119.79061859705,36.86600755312062],[-119.7898525776112,36.86576560114862],[-119.7895078598091,36.86552084662225],[-119.7892469316957,36.86541184471933],[-119.7890162213744,36.86549788806577],[-119.7887054992576,36.86566278119044],[-119.7879117235064,36.86585251717672],[-119.7873819583772,36.86590693918933],[-119.7870859564322,36.86604921871866],[-119.7866891092681,36.86638197223728],[-119.786532723964,36.86667214274514],[-119.7864857248501,36.86691706455175],[-119.7864125819489,36.86730118184792],[-119.7862114646155,36.86747257888522],[-119.7858709439205,36.86753309317695],[-119.7855506629325,36.86757249943503],[-119.785272371403,36.86763138045475],[-119.7849650509997,36.86761987474047],[-119.7846358445651,36.86760505305019],[-119.7844623088987,36.86740040809001],[-119.7844546828498,36.86719722698795],[-119.7843268983725,36.86705358634351],[-119.784233303609,36.86682166440428],[-119.7841486630627,36.86660676349388],[-119.7839591077462,36.86654548799797],[-119.7838055012701,36.86651957273865],[-119.783471090006,36.866579839236],[-119.7832401689893,36.86669567454073],[-119.7831457529226,36.86685005282899],[-119.7830949468633,36.86722016082152],[-119.7829767727951,36.86754694119087],[-119.7829717712125,36.86756847643676],[-119.7826363102843,36.86779263228598],[-119.7824046433762,36.86790044494062],[-119.7825020024933,36.86839879888016],[-119.7825622234313,36.86907161203665],[-119.7827258099154,36.86947342602475],[-119.7829956344508,36.87010641819002],[-119.7833792833103,36.8706766418986],[-119.7838063715886,36.87097758365847],[-119.7842913141731,36.87096190088949],[-119.7846816476659,36.87066765944959],[-119.785014227339,36.87070078511363],[-119.7854736139983,36.87084753586701],[-119.7860336533508,36.87112312612324],[-119.7865454528902,36.87133331195768],[-119.7870657550964,36.87145285107243],[-119.787651994309,36.87144263780007],[-119.7880978144436,36.87125298865103],[-119.7885265180509,36.87109492503753],[-119.7888948736289,36.87092816584971],[-119.7892752988537,36.87067263745835],[-119.7893801608396,36.87056157928563],[-119.7897393512705,36.87050816038418],[-119.7900377068071,36.87046436932665],[-119.7905150324658,36.87038077895796],[-119.7907580256272,36.87025292045529],[-119.790978399333,36.8699258513551],[-119.7909509629153,36.86975467380504],[-119.7907216806868,36.86986303292749],[-119.7904437199598,36.86997589556916],[-119.7901988456523,36.86999017794277],[-119.7898921802356,36.86991060981885],[-119.7895750356012,36.86982170736062],[-119.7893334524205,36.86978250285402],[-119.7891310935731,36.86982031507375],[-119.7888162312106,36.86996235854353],[-119.7886701400876,36.87005741432407],[-119.7884838103781,36.87038302113663],[-119.7883654999741,36.87064392329447],[-119.7881547905558,36.87089143362571],[-119.7878431378728,36.87105644253677],[-119.7875558744812,36.87113080948261],[-119.7871527568557,36.8712043109193],[-119.7868116747944,36.87119918690165],[-119.7865710762139,36.87115062437589],[-119.7862471787358,36.8709356749241],[-119.7861433316293,36.87069692490228],[-119.7861367286245,36.87049519859785],[-119.7860220973448,36.87034417193602],[-119.7860525681436,36.87021182365346],[-119.7860455655045,36.87000746392135],[-119.7859204910586,36.86984766176763],[-119.7858116414759,36.86962178897655],[-119.7858076450123,36.86946280241838],[-119.7857951162324,36.86930769196182],[-119.7860331783297,36.86878960714046],[-119.7861943302483,36.86843971447013],[-119.7862975311555,36.86805287032382],[-119.7863560764944,36.86738619757422],[-119.7864733293698,36.86701337939393],[-119.7865099242354,36.86675888181043],[-119.7865996283241,36.86655201351336],[-119.7867481332295,36.86633093297504],[-119.787061680708,36.86606944200929],[-119.7872604843004,36.86595934665084],[-119.7874925961563,36.86589239314921],[-119.787847978796,36.86586035706564],[-119.7880715729471,36.86580769479941],[-119.7886539889187,36.8656771482025],[-119.7890481081055,36.86548365255194],[-119.7892094666261,36.86542109588567],[-119.7892967410852,36.86542541316096],[-119.7895522709499,36.86555481921305],[-119.7898186442743,36.86574117669469],[-119.7900024308294,36.86581100406605],[-119.7906666612891,36.86602334766483],[-119.7910206365455,36.86615457260573],[-119.7910675644457,36.86614999601516],[-119.7910942585047,36.866023178001],[-119.7910976448665,36.86586890589357],[-119.7910632266961,36.86525652267448],[-119.7910321097049,36.8640074828153],[-119.7910053455607,36.86292985283908],[-119.790954670886,36.86259253369089],[-119.7908624151976,36.86226632913241],[-119.7907538906777,36.86205661619525],[-119.7906716713037,36.86191048984234],[-119.7905271964017,36.86175504886069],[-119.7903539158775,36.86162609337971],[-119.7901323059166,36.8615773892322],[-119.7900315908802,36.86156698703635],[-119.7896594407726,36.86152698092966],[-119.789493358129,36.86150061729445],[-119.7892795302842,36.86145252955213],[-119.7891181034395,36.86144291017323],[-119.7889907990573,36.86145316577923],[-119.7888365768182,36.8614889300669],[-119.7887256389361,36.86152064670407],[-119.7886538038315,36.86175065810414],[-119.7886085013551,36.86187725734959],[-119.7881144629264,36.86259689362173],[-119.7877903331959,36.86303807658525],[-119.7876872776161,36.86349215684319],[-119.7873901155781,36.86410581712209],[-119.7873091159608,36.86421169549611],[-119.7866519808866,36.86541297741059]]}}
