{"type":"Feature","properties":{"name":"MSSU-10k","legacyMeetId":"5910","distance":"10k"},"geometry":{"type":"LineString","coordinates":[[-94.45506627680217,37.09758682645599],[-94.45501475891747,37.09759127649659],[-94.45486970050582,37.09759279577441],[-94.45473909698956,37.09760508910736],[-94.4546115112583,37.09761324686099],[-94.45446766750048,37.09762950884726],[-94.45433489527072,37.09763304680583],[-94.4542056054059,37.0976369272136],[-94.45407581125724,37.0976331038529],[-94.45395591135694,37.09764213061954],[-94.45381967051807,37.09764783241204],[-94.45368950376943,37.0976418276271],[-94.45355703564444,37.09764435386139],[-94.45342487813882,37.09765147404781],[-94.45330534472605,37.09764937073163],[-94.453154201134,37.09766459608538],[-94.45301802113036,37.09766061078226],[-94.45287895288077,37.09767559714575],[-94.45273946525528,37.09767300998012],[-94.45259362980848,37.09767731029387],[-94.45246273427902,37.09768374721995],[-94.45232290779637,37.09767191460589],[-94.45218996882015,37.09767772627472],[-94.45206101625662,37.09767935883104],[-94.45193381984816,37.09767833763484],[-94.45179008770442,37.09768085832058],[-94.45165246738615,37.09767946719722],[-94.45150866962739,37.09768249453811],[-94.45136013975639,37.09768511180415],[-94.45121748816686,37.0976804412175],[-94.45107037107783,37.09768297108771],[-94.45092229981691,37.09767887336102],[-94.45076893188563,37.09768339303498],[-94.45062755618122,37.09768706993641],[-94.45047940647738,37.09768014094813],[-94.45034538663595,37.09768471850902],[-94.4502062015976,37.09768334748914],[-94.45006846527797,37.09767814264091],[-94.4499309322515,37.09767362402629],[-94.4497960085745,37.09767266067067],[-94.44963672749698,37.09767141042647],[-94.44949829818592,37.0976649859682],[-94.44937134607176,37.09768036600828],[-94.44918929923931,37.09771366442635],[-94.44904041123858,37.09773075442799],[-94.44890763852474,37.09775125658981],[-94.44873956408894,37.09776619575127],[-94.44862103695392,37.09777259608992],[-94.4485029940634,37.09776637752661],[-94.44839021205628,37.09774130655438],[-94.44830684112003,37.09766511389712],[-94.44826016357655,37.09754390159942],[-94.44825831231219,37.09741657868625],[-94.44828974384149,37.09729012029765],[-94.44840961530143,37.09715962908921],[-94.44851464681484,37.09707436220423],[-94.44865720254266,37.09703025290322],[-94.44880737972571,37.09703546439142],[-94.44895059902089,37.0970420383618],[-94.44910331488681,37.09704119060596],[-94.44923196663983,37.09707326355682],[-94.44933845287885,37.09715654581412],[-94.4493833308074,37.09727021096732],[-94.44943071918813,37.09737016179606],[-94.44947873225354,37.09746324471811],[-94.44963793167952,37.09746225091712],[-94.44978337184511,37.09745053405396],[-94.44991227816902,37.09745564652233],[-94.45002375398276,37.09746804886635],[-94.45015090499169,37.09746829172047],[-94.4503052365618,37.09747817444972],[-94.45045872126839,37.09748429168854],[-94.45061117681331,37.09749375839347],[-94.45073441743527,37.09749685040918],[-94.450866244113,37.09750654229762],[-94.45099143271166,37.09750923155991],[-94.45107783710759,37.09745139408615],[-94.4509875805687,37.09734348502285],[-94.4508670950274,37.097336154807],[-94.45073555256204,37.09736077918357],[-94.45059966403224,37.09737232337986],[-94.45046073772009,37.09737897149588],[-94.45030837680739,37.09738239360318],[-94.4501506795356,37.09738058608102],[-94.45001875623699,37.09737289398188],[-94.44989078740677,37.09736221922707],[-94.44977250704294,37.09734623425434],[-94.44966374861193,37.09730651865466],[-94.44957727875943,37.09721030336677],[-94.44954849325916,37.09710087464455],[-94.44953793368033,37.09700457653564],[-94.44954691037209,37.09690008956731],[-94.44955433571737,37.09680076209447],[-94.44956077721272,37.09670287866055],[-94.44955769994219,37.09660577264245],[-94.44956731698183,37.09649938240675],[-94.44957076082626,37.09639393806953],[-94.44957353066812,37.09628036931174],[-94.44956738072864,37.09616441538927],[-94.44951933742776,37.09607291685342],[-94.44940469035079,37.09604922063036],[-94.44925878574057,37.09602141576989],[-94.44909306473593,37.09600329654177],[-94.44897115683266,37.09599000195524],[-94.44884600658466,37.09597656895527],[-94.44871681299388,37.09596629775387],[-94.4485792075229,37.09596079144912],[-94.4484439804859,37.09595019357247],[-94.44829072916589,37.09594275350813],[-94.44814442811564,37.09593729313799],[-94.44801732978755,37.09594125130374],[-94.44785876735209,37.09594839935658],[-94.44770041579162,37.09596210086224],[-94.44758545118304,37.0959636806036],[-94.4474753206617,37.09593064304073],[-94.44742570269058,37.09583999695594],[-94.44736127742844,37.09570540783276],[-94.4473906250266,37.09557352165775],[-94.4474128030234,37.09544509447225],[-94.44744940213239,37.0953164879712],[-94.44734944085853,37.0952686079114],[-94.44735351621027,37.09516663391816],[-94.44735757298278,37.09506512476579],[-94.44736287392755,37.09493248368031],[-94.44736716152964,37.09482519861301],[-94.44737100322071,37.09472907110541],[-94.44761306457575,37.09463957794534],[-94.44777821777431,37.09463029467406],[-94.44791205994633,37.09466690257576],[-94.44806210398124,37.09467679749765],[-94.44820455515527,37.0946877531867],[-94.44834367109087,37.09469722317249],[-94.44848084150019,37.09470727535556],[-94.44862344638352,37.09471885734929],[-94.44876607532501,37.09472923018983],[-94.44891186318505,37.09474208599438],[-94.44905897483936,37.09475379327672],[-94.4491974423178,37.09476159358193],[-94.44933905065325,37.09476766797498],[-94.44947822596815,37.09477627157682],[-94.44961852862589,37.09478281749178],[-94.44975347457623,37.09478775969455],[-94.44987396792212,37.09481501506438],[-94.44997895903644,37.09486622659507],[-94.45007391079315,37.09493852268069],[-94.45016987771213,37.09501079026997],[-94.45027518047547,37.09508830669689],[-94.45038319822443,37.0951684295596],[-94.450494576743,37.09525005377674],[-94.4506108148888,37.09533219039947],[-94.45072870789454,37.09541514552541],[-94.45084038238106,37.09549058085769],[-94.45093854833988,37.09556064566561],[-94.45102831174985,37.09562219183499],[-94.45111772485899,37.09567787056721],[-94.45120338020337,37.09574007598346],[-94.45130990125676,37.09581136334246],[-94.45142411575826,37.09588265868921],[-94.45155087852399,37.09596726942979],[-94.45164968037524,37.09603505480639],[-94.45175036667158,37.09610572332856],[-94.45184770058232,37.09617560360457],[-94.45194840379888,37.09624459541018],[-94.4520494082905,37.09631523233466],[-94.45215102262077,37.09638274424064],[-94.45224816703188,37.09645296876693],[-94.4523550020549,37.09652446828793],[-94.45246777269007,37.09659339552068],[-94.45257647718829,37.09666612703485],[-94.45268227275103,37.09673891927872],[-94.45278153324207,37.09680619504449],[-94.4528689750157,37.09688016452806],[-94.45297104283661,37.09694486249914],[-94.4530621836829,37.09701146538455],[-94.45315427877382,37.0970822249007],[-94.45326247599756,37.09713953876877],[-94.45335368922971,37.09721044517556],[-94.45345850835017,37.09727962401335],[-94.45355422589232,37.09735507804417],[-94.45365602553898,37.09743017495249],[-94.45377015290853,37.09746824305932],[-94.45387387483629,37.09741745936822],[-94.45392077124724,37.09732330368032],[-94.4538899319728,37.09721562980132],[-94.45378781073877,37.09714769319424],[-94.45366376769947,37.09714066520607],[-94.45354558102558,37.09714012861868],[-94.45343303849607,37.09711997374097],[-94.45331827731269,37.09708972888648],[-94.45321646955858,37.09702872645335],[-94.4531168026149,37.09695614279961],[-94.45301287297274,37.09688178179793],[-94.45291056032244,37.09680513968065],[-94.45280885108457,37.09673142308709],[-94.45270948241134,37.09665959645324],[-94.45260462549645,37.09659019863895],[-94.45251360058793,37.09652172095748],[-94.45241889440723,37.09644960356852],[-94.45232334350355,37.09638280454755],[-94.45222628605364,37.09631366105517],[-94.45212740495492,37.09624338392174],[-94.4520189406464,37.09616876785996],[-94.45191763365915,37.09609278707977],[-94.4518110869748,37.0960191298134],[-94.45169856531135,37.0959403420233],[-94.4515839522788,37.09586422819195],[-94.4514753289561,37.09578389422025],[-94.45136188777342,37.09569984477334],[-94.45124231632298,37.09561369118693],[-94.45113952003206,37.09554670527454],[-94.4510508743722,37.0954826063148],[-94.4509301623029,37.09540431939904],[-94.45079735325471,37.09532212116731],[-94.45067612787415,37.09525022143312],[-94.4505515058624,37.09518001751133],[-94.45045744447745,37.09508117581593],[-94.45057944343523,37.09501032349529],[-94.4507067176986,37.09506194903134],[-94.45084102508486,37.09510758278131],[-94.45097162392248,37.09515214052678],[-94.45110109125777,37.09519502797816],[-94.45121654943604,37.09521087343913],[-94.45136912715402,37.0952024517803],[-94.45149183782651,37.09519403898933],[-94.45161622011881,37.09518622676837],[-94.4517467485456,37.09517465031004],[-94.45186620401908,37.09516864130095],[-94.45201078069735,37.09515451087717],[-94.45215076118659,37.09513951658219],[-94.45231242134696,37.0951168667863],[-94.45239287050924,37.0950515996211],[-94.4523304060548,37.09495918533761],[-94.4522177040982,37.09493006461526],[-94.45207580780678,37.09496086733117],[-94.45192335164828,37.09497567249231],[-94.4517676093344,37.09499628976205],[-94.45160172650652,37.09501655966928],[-94.4514827142936,37.09502870839212],[-94.4513609853789,37.09504108047096],[-94.45124368778181,37.09505364101956],[-94.4511192360433,37.09505813345997],[-94.45099040021152,37.09504972119335],[-94.45085157578777,37.09502490124888],[-94.45073172051703,37.09498530100572],[-94.45062645528722,37.09494866707151],[-94.45051928559201,37.09490792165357],[-94.45040822367308,37.09485432594788],[-94.45031670417491,37.09477697731803],[-94.45029133851494,37.09467908741475],[-94.45041928922345,37.09461935002282],[-94.45053991275506,37.09462180000551],[-94.45066383150923,37.09463215433945],[-94.4508165718194,37.09462650354499],[-94.45096870670187,37.09462730944856],[-94.45112541730447,37.09463408698793],[-94.4512797581532,37.09465475056637],[-94.45141382505442,37.09468803357871],[-94.45152975802972,37.09467818301248],[-94.45169460977907,37.09465873258915],[-94.45181342256998,37.09465227837082],[-94.45193347677585,37.0946487850502],[-94.45209088884958,37.09467303081373],[-94.45221497902519,37.09474455427183],[-94.45231954669597,37.09483567068468],[-94.45241257024564,37.09493415322154],[-94.45246004627946,37.09501615104376],[-94.4524581963387,37.09510967784621],[-94.45239757543378,37.09519121490707],[-94.45228209207136,37.09523202993701],[-94.45214083804731,37.09523714679882],[-94.45199331012297,37.09524377502009],[-94.45183300884399,37.09524987693833],[-94.45168095642644,37.09525566927811],[-94.45155052278709,37.095272291643],[-94.45143333430711,37.09528577281991],[-94.45127797365183,37.09531601803616],[-94.45119441456177,37.09542195280093],[-94.45127534191776,37.09550758566513],[-94.45137965303792,37.09557120164967],[-94.45149281062601,37.09565138816831],[-94.45158572665379,37.09572503954305],[-94.45170082974595,37.09581229718783],[-94.45178611440818,37.09587950138069],[-94.45188061378038,37.09594622800354],[-94.4519770711952,37.09601678856691],[-94.45207963622252,37.09608757663976],[-94.45218038651582,37.09615537634674],[-94.45228493508881,37.09622846920649],[-94.45238831562594,37.09629976036057],[-94.4524932767044,37.09636931812553],[-94.45259899272519,37.09644367779242],[-94.45270467107599,37.09650739943881],[-94.4528100247921,37.09658184459582],[-94.45291150193253,37.09664812732461],[-94.45301248677359,37.09672037165353],[-94.45312120276554,37.09678193666418],[-94.45324163879661,37.09685081264687],[-94.45334948434686,37.09690502179851],[-94.4534722373529,37.0968773488333],[-94.45354308447678,37.09676414609985],[-94.45350532617222,37.09667400575393],[-94.4533812413563,37.09658315917683],[-94.45326731911089,37.09656250237575],[-94.45310734080076,37.09658308872879],[-94.45299732774049,37.09655200024302],[-94.45285943344798,37.09649877139303],[-94.45272124392115,37.09642054852686],[-94.45262065682819,37.09634958803483],[-94.45252597841314,37.09628168045722],[-94.45243479654162,37.09621680205197],[-94.45233926622322,37.09615185370902],[-94.45223595789791,37.09608916368477],[-94.45212735368939,37.096028202837],[-94.45201361958141,37.09596693361243],[-94.45191301155624,37.09590830242206],[-94.45182546866214,37.09584659481084],[-94.45172415489074,37.09576383971602],[-94.45161520422134,37.09568885265523],[-94.45150436810991,37.09560880102458],[-94.45138106063114,37.09551438837342],[-94.45132748133254,37.09542952432258],[-94.45147197871408,37.09537860683245],[-94.45158896906973,37.09537643892521],[-94.45175518064075,37.09536561445917],[-94.45190335003656,37.09536019341547],[-94.45204467687046,37.09535273731432],[-94.45220036015813,37.09534984557811],[-94.4523192734308,37.09535830921912],[-94.45241481789893,37.09542718090847],[-94.45244750028208,37.09553193161441],[-94.45250026732563,37.0956238626909],[-94.452560881976,37.0957169539228],[-94.45262310358227,37.0958075131468],[-94.45269574212415,37.09588343697651],[-94.45280557296579,37.09591921783051],[-94.45293655959854,37.09593297270632],[-94.45306201670718,37.09596226484857],[-94.45319580337996,37.09598874992035],[-94.45332899353667,37.09602146530668],[-94.4534510806257,37.09605586403831],[-94.45356640329399,37.0960903047708],[-94.45367183282623,37.09612563844533],[-94.45378080828688,37.09616388289043],[-94.45388964216167,37.09620873833583],[-94.45399520693756,37.09626639650643],[-94.45405378688388,37.09636298794607],[-94.45405560994969,37.09646020125983],[-94.45405103995205,37.0965568516198],[-94.4540674026281,37.09665772790986],[-94.45407229630615,37.0967964545904],[-94.45409006054888,37.09693413692169],[-94.45408712350068,37.09717459253554],[-94.45408660080363,37.09728699880409],[-94.45408415848746,37.09739199363253],[-94.45408974221398,37.09749821465456],[-94.45416995583363,37.09759308282665],[-94.45430652339306,37.09756469281458],[-94.45445343014141,37.09751153113771],[-94.45458271873979,37.09743989908638],[-94.45468277315156,37.09733204040676],[-94.45475964802739,37.09721566145357],[-94.45478915247436,37.09712782032432],[-94.45486645347404,37.09702673586853],[-94.45494771692657,37.09693470854319],[-94.45503082603405,37.09684486097129],[-94.45506676051718,37.09672040667558],[-94.45504093605966,37.09661024577305],[-94.45498728862036,37.09650880683976],[-94.45493011061468,37.09640681045923],[-94.45487439668204,37.096299612362],[-94.45481335688069,37.09618752286171],[-94.4548264021303,37.09607234859305],[-94.45491717692548,37.09598273687318],[-94.4550368570651,37.09593499788409],[-94.45516441764804,37.09594778978627],[-94.4553247547917,37.09597767556439],[-94.4554302872532,37.09601146812764],[-94.45549403688985,37.09608586408756],[-94.45552304404758,37.09618040824002],[-94.45551301607344,37.09628137947274],[-94.45543314009305,37.09636649778104],[-94.4553864786792,37.09645462226347],[-94.45534775005129,37.09654044950055],[-94.45532278415138,37.09663101249386],[-94.45531455203738,37.09672132690659],[-94.45535120604197,37.09681791739318],[-94.4554210250121,37.09691131426373],[-94.45555026851015,37.09697173690561],[-94.45571039364303,37.09700377693554],[-94.45586161775817,37.09702779545712],[-94.45600130483703,37.09702121547527],[-94.45613618276239,37.09699833184764],[-94.45625521951506,37.09700667042458],[-94.45634787428008,37.09707450581931],[-94.45634181061007,37.09720380881441],[-94.45627514192569,37.09728137783537],[-94.45622250797791,37.09737065584009],[-94.45616813076211,37.09746254262502],[-94.45611042745954,37.09754936006557],[-94.45604929024961,37.09764122747885],[-94.45597309468126,37.09773283158702],[-94.45588023997361,37.09779685835873],[-94.45574930051184,37.09778064884894],[-94.45562454269705,37.09778289155271],[-94.45546217408909,37.09778592352343],[-94.45534192940758,37.0977822528447],[-94.45522866213028,37.09778002977595],[-94.45507310011503,37.09777874341086],[-94.45492596940048,37.09778325613184],[-94.45476624662842,37.09778165993795],[-94.4546428997476,37.09778290524021],[-94.45451649400727,37.09778074628733],[-94.45438514021757,37.09777907753156],[-94.45425058715118,37.09777399161842],[-94.45412335781891,37.09777174651119],[-94.45399008234709,37.09776940958967],[-94.45385797010701,37.09776959195855],[-94.45372752787027,37.09777203764514],[-94.45359791477287,37.09777060674045],[-94.45347408081774,37.0977680539581],[-94.45334011438847,37.09776943971088],[-94.45320589623078,37.09777034789833],[-94.45306897394727,37.09776515904463],[-94.45293172247699,37.09777085702159],[-94.45279523065206,37.09777342793518],[-94.45266719537837,37.09777405492515],[-94.452521118594,37.09777582752656],[-94.45237810830592,37.09777625515376],[-94.45224087847606,37.09776491806823],[-94.4521080368984,37.09773030952959],[-94.45197876774564,37.09769986341978],[-94.45184431576659,37.09782853566654],[-94.45170663370587,37.09782813197945],[-94.45156192204087,37.09782770767748],[-94.45141300100572,37.09782773575032],[-94.4512670189328,37.09782773574497],[-94.45111608717093,37.09782755082606],[-94.45096636461892,37.09782546783651],[-94.45081511180629,37.09782336355196],[-94.45066659297676,37.09782128778365],[-94.45052654250424,37.09781873750091],[-94.45038662427201,37.09781618962117],[-94.45025460085974,37.0978147380975],[-94.45011442152894,37.09781329541586],[-94.44998116399915,37.09781192396832],[-94.44984866100819,37.09781115335542],[-94.44973285295721,37.09781055373822],[-94.44947562402838,37.09780868203861],[-94.44942879407292,37.09766113476881],[-94.44929919289191,37.09767347272577],[-94.44918566601102,37.09768853465134],[-94.44906809355838,37.09770600781502],[-94.44894745200943,37.09772509030049],[-94.44881832605591,37.09774642189424],[-94.44869831257776,37.09775924302897],[-94.44857966817536,37.09775902569726],[-94.44840998159047,37.09773076807245],[-94.44832214062208,37.09765612216961],[-94.44834058755022,37.09755900298407],[-94.44832539229556,37.0974476072449],[-94.4483428579474,37.09732899373072],[-94.44837807043417,37.09721673235523],[-94.4484444376758,37.0971126487191],[-94.44856617864886,37.0970473189502],[-94.44871890957626,37.09701979402885],[-94.44887071051166,37.09702996241271],[-94.449003238543,37.09703532096946],[-94.44915063739566,37.09704878379193],[-94.44928175080402,37.09709323959653],[-94.4493629512569,37.09720905106614],[-94.44939584937326,37.09731369999066],[-94.44942562518065,37.09741007057661],[-94.44956233798266,37.09746412034752],[-94.44967520691024,37.09744112349136],[-94.44982660896731,37.09744186601387],[-94.44995347555347,37.09744850356675],[-94.4500664802963,37.09745227402921],[-94.45020531365712,37.09746640665514],[-94.45031728651978,37.09747576024398],[-94.45046713893477,37.09748444490122],[-94.45060042216893,37.09749246672428],[-94.45071821274598,37.09750170651796],[-94.45087122372145,37.09750369169472],[-94.45098887482544,37.09749966494457],[-94.45107693426206,37.09742662233857],[-94.4510064960473,37.09735291901617],[-94.45086579991431,37.0973179900665],[-94.45071456143266,37.09735217905163],[-94.45057300339936,37.09736644381006],[-94.45042690830364,37.09737623872798],[-94.45026979010531,37.09737557565103],[-94.45011378107053,37.09736614467867],[-94.44997753403815,37.09735332194799],[-94.44980942239755,37.09733311655929],[-94.44969660539326,37.09730312645703],[-94.44959109220522,37.09721762543116],[-94.44955928746631,37.09711253329785],[-94.44954465522754,37.09700716394919],[-94.44955234118743,37.09690966554837],[-94.44955661953372,37.09680941200421],[-94.44955968279089,37.09669229844744],[-94.44956065335988,37.09657064345469],[-94.44956428711339,37.09646751571419],[-94.44955901441945,37.09635835848917],[-94.44956762866056,37.09624144074965],[-94.44955827921645,37.09612043839953],[-94.44939839757507,37.09605578155162],[-94.44925842131764,37.09601632094114],[-94.44914295139388,37.0960060417372],[-94.4490266869497,37.09599817345493],[-94.44890572599053,37.09599110822128],[-94.44879668385984,37.09596008099255],[-94.44866638220363,37.09595407617876],[-94.44853462584948,37.09594839288195],[-94.44839916800466,37.09594229565556],[-94.44824553798112,37.09593637595451],[-94.44810161126235,37.09593114411087],[-94.44798280205451,37.09593590757697],[-94.4478696727774,37.09593939840054],[-94.44771267995246,37.09595303319653],[-94.44755948484563,37.09593826490343],[-94.44745290088707,37.09588323747645],[-94.44742735051564,37.09578997245556],[-94.4474361377614,37.09567864834523],[-94.44744655588514,37.09555483748682],[-94.44744682745775,37.09543685094805],[-94.44745819726695,37.09532207277342],[-94.44746836444844,37.09522182103142],[-94.44747305462174,37.09509981130884],[-94.44747437916934,37.09498628450103],[-94.447479358445,37.09489309812803],[-94.44750103104809,37.09478897332894],[-94.4475593849434,37.09468375389062],[-94.44767784381264,37.09461315524138],[-94.4478295915574,37.09462364792822],[-94.44797202299294,37.09465063895783],[-94.448110277067,37.09467022529925],[-94.44825586430723,37.09467586895184],[-94.44839755980044,37.09468507768465],[-94.44853640310123,37.09469321492064],[-94.44867899632827,37.09470168567214],[-94.44882712475102,37.09471938848331],[-94.44897138893742,37.09473182646565],[-94.44911330312861,37.09473710237145],[-94.44925039992852,37.09474198596069],[-94.44939135708476,37.09474972370135],[-94.44952194523214,37.09476485796387],[-94.44966342602753,37.09477274832621],[-94.44978973503419,37.09478940963078],[-94.44992002392665,37.09482151318979],[-94.45002736961668,37.09488000457858],[-94.45012626358346,37.09495239060585],[-94.45023071880073,37.09502224346014],[-94.45034101535944,37.09510064825909],[-94.45045153632873,37.09518216316264],[-94.45056586200775,37.09526604381583],[-94.45068234092642,37.09534821089912],[-94.4507940144394,37.09542972463156],[-94.45090418178468,37.09549955163516],[-94.45099328664071,37.09556419459057],[-94.45111822057545,37.09564718486323],[-94.45120932950998,37.095701955187],[-94.45131544449859,37.09577289133633],[-94.451416940804,37.09583897310345],[-94.45153335665029,37.09592220860397],[-94.45162377565389,37.09598547328488],[-94.4517235190446,37.09604940536451],[-94.45182026571712,37.09611494191901],[-94.45191268720764,37.09618439541052],[-94.45203188568743,37.09626739551297],[-94.45216437045148,37.09634668777062],[-94.45225212061413,37.09641174964167],[-94.45234411979533,37.09647710824702],[-94.45245097160357,37.09653864512383],[-94.45256152533557,37.09661135250384],[-94.45267150781693,37.09667708134736],[-94.45277391717028,37.09674937595315],[-94.4528720739044,37.09681619938565],[-94.45296831308832,37.09688715366348],[-94.45305550276977,37.09695724019534],[-94.45314579106665,37.09702589481255],[-94.45323733029332,37.09709487258765],[-94.45333453798332,37.0971620361826],[-94.45343494088132,37.09723684902183],[-94.45352775345012,37.09731175155491],[-94.4536329862714,37.09738577019184],[-94.45373409494803,37.09743736863538],[-94.45387962626982,37.09739629133513],[-94.45390446249068,37.09729937536905],[-94.45387718157305,37.09719766222807],[-94.4537041489907,37.09712851915022],[-94.45354061633077,37.09713710128423],[-94.45337781815373,37.09711510912971],[-94.45326590291755,37.09707719184264],[-94.45315858243087,37.09701680134494],[-94.45306102473147,37.09693768086991],[-94.45296028003582,37.09685309574462],[-94.45285971881444,37.09677527278542],[-94.45276132049096,37.0967010965799],[-94.45266342345197,37.0966286095803],[-94.45257775400925,37.09653863217893],[-94.45248250163681,37.09647465517109],[-94.45238811347456,37.09640348114618],[-94.45229460995196,37.09633340068864],[-94.45219827034094,37.09626610452511],[-94.45210803958274,37.09619331941741],[-94.45200019832487,37.09612698638152],[-94.4518983565175,37.0960524024962],[-94.45179084247849,37.09597666193763],[-94.4516812279224,37.09589757240056],[-94.45157206923282,37.09581983281965],[-94.4514605555338,37.09573941498794],[-94.45134031611057,37.09565717308215],[-94.4512174887848,37.09557184842395],[-94.45111742298091,37.09550494728789],[-94.45099712843486,37.09542373787006],[-94.45087172286867,37.09535002283587],[-94.4507780036611,37.09529409690119],[-94.4506577122529,37.09522263792759],[-94.45053938333542,37.09514999942703],[-94.450465047622,37.09504067054247],[-94.4505745923103,37.09499590014438],[-94.4507207735711,37.0950450436283],[-94.450866944262,37.09509601070571],[-94.45101922775733,37.09513828748777],[-94.45116072967105,37.0951766941638],[-94.45131302298192,37.09518897800768],[-94.45148185968881,37.09518466959351],[-94.45160184532222,37.0951817519418],[-94.45172573988654,37.09517401311128],[-94.4518442878352,37.09516435596655],[-94.4519913728108,37.09514963431421],[-94.45213189873962,37.09513507164208],[-94.45229228229367,37.09512011855831],[-94.4523866511375,37.09506029968168],[-94.45235083453382,37.09496825235985],[-94.45224734412126,37.09491558188066],[-94.4521098990952,37.09494767333975],[-94.45198549667424,37.09496161517959],[-94.45186000743196,37.09497863865958],[-94.45174923348773,37.09499552057059],[-94.4515902918314,37.09501519011266],[-94.45147480817265,37.09502732480148],[-94.45136066351189,37.09503720919298],[-94.45124806386764,37.095048389692],[-94.45113104911174,37.09505451862132],[-94.45100762608284,37.09505863025232],[-94.45087888837212,37.09501854695032],[-94.45076031778812,37.09497519447395],[-94.45065770538903,37.09493734336157],[-94.45054707921358,37.09489750327613],[-94.45043948850899,37.09485565435024],[-94.45034705946476,37.09478825864157],[-94.45029579898147,37.09468523998927],[-94.45035870452546,37.09459804396086],[-94.45047512486379,37.09459315203677],[-94.45058780171554,37.09461792783858],[-94.45072233801696,37.09461129195859],[-94.45086281290162,37.09461681466464],[-94.45101315370522,37.09461450940321],[-94.45117081362989,37.09462682835501],[-94.45133027038959,37.09465595049412],[-94.451463269213,37.09468154055889],[-94.45162184604739,37.09466549711569],[-94.45173506715842,37.09465859019335],[-94.45190203414991,37.09465629733401],[-94.45202200450531,37.09465222444052],[-94.4521555825179,37.09470393577683],[-94.45227494143359,37.09478252144557],[-94.45236776469287,37.09487005168673],[-94.45245666906955,37.09497710024708],[-94.45247654302038,37.09506858999904],[-94.45244498122516,37.09516435384948],[-94.45233326446954,37.0952285459384],[-94.45219336967747,37.09524768207372],[-94.45203966458877,37.09525459753323],[-94.45188323818353,37.09526355808486],[-94.45173110142075,37.09526541562494],[-94.4515948564364,37.09526916096264],[-94.45147386308496,37.09527386891407],[-94.45131803784504,37.09530074201427],[-94.45121149679494,37.0953862135034],[-94.45125147021778,37.09547689112125],[-94.45136087975638,37.09553700239279],[-94.45144288437727,37.09560096295879],[-94.451534409137,37.09566836806594],[-94.45163474453854,37.09574430354552],[-94.45176047097138,37.09583730865214],[-94.45185302548592,37.09590362204518],[-94.45194945665212,37.09597156567379],[-94.452045812242,37.09604355372822],[-94.45214882963927,37.09611316067583],[-94.45225202994106,37.09618327811001],[-94.45235809923766,37.09625275766274],[-94.45245972329066,37.09632461833275],[-94.45256631837707,37.09639448623319],[-94.4526706748293,37.0964692498536],[-94.45277702468594,37.09654022343883],[-94.45287549557088,37.09661104878153],[-94.45297404142154,37.09667778863943],[-94.45307229980295,37.09673723641221],[-94.45317178216463,37.09679138653844],[-94.45326974099764,37.09684210926714],[-94.45337364376357,37.09689211463422],[-94.45351201398435,37.09685263482503],[-94.4535415240717,37.09673782167889],[-94.45349019039759,37.09664768177111],[-94.45336634211971,37.09656148949509],[-94.45325007925877,37.0965486042117],[-94.4530857932597,37.09653939073046],[-94.45297233277584,37.09651461853757],[-94.45285892558016,37.0964889698957],[-94.45272194947047,37.09639975565679],[-94.45262740592406,37.09633352453003],[-94.45254013419321,37.09627139839211],[-94.4524417494207,37.09621314850396],[-94.45234493991292,37.0961531529426],[-94.45224317888704,37.09608710442117],[-94.45213111611235,37.09600967168556],[-94.45200163900846,37.0959343635231],[-94.45189919225344,37.09587044675157],[-94.45167695934549,37.09573795647548],[-94.4515552750766,37.09564829501132],[-94.45143774449109,37.09555956080045],[-94.45132945472216,37.09546616644432],[-94.45132931759672,37.09537083301873],[-94.45145803725778,37.09535677510147],[-94.45159195790721,37.09534916150475],[-94.45172064945164,37.09534845036585],[-94.45188518519082,37.09535017221511],[-94.45203412575772,37.09534584308923],[-94.4521927213861,37.09533993986312],[-94.45230653881022,37.09534975403037],[-94.4524046566755,37.09540359623125],[-94.45245282105944,37.09552330105839],[-94.45253302178969,37.09563902658554],[-94.4525969635059,37.09573590600045],[-94.45266700193264,37.09583514818934],[-94.45277966001537,37.0959061232431],[-94.45292544773682,37.09593142281333],[-94.45307151348939,37.09596830689024],[-94.4532184662677,37.09600839263894],[-94.45336301451786,37.09604523009374],[-94.4534958896078,37.09608415687106],[-94.4536244015505,37.09611346696283],[-94.4537320724944,37.09614392070951],[-94.45385743873865,37.0961777390357],[-94.4539701643495,37.09622912635432],[-94.45404669499503,37.09631441643465],[-94.45405343204088,37.09641847883123],[-94.45406844618455,37.09654376975578],[-94.45407176255141,37.09667817646469],[-94.45407317154786,37.09677353592953],[-94.45408025990113,37.09689145560042],[-94.45409893569558,37.0969882445205],[-94.45409258639098,37.09708662753977],[-94.45409581587232,37.0971876642916],[-94.45410096255054,37.09730013285505],[-94.45409903471901,37.09741354006154],[-94.45409759664915,37.09750991999313],[-94.45423057593553,37.09751280400311],[-94.45434177583378,37.09748002128028],[-94.45449020966531,37.0974427005412],[-94.454589408931,37.09736002756544],[-94.45467946447549,37.09726788413949],[-94.45475813453072,37.09717106078273],[-94.45482668758541,37.09706836102516],[-94.45492393852568,37.09697111326935],[-94.45499864677218,37.09687523112641],[-94.4550533034118,37.09676204033848],[-94.45502958198462,37.09664534213567],[-94.45498364220187,37.09654229774953],[-94.45494060875077,37.096440206718],[-94.45488738632521,37.09633011043979],[-94.45483361278305,37.09621175304938],[-94.4547887060658,37.09609606795941],[-94.45486383850886,37.09600864653213],[-94.45496318078656,37.09592995494093],[-94.45508610056687,37.09591983826418],[-94.4552345586647,37.09594942399908],[-94.45539865306758,37.09599060668598],[-94.45547614737022,37.09606939372215],[-94.45550380262615,37.09616948677809],[-94.45549755305906,37.09627528356488],[-94.45543595822367,37.09636780847093],[-94.45537522757492,37.09645953772956],[-94.45534366199662,37.09655002590979],[-94.45531818611978,37.09664174204588],[-94.45531592955119,37.0967755343434],[-94.455364539397,37.09686869630651],[-94.45545653694276,37.09694599078082],[-94.4555958152803,37.09698894175335],[-94.45574519921075,37.09702163747207],[-94.45589086052154,37.09702579461658],[-94.45602457435668,37.09699558570927],[-94.45615034555735,37.09697055017656],[-94.45626851183319,37.09694811938459],[-94.4563822332583,37.09692557846716],[-94.45649794462999,37.09689969514612],[-94.45660781084803,37.09687996490541],[-94.45676922128507,37.09685540281708],[-94.45693159542095,37.09684154891234],[-94.45704621861094,37.09684002995127],[-94.45716088476748,37.09684476879725],[-94.45728137913065,37.09685077556735],[-94.45740328551615,37.0968560725539],[-94.4575297030831,37.09686749110259],[-94.45766042959362,37.09687979293032],[-94.45779973116403,37.09689957116566],[-94.45795372304572,37.09689975863855],[-94.45810428317755,37.09691633364496],[-94.45824998580323,37.09693540889663],[-94.45838165129244,37.09695615423362],[-94.45849813579173,37.09696609147633],[-94.45849806289068,37.09695901207623]]}}
