{"type":"Feature","properties":{"name":"MSSU-6k","legacyMeetId":"5910","distance":"6k"},"geometry":{"type":"LineString","coordinates":[[-94.45514159505574,37.09756368079174],[-94.4551105648887,37.09755813916514],[-94.45496406384972,37.09758446168362],[-94.45483960396045,37.09759382930032],[-94.45470987881275,37.09759693221384],[-94.45457436962711,37.09759987295642],[-94.45443881000449,37.09760283041479],[-94.45430462264463,37.09760832253982],[-94.45417049950011,37.09761033991619],[-94.4540400820879,37.09760666481556],[-94.453906998019,37.09760379336525],[-94.45377609235382,37.09760976693241],[-94.45365065631275,37.09761415875071],[-94.45348959128992,37.09762156945971],[-94.45332964673683,37.09762863312315],[-94.45321356282754,37.09763306364322],[-94.45308708072292,37.09763775255053],[-94.45296324173164,37.09764029789874],[-94.45283340986374,37.0976413348888],[-94.45270870678135,37.09764040329891],[-94.45257347648833,37.09764978677796],[-94.45244123898347,37.09764691896583],[-94.45231225108388,37.09764424220874],[-94.45218000407279,37.09764672827868],[-94.45205068433705,37.09765134574279],[-94.45192013945179,37.09765461113066],[-94.45178664022538,37.09765196965191],[-94.45165112521546,37.09765880007418],[-94.45150453817952,37.09766199723475],[-94.45136019875483,37.09766510464428],[-94.45121740739218,37.0976689654825],[-94.45107305760196,37.09766516126006],[-94.45092555854119,37.09767331122352],[-94.45077710888758,37.09767621694684],[-94.45063645317391,37.09767104887059],[-94.4504996057673,37.09767375599527],[-94.45036586037311,37.09767617658515],[-94.45022742800647,37.0976753821119],[-94.45008903845176,37.09767250249629],[-94.44996162051453,37.09767208712806],[-94.44983718383774,37.09767165993858],[-94.44966975789309,37.09766955625533],[-94.44954700991428,37.09766743506],[-94.44940737173658,37.0976752784612],[-94.44924147855771,37.09769658033368],[-94.44912893922628,37.09771554034319],[-94.44901099100608,37.09773731658559],[-94.448890673812,37.09775338796583],[-94.44877257745036,37.0977641516504],[-94.44864963109649,37.09776371570501],[-94.44853483494332,37.09776113329369],[-94.44840002593016,37.09764525281203],[-94.448356759933,37.09756108463448],[-94.44824814854918,37.09744411037369],[-94.44827354112033,37.09731548107713],[-94.44832294155606,37.09719673613106],[-94.44839840004917,37.09708758944824],[-94.44852716814482,37.09706410463856],[-94.44865835630576,37.09701768680411],[-94.44883033665138,37.09704249768844],[-94.44896913294168,37.09704097447495],[-94.44911218487998,37.09704578835819],[-94.44924978623062,37.09708273767735],[-94.44936599459541,37.09716205409009],[-94.44940440362227,37.09727896090175],[-94.44943605979307,37.09738004273058],[-94.4494770172098,37.09747296050312],[-94.44963754385844,37.09747260304198],[-94.44977638255834,37.09746548008705],[-94.44990676757078,37.09746363797809],[-94.45002195607536,37.09746977555548],[-94.45013766996078,37.09747541633332],[-94.45029123914347,37.09748076389877],[-94.45040583434866,37.09748296870041],[-94.45056891745433,37.0974964631409],[-94.45069106956112,37.09750462658754],[-94.4508215448961,37.0975068496316],[-94.45095479649198,37.09751060949775],[-94.45107057722241,37.09749573634678],[-94.45110233552539,37.0974021772554],[-94.45097912397159,37.09733150807349],[-94.45083126285462,37.09733781984374],[-94.45067530586951,37.09736302903762],[-94.45053932075476,37.09737869706087],[-94.45040600112858,37.09738773925565],[-94.45024646661655,37.09738570772944],[-94.4500945968888,37.09737870122085],[-94.44995761419473,37.09736575249275],[-94.44984223016519,37.09735947854613],[-94.44972048413443,37.09733549471764],[-94.44962206546906,37.09726047608424],[-94.44956339969274,37.09716462239363],[-94.44955844201158,37.09705672548123],[-94.44955020690321,37.09695211906202],[-94.44956428609345,37.09685728972001],[-94.44956237306872,37.09676178507683],[-94.44956894201036,37.09666223827426],[-94.44958839171542,37.0965601813645],[-94.44959247506861,37.09646201293702],[-94.44958806728506,37.09635248886882],[-94.44957693337604,37.09617172527998],[-94.4495934264682,37.09603645046082],[-94.44958859075845,37.09593553129229],[-94.44959284085897,37.09579577791634],[-94.44959304890588,37.09568193152501],[-94.44959502964198,37.0955838798279],[-94.44959896764131,37.09548524097122],[-94.44960290928569,37.09539027891427],[-94.44961590702017,37.09528098197876],[-94.44963241305578,37.09518210999987],[-94.4496320613918,37.09507193081007],[-94.44964304124005,37.09497229323883],[-94.44967953586728,37.09487291440345],[-94.44979883916153,37.09483685930665],[-94.44992304040971,37.0948418140936],[-94.45002192218048,37.09490554114169],[-94.45011023698646,37.09497671899442],[-94.45021222727799,37.0950534163914],[-94.45031909176569,37.09513139768255],[-94.45043175442457,37.09521113028269],[-94.45054360507855,37.09529237980145],[-94.45065831580848,37.09537337752676],[-94.4507733633121,37.09545350924847],[-94.4508781111213,37.09552261856054],[-94.45096896233112,37.09557915829546],[-94.45107567566102,37.09565585740143],[-94.45119263897953,37.09574044252522],[-94.45130541069754,37.09581417596424],[-94.45140842840148,37.09588693968369],[-94.45152979707694,37.09596657609443],[-94.45162786360981,37.09602861346436],[-94.4517211660621,37.09609581110551],[-94.45181731917302,37.09616558726727],[-94.45190953124477,37.09622944620541],[-94.45200139078432,37.09628604795289],[-94.45209204298594,37.09634763943664],[-94.45218677762293,37.09641181052218],[-94.45228292668526,37.09647699399848],[-94.45238479681767,37.09654682899323],[-94.45249188861025,37.09661083613063],[-94.45260228049177,37.0966816820311],[-94.45270926111444,37.09675434546956],[-94.45281105762126,37.09682275775866],[-94.45291531720196,37.09689166887766],[-94.45300326309768,37.09696018447107],[-94.45308751145296,37.09702770460241],[-94.45317229472649,37.09710109773185],[-94.45320840138108,37.09719407770168],[-94.45316171903877,37.09728753372514],[-94.45308773755538,37.09736153457101],[-94.45296609493522,37.09738266068562],[-94.45284593085009,37.09738897267238],[-94.45271089702018,37.09737013737871],[-94.45258536392633,37.09735476529421],[-94.45246378122,37.09731590712599],[-94.45234243114184,37.09728540306597],[-94.45221416350707,37.09724682050085],[-94.45208269673384,37.09720440377829],[-94.45191689242141,37.0971507412612],[-94.45179889186949,37.0971152076992],[-94.45167798432814,37.0970870250018],[-94.45154564208963,37.09706989883595],[-94.45141601016263,37.09707788402637],[-94.45129207265023,37.09711031130846],[-94.45117679752971,37.09716038510257],[-94.45106930233916,37.09722095944665],[-94.45096157037321,37.09728113052863],[-94.45084678713373,37.09731756471736],[-94.45070082007523,37.09732934403837],[-94.45055749784002,37.09735321430141],[-94.45040996260292,37.0973707809818],[-94.45026644476472,37.09737731682605],[-94.45013497122413,37.09737363671011],[-94.44998977250295,37.09736589981938],[-94.44980885900148,37.09734451500998],[-94.44967398624671,37.09728296230262],[-94.4495808731858,37.09716716192851],[-94.4495682511035,37.09705912359523],[-94.4495620473423,37.09695540003071],[-94.449560619758,37.09685834999514],[-94.44957186126187,37.09676813460329],[-94.44957396686702,37.0966708012845],[-94.44957084485895,37.09657548839285],[-94.44957339477898,37.09647352280501],[-94.44957148018499,37.09636782061882],[-94.44958138712809,37.09627032644498],[-94.44958433858808,37.09615326334293],[-94.44952809034204,37.09607135751176],[-94.44936967044944,37.09602870091566],[-94.44925212063951,37.09601106340165],[-94.4491299769785,37.09599314124154],[-94.44900281970278,37.09598231025853],[-94.44887639501287,37.09597383970586],[-94.44874973150674,37.09596257033998],[-94.44861884804246,37.09596159254936],[-94.44848943892458,37.09595058434368],[-94.44834371064421,37.09594871922918],[-94.44819652660598,37.09594245904705],[-94.44805627499018,37.09593790407217],[-94.447888880735,37.09594349423913],[-94.44773343758455,37.09595694248064],[-94.4475722421327,37.09596272130247],[-94.44747154446175,37.095920972705],[-94.44742169837119,37.09582889898422],[-94.44742769191195,37.09571841426104],[-94.44733667371645,37.09559512021567],[-94.44734108945009,37.09547757819168],[-94.44734554222428,37.09536616017972],[-94.44734964834777,37.09526341634685],[-94.44735417867308,37.09515005735931],[-94.44735778657538,37.0950597800913],[-94.44736290101831,37.09493180565114],[-94.44736783998577,37.09480822235091],[-94.44737159329502,37.09471430641881],[-94.4474052501147,37.09462710287469],[-94.44773733517235,37.09422121254327],[-94.44819633335162,37.09468492113041],[-94.44833072464941,37.09469456171045],[-94.44846892007693,37.09470614830816],[-94.44861214716045,37.0947111330985],[-94.44874546277629,37.09472725351803],[-94.44888811034326,37.09474035519694],[-94.44902610439618,37.0947503657182],[-94.44916526339738,37.09475542615532],[-94.44930420109601,37.09476340005776],[-94.44943814564486,37.09476993891567],[-94.44957184358505,37.09477568196733],[-94.44969237891837,37.09477947133868],[-94.44981669751176,37.09479391310431],[-94.44993448956292,37.09483037884093],[-94.45004268569407,37.0948857373209],[-94.4501286920289,37.09495591504261],[-94.45022391676763,37.09502198188983],[-94.45032794658268,37.09510025885048],[-94.4504304746515,37.09517923958197],[-94.45054380177312,37.09525772476751],[-94.45065398857228,37.09534343498716],[-94.45076940059411,37.09542241887419],[-94.45087916452698,37.09549509821323],[-94.45096452269564,37.09556133205376],[-94.45104985076071,37.09562247369404],[-94.45117867604927,37.0957121265089],[-94.45129010305877,37.09578728053502],[-94.45139504376897,37.09584975485288],[-94.45151660292899,37.09592850095829],[-94.45160738851204,37.09599519583393],[-94.45170606923871,37.09606471620543],[-94.45180077096245,37.09613473855337],[-94.45189687135773,37.09620368758468],[-94.45200045722608,37.09626781421699],[-94.45209666958289,37.09633406502198],[-94.4521968615258,37.09640836552213],[-94.45230174470989,37.09647973713079],[-94.45241080447998,37.09654979801171],[-94.45252298256699,37.09661868195632],[-94.4526406140722,37.09669144051435],[-94.45274275582345,37.09676034962889],[-94.45284301889883,37.09682842755664],[-94.45293929031214,37.09689787127958],[-94.45302853721107,37.09696455625229],[-94.45312278609323,37.09702992088566],[-94.45321097476695,37.09709770503619],[-94.45330191968897,37.09716631087125],[-94.45339805485808,37.09722478701443],[-94.45349023377061,37.09729288669698],[-94.45358308227028,37.09737430705628],[-94.45367326389356,37.09743482962008],[-94.45381520544332,37.097452396545],[-94.45390792590717,37.09738270520728],[-94.45392391477898,37.0972764877318],[-94.45386755087145,37.09717331848042],[-94.45373166640194,37.09712847383871],[-94.45360080218254,37.09712377381066],[-94.45346925288906,37.09711629314958],[-94.45335567929341,37.09709311082099],[-94.45324235963227,37.0970492360249],[-94.45314654153931,37.09698200064238],[-94.45303609845952,37.09690643302245],[-94.4529342999188,37.09682703237968],[-94.45282560365033,37.09675371144852],[-94.45272288070242,37.09667729900285],[-94.45261909190347,37.09660625416272],[-94.45252250418451,37.09653479115978],[-94.45243818983579,37.09647024785339],[-94.45233408490097,37.09640075240767],[-94.45223783674516,37.09632943969056],[-94.45214160230549,37.09625909511145],[-94.45203835959188,37.0961867256034],[-94.45193276858554,37.09611053747156],[-94.4518233987753,37.09603809442918],[-94.45172198232605,37.09596494715963],[-94.45161517350965,37.09588392533579],[-94.45150738289372,37.09580799122184],[-94.45139958058809,37.09573204697297],[-94.45129333724995,37.09565959906488],[-94.45117648095004,37.09558096284533],[-94.45108520673934,37.0955147532375],[-94.45097223580021,37.09543386545817],[-94.45084110836198,37.09535344575536],[-94.45075054566007,37.09529963159196],[-94.45063707584417,37.09522541362416],[-94.45051590390754,37.09515237013333],[-94.45046058047201,37.09502758391031],[-94.45057947776698,37.09499703695541],[-94.45070195312567,37.09503954180312],[-94.45082981595097,37.09508715340848],[-94.45097942309893,37.09513385864972],[-94.45112880650233,37.09518121711412],[-94.45128217681122,37.09520491122419],[-94.45144641715643,37.09519901969968],[-94.45156892946763,37.0951978724223],[-94.45169612383017,37.09519166400709],[-94.45181636700642,37.09518140892811],[-94.45196529498125,37.09517171517504],[-94.45210329751241,37.09515749170977],[-94.4522604300007,37.09514602691565],[-94.45236612514938,37.09510551337745],[-94.45238592740155,37.0950100988392],[-94.45228040431124,37.09492608014284],[-94.45212993882073,37.09495057491021],[-94.45200047221999,37.09498486810899],[-94.45188819651831,37.09499525037585],[-94.45175393640142,37.09501527520883],[-94.45158480309462,37.0950325918994],[-94.45145081103944,37.09504403244672],[-94.45131889275717,37.09505513526229],[-94.45118799811841,37.09506123103709],[-94.45095672013045,37.09505710957599],[-94.4508491348398,37.0950272065353],[-94.45073439837091,37.09497901474457],[-94.45058077802679,37.09492675902607],[-94.45047205975165,37.09488509463445],[-94.45036406252969,37.09483819720785],[-94.45029051003726,37.09474510579117],[-94.45029326570798,37.0946375041062],[-94.45038069718753,37.09456885790025],[-94.45047687219031,37.09464333757436],[-94.45059118729318,37.09462539015852],[-94.45073130911858,37.09462819783241],[-94.45087324321672,37.09462709173094],[-94.45102588357187,37.09463194664601],[-94.45117324423086,37.09465086337285],[-94.45133184242707,37.09468341947402],[-94.45146263415039,37.09470041336203],[-94.45162600047294,37.09468566935102],[-94.45174154635642,37.0946736195101],[-94.45191651582853,37.09466066734746],[-94.45202887388702,37.09465421033106],[-94.45217320923936,37.09471209339054],[-94.45225538247242,37.09477371430464],[-94.4523530475617,37.09486732707796],[-94.4524502983624,37.09496893831118],[-94.45247720766683,37.09506074444276],[-94.45245322423071,37.0951586024263],[-94.45235523935051,37.09523605122649],[-94.45221424404052,37.09525805693715],[-94.4520608900383,37.09527306613613],[-94.45190460308935,37.09528444619925],[-94.4517480924119,37.09529147540427],[-94.45160507094107,37.09529656601559],[-94.4514831403982,37.09530071406088],[-94.45136878966282,37.09530840359493],[-94.45124757461996,37.09535877051453],[-94.45112936366289,37.0953915789359],[-94.4511682332564,37.09549618536145],[-94.4512999710088,37.09556918781002],[-94.45141508743416,37.09563107796814],[-94.45153011216597,37.09569583113788],[-94.45164728557965,37.09577427916757],[-94.45173923536302,37.09584003883779],[-94.45183407029728,37.09590773952664],[-94.45193661586775,37.0959802208529],[-94.45203403911648,37.09604925344569],[-94.45213510069578,37.09612163395195],[-94.4522350423114,37.09618346209325],[-94.45233556700985,37.09625211611267],[-94.45243578962727,37.09632110435582],[-94.4525377641788,37.09639295370626],[-94.45264830212083,37.09646998105436],[-94.45275667871013,37.09653758893473],[-94.45286108455085,37.09661068954705],[-94.45296305912866,37.0966767930704],[-94.45305973924938,37.09674101244499],[-94.45315954832881,37.09679512725859],[-94.45325615671727,37.09684471608998],[-94.4533591985669,37.09689820437548],[-94.45348319585418,37.09690048116749],[-94.45355257054506,37.09680618837225],[-94.45354765293273,37.09669060209099],[-94.4534531065387,37.09659562706394],[-94.45332683510262,37.09655002582256],[-94.45319747252424,37.09653978136448],[-94.45307002774167,37.09653917785249],[-94.4528376620526,37.09647507402516],[-94.45273858307073,37.09641066022976],[-94.45263831819256,37.09634974286192],[-94.4525500802655,37.09627540389152],[-94.45245794857125,37.09621931418874],[-94.45236212539999,37.09615477591391],[-94.45225271257091,37.09609709935729],[-94.45214400896128,37.09603827912152],[-94.45203007309365,37.09597970231399],[-94.45193792373519,37.09591507557248],[-94.45185039110598,37.09583152566162],[-94.45183465324833,37.09573169273515],[-94.45186189084015,37.09562846119145],[-94.45192816389122,37.09552203470079],[-94.45201067294708,37.0954333029909],[-94.4521316665904,37.09535476140697],[-94.45229140525444,37.09535498352434],[-94.45239775397589,37.09539609385423],[-94.45242918028914,37.09549032226511],[-94.45247009833483,37.09557752016148],[-94.45253762292562,37.09569069193725],[-94.45260872700912,37.09579734375912],[-94.45268657337705,37.09587955252514],[-94.45280924594847,37.09593320558853],[-94.45301582079071,37.09596496237365],[-94.45317131394154,37.09599914540847],[-94.45331260101622,37.0960361098682],[-94.45344756591173,37.09607504365781],[-94.45357452613251,37.09611446854282],[-94.45370204123319,37.09614857962292],[-94.45382501984258,37.09618490155514],[-94.45394348423767,37.09622852187888],[-94.45404750951646,37.0963122115001],[-94.4540748987847,37.09641127891484],[-94.45405926934875,37.09654718210763],[-94.45404966842632,37.09667135381322],[-94.45404783168506,37.09676694354956],[-94.45405029335691,37.09689213432791],[-94.45405072211518,37.0970222675048],[-94.45406655180078,37.09712364660591],[-94.45407985004042,37.09723859293444],[-94.454086933055,37.09734353879149],[-94.45408752613365,37.09744819018309],[-94.45418043390409,37.09752897396649],[-94.45428776622082,37.09750169917672],[-94.4544042810703,37.09747941957954],[-94.45453322891399,37.09741616994691],[-94.45462761224577,37.09732746037586],[-94.45469655167764,37.09722889034785],[-94.45477803577808,37.09713526554729],[-94.45485172252717,37.09703614425092],[-94.45493631850886,37.0969421905074],[-94.45501489719334,37.09684647123748],[-94.45506064378363,37.09673498071164],[-94.45501752851274,37.09662500725121],[-94.45496089750948,37.09652455510152],[-94.45490480935462,37.09642130583129],[-94.4548532462733,37.09631692006813],[-94.45481577733139,37.09620153947246],[-94.45481481093046,37.0960899508129],[-94.45489121078135,37.09600176182371],[-94.4549917483983,37.09593932307848],[-94.45511499108868,37.09594345280286],[-94.45527004371182,37.09596983222833],[-94.45537995978798,37.09599493366833],[-94.45547796340759,37.09604993630069],[-94.45551507888517,37.0961448059297],[-94.45552579501188,37.09624635512896],[-94.45547107288479,37.09634498496757],[-94.45541914885357,37.09643666581335],[-94.45536751777782,37.09652290693744],[-94.45531332165955,37.09665434432371],[-94.45531118302821,37.09674788619844],[-94.45535387806792,37.09684043627057],[-94.45542959202714,37.09692742432939],[-94.45555024073302,37.09697316863621],[-94.4557070477204,37.09700743306938],[-94.4558528222452,37.09703156538348],[-94.45599350606668,37.09700353395529],[-94.4561237545227,37.09697497242905],[-94.45623906098221,37.09694673066397],[-94.45635181704336,37.0969229291097],[-94.45647088718431,37.09690132707557],[-94.45658737565728,37.09688050823122],[-94.4566991519217,37.09686843013355],[-94.45686289175342,37.09685257426283],[-94.45702735917267,37.09685507915916],[-94.45714466698486,37.09685996582463],[-94.4572648078132,37.09686372513994],[-94.45741428904448,37.09686949580793],[-94.45754009174635,37.09687898000145],[-94.45767892170306,37.0968921252873],[-94.45779412610057,37.09688874665621],[-94.4579146252445,37.09690999252201],[-94.45795426755441,37.09691523522028]]}}
