{"type":"Feature","properties":{"name":"NCAAMidwest-10k","legacyMeetId":"5232","distance":"10k"},"geometry":{"type":"LineString","coordinates":[[-92.29476055307214,38.88861899082016],[-92.29534017316485,38.8840033008134],[-92.29533575957684,38.88395100081094],[-92.29532129488645,38.88389873481445],[-92.29530207730933,38.8838302450232],[-92.29526784208178,38.88376344829032],[-92.29524162962755,38.88371819207273],[-92.29519815408675,38.88366675411385],[-92.29511602256352,38.8835863908762],[-92.29505528110415,38.88352659502329],[-92.29498823191565,38.88347641071421],[-92.29494437314783,38.88343762527552],[-92.29485127544093,38.88337777270127],[-92.2947367758413,38.88332474069719],[-92.29463293336764,38.88328080453473],[-92.29451768619495,38.88324840706674],[-92.29442582701124,38.88322678597817],[-92.29434545807504,38.88322493091842],[-92.2942616044819,38.88322271450843],[-92.29415395107681,38.88322524964321],[-92.29410158749376,38.88322874441842],[-92.2940095028372,38.88323269217709],[-92.29391739623239,38.88325106179666],[-92.29383752681024,38.88327050124621],[-92.29376097421773,38.88330904304466],[-92.293707978504,38.88336266952271],[-92.2936792446647,38.88342050186935],[-92.29366831060335,38.88346979150698],[-92.29366743733762,38.88352505627096],[-92.2936782711078,38.88356920812097],[-92.29369128073265,38.88362305956648],[-92.29373174998534,38.88367874062145],[-92.29378818466262,38.88372596913347],[-92.29391635065419,38.8837738114883],[-92.29404281606449,38.88379751545202],[-92.29443372311718,38.88386093227864],[-92.29447443011583,38.8838763191883],[-92.29450365084105,38.88388641814291],[-92.29454581761647,38.88392264242646],[-92.29457651014916,38.88395607895276],[-92.29459895649373,38.88400777471654],[-92.29460921190474,38.88407325133176],[-92.29460527746129,38.88414229159103],[-92.29458248793331,38.8842157402162],[-92.29451622579272,38.88442843135097],[-92.29446991769927,38.88460085122211],[-92.29446066905356,38.88468714103139],[-92.29445160959382,38.88478709590626],[-92.29448151101245,38.88553176649653],[-92.29448307477664,38.88588114690486],[-92.29447311655868,38.88590796683406],[-92.29446042189653,38.88594138228241],[-92.29443331136483,38.88600120555888],[-92.2943920465493,38.88605879745335],[-92.29434352055057,38.8861258182512],[-92.29426050019909,38.88620639204255],[-92.29417151178454,38.88627353739799],[-92.29409852130954,38.88631723106042],[-92.29402051311537,38.88635695893888],[-92.29395831006784,38.88638594416315],[-92.29385234031398,38.88641621557734],[-92.29372916945421,38.88643144642683],[-92.29363485651095,38.88642843099084],[-92.2934993601487,38.88641985957964],[-92.29337221006844,38.88640334169939],[-92.29328288277877,38.88638625049737],[-92.29318665643335,38.88636472518503],[-92.29310715322153,38.88633086909196],[-92.29305301923425,38.88630155762375],[-92.29297899839999,38.88623973208629],[-92.2925999882424,38.88583290089719],[-92.29254947291354,38.88579943701591],[-92.29248904015002,38.88577254621915],[-92.29243009394473,38.88576038880351],[-92.29237779727305,38.88576016184736],[-92.29231233659108,38.88576945278277],[-92.29222872674733,38.88579041840426],[-92.29217291449486,38.88581528001698],[-92.29209077414957,38.88586139871886],[-92.29201450921684,38.88589900340266],[-92.29195135902275,38.8859388077158],[-92.29186575472156,38.88599151578157],[-92.29179368724357,38.88604232917328],[-92.29171543997127,38.88609088488985],[-92.29164484371393,38.88614069927616],[-92.29156247357733,38.88620828257089],[-92.29149338606422,38.88628164229242],[-92.2914468078392,38.88634519601397],[-92.29140447754324,38.88642036202113],[-92.2913828891303,38.88647593399674],[-92.29136476044593,38.88654613931778],[-92.29135826345725,38.88663486547456],[-92.29135909793627,38.88674254343309],[-92.29137198493083,38.88690558560883],[-92.29139162597058,38.88703765633893],[-92.29141606785906,38.88714469812611],[-92.29144337670094,38.88719696505511],[-92.29149637629935,38.88726092106382],[-92.29157261558369,38.88731901136394],[-92.29165555722105,38.8873685958371],[-92.29175894600317,38.88740485511398],[-92.29186207156985,38.887433908724],[-92.2920300647308,38.88744776892242],[-92.29218538870141,38.88743207197763],[-92.29232470470319,38.88737246826807],[-92.29242483813147,38.8873209163884],[-92.29250196826612,38.88724462942233],[-92.29256315852358,38.88714124441259],[-92.29272341608547,38.88684459162596],[-92.29284615409969,38.88672219310165],[-92.29291048468176,38.88668085941015],[-92.29302416491882,38.88663266372927],[-92.29314359559552,38.88660396501685],[-92.29324754902211,38.88659944137056],[-92.29336199888226,38.88660836067387],[-92.29348072264422,38.88663213826851],[-92.29357061676497,38.88666296358955],[-92.29364984035452,38.88671436397584],[-92.29372003419358,38.88676949208372],[-92.29377678987983,38.88684811533833],[-92.29382544753973,38.8869628519678],[-92.29397035108695,38.88766399101395],[-92.29431409388005,38.88863781046917],[-92.29435309830563,38.88866377740009],[-92.294444134214,38.88869649751802],[-92.29452817214363,38.88870562290925],[-92.29458731242377,38.88869554085885],[-92.29465258408719,38.88867378821414],[-92.29470852717425,38.88861979718504],[-92.295340345768,38.88401318533464],[-92.29534023729379,38.88399682445924],[-92.29533668332701,38.88395586098189],[-92.29532437051688,38.88390535669479],[-92.29530534107127,38.88383607190148],[-92.29527123030516,38.88376865678088],[-92.29524564159108,38.88372265758908],[-92.29520286048344,38.8836709950922],[-92.29512067309504,38.8835902566498],[-92.29506030145592,38.88353091926767],[-92.29499272135128,38.88347942221101],[-92.2949488130325,38.88344222337098],[-92.29485593184305,38.88338025439899],[-92.29474249581526,38.8833270905167],[-92.29463821556025,38.88328333856467],[-92.29452319233253,38.88325021054453],[-92.29443102641653,38.88322717016318],[-92.29435151703709,38.88322522879503],[-92.29426753330627,38.88322298352989],[-92.29415967929681,38.8832251520157],[-92.29410635988268,38.88322836035481],[-92.29401622580824,38.88323206656222],[-92.29392321754572,38.8832492607467],[-92.29384324120511,38.88326823787234],[-92.29376511307909,38.88330623231803],[-92.29371109061496,38.88335850712664],[-92.29368104331685,38.88341578439478],[-92.2936696419315,38.88346324391856],[-92.29366669022892,38.8835183861293],[-92.29367634815969,38.88356406177732],[-92.2936893452783,38.88361935828463],[-92.2937285501817,38.88367430765919],[-92.29378451202894,38.88372243995865],[-92.29391186130917,38.88377312757981],[-92.29403687498542,38.88379720854486],[-92.29442882978357,38.88385987649811],[-92.29446965822405,38.883874528936],[-92.29450250711801,38.88388632297045],[-92.2945423707172,38.88391992763633],[-92.29457508639958,38.8839538582187],[-92.29459703221158,38.88400381442111],[-92.29460874309311,38.88406917570615],[-92.29460588669016,38.88413657890204],[-92.2945852033794,38.88420978717738],[-92.29451688288087,38.88442425614151],[-92.29447092133479,38.88459662360396],[-92.29446113883272,38.88468155188693],[-92.29445255211522,38.88478365255393],[-92.2944819671592,38.88552742326652],[-92.2944839283491,38.88587467870273],[-92.29447597083531,38.88590288000415],[-92.29446263731124,38.88593623910642],[-92.29443650577218,38.88599543849091],[-92.29439569722601,38.88605431429274],[-92.29434782938463,38.88612105477385],[-92.29426443100003,38.88620204680401],[-92.29417615341939,38.8862701170055],[-92.29410475948087,38.88631258669908],[-92.29402710711551,38.8863541035347],[-92.29396553814976,38.88638303611501],[-92.2938593167872,38.88641496772535],[-92.29373889136353,38.88643033196467],[-92.29364460326852,38.88642843487865],[-92.29350715652768,38.8864207424446],[-92.29338111634473,38.88640438412351],[-92.29329001575195,38.88638761182057],[-92.29319526751213,38.88636744216599],[-92.29311603890442,38.88633391654745],[-92.29306003282149,38.88630557610753],[-92.29298318900406,38.88624359767331],[-92.29260529043756,38.88583853283852],[-92.29255459602368,38.88580245801712],[-92.29249561984152,38.8857752978457],[-92.29243683549876,38.88576134466486],[-92.29238452762199,38.88576051781416],[-92.29231763690336,38.88576852815005],[-92.29223533530715,38.88578841354243],[-92.29178922957182,38.88591388284748],[-92.29175277201338,38.88592207801953],[-92.29168814658178,38.88592880741761],[-92.29163161914613,38.88593045995172],[-92.29112265545668,38.88590953375525],[-92.29104248126225,38.88589863106318],[-92.29099853479364,38.8858854756392],[-92.29091803560232,38.88585036618447],[-92.29085163075344,38.88580840886882],[-92.2907655412881,38.88573360013268],[-92.29068897639485,38.88566978633664],[-92.29061128799184,38.88557642673612],[-92.2903386232824,38.88516158078316],[-92.29028759709837,38.88511355582173],[-92.29023952029759,38.88507459961643],[-92.29018186955483,38.88504727790498],[-92.29011062547926,38.88503017256286],[-92.29005814651183,38.88502188042371],[-92.28999027730644,38.88501692576469],[-92.28993684402546,38.88501800235205],[-92.2898731761395,38.8850303036738],[-92.28981789577193,38.88504798698325],[-92.28976547229284,38.88507118939656],[-92.28970123416134,38.88510948512191],[-92.28965317233934,38.88514487504978],[-92.28961676275361,38.88517990421078],[-92.28958009096814,38.88523144378847],[-92.28956026883674,38.88529293613077],[-92.28956054826331,38.88533546589453],[-92.28956776253433,38.88537238959043],[-92.28961491680123,38.88545567515801],[-92.28978179354961,38.88570649219542],[-92.28980867105744,38.88575912448553],[-92.28982168753892,38.88581711870716],[-92.28981484147522,38.88584764162338],[-92.28979576709017,38.88589294985321],[-92.2897671534297,38.88593477991395],[-92.28972965470514,38.88596514308541],[-92.28969204992819,38.88599055538458],[-92.28963462670663,38.88601080213847],[-92.28956413721107,38.8860245509479],[-92.2894849334989,38.88603190850972],[-92.28942659585258,38.88602951884079],[-92.28932905281093,38.88601596400559],[-92.28924867529089,38.88598792418813],[-92.28883151102272,38.88583725864095],[-92.28872941410508,38.88581869891264],[-92.28864330014088,38.88581480020039],[-92.28854014597107,38.88582283027149],[-92.28845023247997,38.88584245668131],[-92.28837844486355,38.88586081981692],[-92.28829215772218,38.88588922610702],[-92.28819892294807,38.88592604594157],[-92.28812783158645,38.88596982443678],[-92.2880700814278,38.88602276353839],[-92.28803575908428,38.8860813176954],[-92.28802776522338,38.88612943688987],[-92.28802755027596,38.8861735418178],[-92.28804862137034,38.88623346796334],[-92.28809837175177,38.88629467488214],[-92.28821788580156,38.88637492636784],[-92.2883602802605,38.88645957522633],[-92.28853133046204,38.88653274124347],[-92.28868672954047,38.88659557902847],[-92.28886710412698,38.8866434089071],[-92.28894437637786,38.88664923792243],[-92.28903088159781,38.88664867594834],[-92.28916668550133,38.8866479562314],[-92.28931564839084,38.88662964930842],[-92.2894263622349,38.88660210633099],[-92.28953225599739,38.8865715089044],[-92.28962448663339,38.88652209255268],[-92.29024585378595,38.88607835433583],[-92.29031815012108,38.88604413325429],[-92.29041503657197,38.88603536492046],[-92.29047385415933,38.886050138054],[-92.29053543754422,38.88607824344091],[-92.2906031250933,38.88611418259258],[-92.29065722761159,38.88615593617779],[-92.2906974048537,38.88619695242642],[-92.29072833584276,38.88625641982617],[-92.2907398462184,38.88630646764246],[-92.29073691119761,38.88635842768731],[-92.29071794300592,38.88641576792224],[-92.29067413344964,38.88649936597983],[-92.29043272689245,38.88683230583876],[-92.29041039372798,38.886892018953],[-92.290406144773,38.88695424159096],[-92.29041691455403,38.88701360873623],[-92.29047022329415,38.88713215849909],[-92.29057567121467,38.88732649780426],[-92.29078616507293,38.88767761015898],[-92.29095843784016,38.88794568068003],[-92.29109672729358,38.88813942202366],[-92.29116287858814,38.88821136285685],[-92.29122045212523,38.88824951697983],[-92.29128476842804,38.88827795847761],[-92.29138623613186,38.88829597852303],[-92.29148679114527,38.88829270107146],[-92.29165947601263,38.88827503236581],[-92.29181405726757,38.88824875328002],[-92.29199934651736,38.88821058749068],[-92.29216192105388,38.88816685098859],[-92.2923146306017,38.88810509122241],[-92.29245222559013,38.88802236026713],[-92.29255061682842,38.88793370149514],[-92.29262166656751,38.88784874336512],[-92.29267414527293,38.88774079521797],[-92.29270800174938,38.88759973643506],[-92.29268163756406,38.88709164437594],[-92.29268966875246,38.88694915591809],[-92.29271406214544,38.88686195284444],[-92.29273261235029,38.88683366899564],[-92.29283649524814,38.88672905773993],[-92.29289516988914,38.88668843583246],[-92.29300898458915,38.88663935101893],[-92.29313096652889,38.88660620625225],[-92.29323481886719,38.88659944014517],[-92.2933499114742,38.88660696256088],[-92.29347426761869,38.8866304420701],[-92.29355693958304,38.88665668870512],[-92.29363869465652,38.88670721187483],[-92.29371208583795,38.88676066471498],[-92.29376849402331,38.88683685449192],[-92.29381885288883,38.88694491451807],[-92.29396376254276,38.88764350872424],[-92.29430601086588,38.88861789121397],[-92.29433327907763,38.88865426216459],[-92.29440669687668,38.88868413565294],[-92.29448829574908,38.88870283700535],[-92.29455246332245,38.8887014275823],[-92.29462445522742,38.88868467273522],[-92.29468502465558,38.8886498758306],[-92.29470752177694,38.88861992687629],[-92.29534017316485,38.8840033008134],[-92.29533575957684,38.88395100081094],[-92.29532129488645,38.88389873481445],[-92.29530207730933,38.8838302450232],[-92.29526784208178,38.88376344829032],[-92.29524162962755,38.88371819207273],[-92.29519815408675,38.88366675411385],[-92.29511602256352,38.8835863908762],[-92.29505528110415,38.88352659502329],[-92.29498823191565,38.88347641071421],[-92.29494437314783,38.88343762527552],[-92.29485127544093,38.88337777270127],[-92.2947367758413,38.88332474069719],[-92.29463293336764,38.88328080453473],[-92.29451768619495,38.88324840706674],[-92.29442582701124,38.88322678597817],[-92.29434545807504,38.88322493091842],[-92.2942616044819,38.88322271450843],[-92.29415395107681,38.88322524964321],[-92.29410158749376,38.88322874441842],[-92.2940095028372,38.88323269217709],[-92.29391739623239,38.88325106179666],[-92.29383752681024,38.88327050124621],[-92.29376097421773,38.88330904304466],[-92.293707978504,38.88336266952271],[-92.2936792446647,38.88342050186935],[-92.29366831060335,38.88346979150698],[-92.29366743733762,38.88352505627096],[-92.2936782711078,38.88356920812097],[-92.29369128073265,38.88362305956648],[-92.29373174998534,38.88367874062145],[-92.29378818466262,38.88372596913347],[-92.29391635065419,38.8837738114883],[-92.29404281606449,38.88379751545202],[-92.29443372311718,38.88386093227864],[-92.29447443011583,38.8838763191883],[-92.29450365084105,38.88388641814291],[-92.29454581761647,38.88392264242646],[-92.29457651014916,38.88395607895276],[-92.29459895649373,38.88400777471654],[-92.29460921190474,38.88407325133176],[-92.29460527746129,38.88414229159103],[-92.29458248793331,38.8842157402162],[-92.29451622579272,38.88442843135097],[-92.29446991769927,38.88460085122211],[-92.29446066905356,38.88468714103139],[-92.29445160959382,38.88478709590626],[-92.29448151101245,38.88553176649653],[-92.29448307477664,38.88588114690486],[-92.29447311655868,38.88590796683406],[-92.29446042189653,38.88594138228241],[-92.29443331136483,38.88600120555888],[-92.2943920465493,38.88605879745335],[-92.29434352055057,38.8861258182512],[-92.29426050019909,38.88620639204255],[-92.29417151178454,38.88627353739799],[-92.29409852130954,38.88631723106042],[-92.29402051311537,38.88635695893888],[-92.29395831006784,38.88638594416315],[-92.29385234031398,38.88641621557734],[-92.29372916945421,38.88643144642683],[-92.29363485651095,38.88642843099084],[-92.2934993601487,38.88641985957964],[-92.29337221006844,38.88640334169939],[-92.29328288277877,38.88638625049737],[-92.29318665643335,38.88636472518503],[-92.29310715322153,38.88633086909196],[-92.29305301923425,38.88630155762375],[-92.29297899839999,38.88623973208629],[-92.2925999882424,38.88583290089719],[-92.29254947291354,38.88579943701591],[-92.29248904015002,38.88577254621915],[-92.29243009394473,38.88576038880351],[-92.29237779727305,38.88576016184736],[-92.29231233659108,38.88576945278277],[-92.29222872674733,38.88579041840426],[-92.29217291449486,38.88581528001698],[-92.29209077414957,38.88586139871886],[-92.29201450921684,38.88589900340266],[-92.29195135902275,38.8859388077158],[-92.29186575472156,38.88599151578157],[-92.29179368724357,38.88604232917328],[-92.29171543997127,38.88609088488985],[-92.29164484371393,38.88614069927616],[-92.29156247357733,38.88620828257089],[-92.29149338606422,38.88628164229242],[-92.2914468078392,38.88634519601397],[-92.29140447754324,38.88642036202113],[-92.2913828891303,38.88647593399674],[-92.29136476044593,38.88654613931778],[-92.29135826345725,38.88663486547456],[-92.29135909793627,38.88674254343309],[-92.29137198493083,38.88690558560883],[-92.29139162597058,38.88703765633893],[-92.29141606785906,38.88714469812611],[-92.29144337670094,38.88719696505511],[-92.29149637629935,38.88726092106382],[-92.29157261558369,38.88731901136394],[-92.29165555722105,38.8873685958371],[-92.29175894600317,38.88740485511398],[-92.29186207156985,38.887433908724],[-92.2920300647308,38.88744776892242],[-92.29218538870141,38.88743207197763],[-92.29232470470319,38.88737246826807],[-92.29242483813147,38.8873209163884],[-92.29250196826612,38.88724462942233],[-92.29256315852358,38.88714124441259],[-92.29272341608547,38.88684459162596],[-92.29284615409969,38.88672219310165],[-92.29291048468176,38.88668085941015],[-92.29302416491882,38.88663266372927],[-92.29314359559552,38.88660396501685],[-92.29324754902211,38.88659944137056],[-92.29336199888226,38.88660836067387],[-92.29348072264422,38.88663213826851],[-92.29357061676497,38.88666296358955],[-92.29364984035452,38.88671436397584],[-92.29372003419358,38.88676949208372],[-92.29377678987983,38.88684811533833],[-92.29382544753973,38.8869628519678],[-92.29397035108695,38.88766399101395],[-92.29431409388005,38.88863781046917],[-92.29435309830563,38.88866377740009],[-92.294444134214,38.88869649751802],[-92.29452817214363,38.88870562290925],[-92.29458731242377,38.88869554085885],[-92.29465258408719,38.88867378821414],[-92.29470852717425,38.88861979718504],[-92.295340345768,38.88401318533464],[-92.29534023729379,38.88399682445924],[-92.29533668332701,38.88395586098189],[-92.29532437051688,38.88390535669479],[-92.29530534107127,38.88383607190148],[-92.29527123030516,38.88376865678088],[-92.29524564159108,38.88372265758908],[-92.29520286048344,38.8836709950922],[-92.29512067309504,38.8835902566498],[-92.29506030145592,38.88353091926767],[-92.29499272135128,38.88347942221101],[-92.2949488130325,38.88344222337098],[-92.29485593184305,38.88338025439899],[-92.29474249581526,38.8833270905167],[-92.29463821556025,38.88328333856467],[-92.29452319233253,38.88325021054453],[-92.29443102641653,38.88322717016318],[-92.29435151703709,38.88322522879503],[-92.29426753330627,38.88322298352989],[-92.29415967929681,38.8832251520157],[-92.29410635988268,38.88322836035481],[-92.29401622580824,38.88323206656222],[-92.29392321754572,38.8832492607467],[-92.29384324120511,38.88326823787234],[-92.29376511307909,38.88330623231803],[-92.29371109061496,38.88335850712664],[-92.29368104331685,38.88341578439478],[-92.2936696419315,38.88346324391856],[-92.29366669022892,38.8835183861293],[-92.29367634815969,38.88356406177732],[-92.2936893452783,38.88361935828463],[-92.2937285501817,38.88367430765919],[-92.29378451202894,38.88372243995865],[-92.29391186130917,38.88377312757981],[-92.29403687498542,38.88379720854486],[-92.29442882978357,38.88385987649811],[-92.29446965822405,38.883874528936],[-92.29450250711801,38.88388632297045],[-92.2945423707172,38.88391992763633],[-92.29457508639958,38.8839538582187],[-92.29459703221158,38.88400381442111],[-92.29460874309311,38.88406917570615],[-92.29460588669016,38.88413657890204],[-92.2945852033794,38.88420978717738],[-92.29451688288087,38.88442425614151],[-92.29447092133479,38.88459662360396],[-92.29446113883272,38.88468155188693],[-92.29445255211522,38.88478365255393],[-92.2944819671592,38.88552742326652],[-92.2944839283491,38.88587467870273],[-92.29447597083531,38.88590288000415],[-92.29446263731124,38.88593623910642],[-92.29443650577218,38.88599543849091],[-92.29439569722601,38.88605431429274],[-92.29434782938463,38.88612105477385],[-92.29426443100003,38.88620204680401],[-92.29417615341939,38.8862701170055],[-92.29410475948087,38.88631258669908],[-92.29402710711551,38.8863541035347],[-92.29396553814976,38.88638303611501],[-92.2938593167872,38.88641496772535],[-92.29373889136353,38.88643033196467],[-92.29364460326852,38.88642843487865],[-92.29350715652768,38.8864207424446],[-92.29338111634473,38.88640438412351],[-92.29329001575195,38.88638761182057],[-92.29319526751213,38.88636744216599],[-92.29311603890442,38.88633391654745],[-92.29306003282149,38.88630557610753],[-92.29298318900406,38.88624359767331],[-92.29260529043756,38.88583853283852],[-92.29255459602368,38.88580245801712],[-92.29249561984152,38.8857752978457],[-92.29243683549876,38.88576134466486],[-92.29238452762199,38.88576051781416],[-92.29231763690336,38.88576852815005],[-92.29223533530715,38.88578841354243],[-92.29178922957182,38.88591388284748],[-92.29175277201338,38.88592207801953],[-92.29168814658178,38.88592880741761],[-92.29163161914613,38.88593045995172],[-92.29112265545668,38.88590953375525],[-92.29104248126225,38.88589863106318],[-92.29099853479364,38.8858854756392],[-92.29091803560232,38.88585036618447],[-92.29085163075344,38.88580840886882],[-92.2907655412881,38.88573360013268],[-92.29068897639485,38.88566978633664],[-92.29061128799184,38.88557642673612],[-92.2903386232824,38.88516158078316],[-92.29028759709837,38.88511355582173],[-92.29023952029759,38.88507459961643],[-92.29018186955483,38.88504727790498],[-92.29011062547926,38.88503017256286],[-92.29005814651183,38.88502188042371],[-92.28999027730644,38.88501692576469],[-92.28993684402546,38.88501800235205],[-92.2898731761395,38.8850303036738],[-92.28981789577193,38.88504798698325],[-92.28976547229284,38.88507118939656],[-92.28970123416134,38.88510948512191],[-92.28965317233934,38.88514487504978],[-92.28961676275361,38.88517990421078],[-92.28958009096814,38.88523144378847],[-92.28956026883674,38.88529293613077],[-92.28956054826331,38.88533546589453],[-92.28956776253433,38.88537238959043],[-92.28961491680123,38.88545567515801],[-92.28978179354961,38.88570649219542],[-92.28980867105744,38.88575912448553],[-92.28982168753892,38.88581711870716],[-92.28981484147522,38.88584764162338],[-92.28979576709017,38.88589294985321],[-92.2897671534297,38.88593477991395],[-92.28972965470514,38.88596514308541],[-92.28969204992819,38.88599055538458],[-92.28963462670663,38.88601080213847],[-92.28956413721107,38.8860245509479],[-92.2894849334989,38.88603190850972],[-92.28942659585258,38.88602951884079],[-92.28932905281093,38.88601596400559],[-92.28924867529089,38.88598792418813],[-92.28883151102272,38.88583725864095],[-92.28872941410508,38.88581869891264],[-92.28864330014088,38.88581480020039],[-92.28854014597107,38.88582283027149],[-92.28845023247997,38.88584245668131],[-92.28837844486355,38.88586081981692],[-92.28829215772218,38.88588922610702],[-92.28819892294807,38.88592604594157],[-92.28812783158645,38.88596982443678],[-92.2880700814278,38.88602276353839],[-92.28803575908428,38.8860813176954],[-92.28802776522338,38.88612943688987],[-92.28802755027596,38.8861735418178],[-92.28804862137034,38.88623346796334],[-92.28809837175177,38.88629467488214],[-92.28821788580156,38.88637492636784],[-92.2883602802605,38.88645957522633],[-92.28853133046204,38.88653274124347],[-92.28868672954047,38.88659557902847],[-92.28886710412698,38.8866434089071],[-92.28894437637786,38.88664923792243],[-92.28903088159781,38.88664867594834],[-92.28916668550133,38.8866479562314],[-92.28931564839084,38.88662964930842],[-92.2894263622349,38.88660210633099],[-92.28953225599739,38.8865715089044],[-92.28962448663339,38.88652209255268],[-92.29024585378595,38.88607835433583],[-92.29031815012108,38.88604413325429],[-92.29041503657197,38.88603536492046],[-92.29047385415933,38.886050138054],[-92.29053543754422,38.88607824344091],[-92.2906031250933,38.88611418259258],[-92.29065722761159,38.88615593617779],[-92.2906974048537,38.88619695242642],[-92.29072833584276,38.88625641982617],[-92.2907398462184,38.88630646764246],[-92.29073691119761,38.88635842768731],[-92.29071794300592,38.88641576792224],[-92.29067413344964,38.88649936597983],[-92.29043272689245,38.88683230583876],[-92.29041039372798,38.886892018953],[-92.290406144773,38.88695424159096],[-92.29041691455403,38.88701360873623],[-92.29047022329415,38.88713215849909],[-92.29057567121467,38.88732649780426],[-92.29078616507293,38.88767761015898],[-92.29095843784016,38.88794568068003],[-92.29109672729358,38.88813942202366],[-92.29116287858814,38.88821136285685],[-92.29122045212523,38.88824951697983],[-92.29128476842804,38.88827795847761],[-92.29138623613186,38.88829597852303],[-92.29148679114527,38.88829270107146],[-92.29165947601263,38.88827503236581],[-92.29181405726757,38.88824875328002],[-92.29199934651736,38.88821058749068],[-92.29216192105388,38.88816685098859],[-92.2923146306017,38.88810509122241],[-92.29245222559013,38.88802236026713],[-92.29255061682842,38.88793370149514],[-92.29262166656751,38.88784874336512],[-92.29267414527293,38.88774079521797],[-92.29270800174938,38.88759973643506],[-92.29268163756406,38.88709164437594],[-92.29268966875246,38.88694915591809],[-92.29271406214544,38.88686195284444],[-92.29273261235029,38.88683366899564],[-92.29283649524814,38.88672905773993],[-92.29289516988914,38.88668843583246],[-92.29300898458915,38.88663935101893],[-92.29313096652889,38.88660620625225],[-92.29323481886719,38.88659944014517],[-92.2933499114742,38.88660696256088],[-92.29347426761869,38.8866304420701],[-92.29355693958304,38.88665668870512],[-92.29363869465652,38.88670721187483],[-92.29371208583795,38.88676066471498],[-92.29376849402331,38.88683685449192],[-92.29381885288883,38.88694491451807],[-92.29392583848595,38.88768071930672],[-92.2944090845429,38.88898053990382]]}}
