{"type":"Feature","properties":{"name":"NCAAOSU-6k","legacyMeetId":"8266","distance":"6k"},"geometry":{"type":"LineString","coordinates":[[-97.07725663170535,36.13307105929733],[-97.07805230009735,36.14098140819749],[-97.07799785074435,36.1411008202544],[-97.07794560173878,36.14115909114226],[-97.07780258905142,36.14121329380268],[-97.07762123543483,36.14123609107671],[-97.0774829044143,36.14122475072014],[-97.07713464588056,36.1411923027402],[-97.07701547516348,36.14118041181199],[-97.07691063999994,36.14116086261365],[-97.07677228181367,36.14114630791164],[-97.07652874313173,36.14112841999612],[-97.07638998001784,36.14109504124073],[-97.07625621080788,36.14104534021754],[-97.07598420696935,36.14089138155261],[-97.07582750797346,36.14082862293869],[-97.07562773828354,36.14073951468703],[-97.07544659491616,36.14068101499732],[-97.07518601194363,36.14061934619606],[-97.07499242165028,36.14059453672504],[-97.07477550571542,36.14058811691211],[-97.07458698694406,36.14058942633583],[-97.07446761187423,36.14055836224145],[-97.07438622875783,36.14050050339848],[-97.07431514780599,36.14042295770927],[-97.07428840030246,36.14027157903586],[-97.07427677572738,36.14010083095419],[-97.07426936094241,36.13985788162363],[-97.07430166379503,36.13979142634214],[-97.07436212073955,36.13973667565252],[-97.07448409763498,36.13964385609405],[-97.07484060151897,36.13936864562522],[-97.07491999782394,36.1392314335651],[-97.0749861368931,36.13908181102519],[-97.07509770940639,36.13877686807657],[-97.07516665555109,36.13858295830174],[-97.07521503812033,36.13835508225568],[-97.075265152067,36.13817362367415],[-97.07526474349038,36.13802356777369],[-97.07516374012825,36.13784136568306],[-97.07490325907665,36.13727459708403],[-97.0748122467351,36.13691104429875],[-97.0747193724765,36.13684319458298],[-97.07457047032023,36.1367942100377],[-97.07441390323716,36.13680540040681],[-97.07430431455445,36.13685439998871],[-97.07421727364593,36.13694118366827],[-97.07417109610054,36.13708100372106],[-97.07440635321798,36.13841519661587],[-97.07435841205536,36.13857466592196],[-97.07425283295638,36.13867011275843],[-97.0740561012375,36.13879137080855],[-97.07386373162282,36.13888693227392],[-97.07366481817873,36.13897687109677],[-97.07356265098214,36.13897081205914],[-97.07349539897699,36.13894095359502],[-97.0733806979958,36.13877039243286],[-97.07331773969187,36.13848638512459],[-97.07331235766151,36.13656393826488],[-97.0733620172733,36.13642583752112],[-97.0734257511657,36.13622332421158],[-97.07332195389831,36.13537465976171],[-97.07323771292671,36.13351288861743],[-97.07326047293196,36.13341150279461],[-97.07332698241248,36.13327289650908],[-97.07343055710805,36.13320604716908],[-97.07369718045514,36.13317434824489],[-97.07605683221618,36.13306282610607],[-97.07768433946951,36.13283713636222],[-97.077831267456,36.13287731959709],[-97.07793226067653,36.13295000748494],[-97.077969010856,36.13305637428634],[-97.07797352303086,36.13320744076742],[-97.07778615295993,36.13432670816749],[-97.07731265400017,36.13570366389268],[-97.07674016438173,36.13611435110464],[-97.0766065991876,36.13651861733961],[-97.07646668031448,36.13684735912189],[-97.0759871073286,36.13746413929076],[-97.07595220179974,36.1376137581646],[-97.0761850663757,36.14032999826828],[-97.07619187472166,36.14053211151953],[-97.07616970526522,36.14068945063053],[-97.07609057432879,36.14082760357154],[-97.07596476060867,36.14087586956862],[-97.07586962440381,36.14084842194146],[-97.07570399520567,36.1407774796065],[-97.07553673887782,36.1407084348115],[-97.07530609672584,36.14064427109016],[-97.07506247216666,36.14060542775059],[-97.07487413749593,36.14059114050383],[-97.07467980307501,36.14058903438571],[-97.07460520115639,36.14058830167206],[-97.07451734398154,36.14057174252501],[-97.0744476372336,36.14054553593479],[-97.07436478038824,36.1404833418269],[-97.07432623443573,36.14043561559924],[-97.07430779331261,36.14039598001118],[-97.07428973639897,36.14029259087987],[-97.07427942408476,36.14011908386756],[-97.07426916999084,36.13987852918792],[-97.074276056809,36.1398416656659],[-97.07429878769784,36.13980332959821],[-97.07433525464047,36.13976357726117],[-97.07438249784558,36.13972419380055],[-97.07446671526729,36.13965865389093],[-97.07449926222728,36.13962907110589],[-97.07482801154507,36.13938155674862],[-97.07484906664762,36.13935856934597],[-97.07491285130097,36.13924542222275],[-97.07497974960496,36.13909819950081],[-97.07509507333667,36.13879400095502],[-97.0751623106123,36.13860174197008],[-97.07521109113046,36.13837170799064],[-97.0752552830817,36.1381848702077],[-97.07526776138637,36.13803940030328],[-97.0751744010883,36.13785749319211],[-97.07490742206667,36.13728500999439],[-97.07481828771355,36.1369239064276],[-97.07473899014386,36.13685589894057],[-97.07459692021304,36.13680013256244],[-97.07454100907651,36.13679408011861],[-97.0744320577397,36.13680238915202],[-97.07439428850053,36.13681404004166],[-97.07431644290104,36.13684473096159],[-97.07428561546514,36.13686526565943],[-97.07422308735796,36.13692873824093],[-97.07420482751814,36.13696136490199],[-97.07417231631791,36.13706428250153],[-97.07416703384547,36.13709877904753],[-97.07440590818454,36.13840422407119],[-97.0744021790088,36.13843757758551],[-97.07436061922444,36.13856396417976],[-97.07426371454967,36.13865792343015],[-97.07407492156084,36.13878026034242],[-97.07387765280124,36.13887977859903],[-97.07368729947243,36.13896504728853],[-97.07364347755615,36.13897463392694],[-97.07358372261545,36.13897128925066],[-97.07354258280542,36.13896438111235],[-97.07351254792218,36.13894899377068],[-97.07347734917168,36.13892380761381],[-97.07338634330895,36.13878175128302],[-97.07331998086175,36.13850708863801],[-97.07331736597743,36.13843977238254],[-97.07331007303797,36.13657902090847],[-97.07331384677462,36.13654935151124],[-97.07335473007748,36.13644953570606],[-97.07341971145362,36.13623998851455],[-97.07342731996728,36.13621053507239],[-97.07332075862112,36.13539060855255],[-97.07332029006675,36.13535812878585],[-97.07323920706482,36.13352579376492],[-97.07325614084702,36.13342330213992],[-97.0733206911042,36.13328617250868],[-97.07333851421399,36.13326588218047],[-97.07341113499868,36.13321523416194],[-97.07345120048798,36.13320213055042],[-97.07367147976184,36.13317689117618],[-97.07624618758025,36.13310151009321],[-97.07636059909032,36.13314779512598],[-97.07644372734681,36.13319890680289],[-97.07650006672509,36.13327284692897],[-97.07651777261567,36.13333371109758],[-97.07650910740966,36.13339061905545],[-97.07610928305894,36.13502957946522]]}}
