{"type":"Feature","properties":{"name":"NCAAD3-6k","legacyMeetId":"5278","distance":"6k"},"geometry":{"type":"LineString","coordinates":[[-84.49058809608437,42.70935479535227],[-84.4906114878821,42.70937198808492],[-84.49062927178525,42.70938820861481],[-84.49065451810385,42.70938703376017],[-84.49066406425449,42.70938237993721],[-84.49066211687727,42.70937591651105],[-84.49066518494162,42.70937349704462],[-84.49065803953401,42.70936428031606],[-84.490639915942,42.70935276097858],[-84.49063303725137,42.70934804081071],[-84.490626729677,42.70934359826676],[-84.49062213681663,42.70933760740507],[-84.49061186553257,42.70933468755443],[-84.49061255823372,42.70931989575746],[-84.49061492604729,42.70930635988052],[-84.49060167784226,42.70929123333624],[-84.49058642902531,42.70927207866769],[-84.4905740718357,42.70925715134346],[-84.49055988159267,42.70923675710786],[-84.49054678939974,42.7092171595723],[-84.49053270239048,42.70919524570705],[-84.49051278514061,42.70917021506866],[-84.49049196059791,42.70915001195829],[-84.49047006968422,42.70912555088456],[-84.49045000995156,42.70909675629867],[-84.4904207986891,42.70906873048747],[-84.49039925359828,42.70904332941424],[-84.49037695176256,42.70900712253269],[-84.4903499128835,42.70897425870289],[-84.49032869521146,42.70893512647518],[-84.49028910496605,42.70888889483107],[-84.49026156752385,42.708845295335],[-84.49023456966464,42.70880673070192],[-84.49020220104003,42.70876025806908],[-84.49017201334594,42.70871666523348],[-84.49014329159313,42.70868178099747],[-84.4901263440803,42.70865285467241],[-84.49010066132873,42.70862263880107],[-84.49007614450855,42.70858518431962],[-84.49005210541965,42.70854681934291],[-84.4900218288546,42.7085099365985],[-84.48999428894696,42.70846790701199],[-84.4899745997214,42.70842486829788],[-84.48994848825376,42.7083752761981],[-84.48993111275087,42.70833473473953],[-84.48991178115966,42.70829733654442],[-84.48988908979933,42.70825647342885],[-84.4898712244701,42.70821848021339],[-84.48984602173286,42.70818093192695],[-84.48982223611378,42.70814366884142],[-84.48979959811469,42.70810375833191],[-84.48976979940124,42.70806163306944],[-84.48974287431513,42.70801874386682],[-84.4897131768322,42.70797508982117],[-84.48968094833819,42.70792966436285],[-84.48964464065044,42.70788453810158],[-84.48961481311589,42.70784930872824],[-84.48958126615467,42.70780761993806],[-84.48954675746339,42.70776357014417],[-84.48951852162114,42.70772112016319],[-84.48948392858927,42.70768032244859],[-84.48945002291747,42.70764071932382],[-84.48941716049175,42.70759226761869],[-84.48937837577735,42.70754464996187],[-84.48934415222085,42.70749791794569],[-84.48931756518039,42.70745346441873],[-84.48928880116952,42.70740962029005],[-84.48926512851368,42.7073700344884],[-84.48924357328963,42.70733687661531],[-84.48922254300157,42.70730726197695],[-84.48920160763454,42.70728125201806],[-84.48917848766385,42.70725188915405],[-84.48915347275603,42.70721851255599],[-84.48912689168098,42.70717986371977],[-84.48910617958924,42.70714113682668],[-84.4890791127941,42.70709826413419],[-84.48904800425225,42.70705785431461],[-84.48903062349252,42.7070061556111],[-84.48901182946098,42.70697377598292],[-84.48898337472694,42.70693146591185],[-84.4889672979167,42.70688505474539],[-84.48894768499521,42.70683733144771],[-84.48892822332681,42.70678521099883],[-84.48890880976951,42.70673507773245],[-84.48888910520608,42.70667975992567],[-84.48888910520608,42.70667975992567],[-84.48886823337362,42.70663403456403],[-84.48884874745535,42.70657819635013],[-84.48883341928604,42.70652950044381],[-84.48882362639742,42.70647470131289],[-84.4888153491468,42.70642020670917],[-84.4888044086149,42.70637306497959],[-84.48878738823062,42.70632393555502],[-84.48877638110662,42.70626797745403],[-84.4887672014138,42.70621815589911],[-84.4887474323093,42.70616281235321],[-84.48873875437364,42.70611704246697],[-84.48872322690984,42.70607989730873],[-84.48871012030884,42.70603972088656],[-84.48869396237428,42.70599315445117],[-84.48867951031683,42.70594970004954],[-84.48866573898928,42.70590163386493],[-84.48866195831023,42.70586082879215],[-84.48864304366728,42.7058173959095],[-84.48863113285418,42.70577144165418],[-84.48861849943064,42.70573053967879],[-84.48860430900329,42.70568398328162],[-84.48859294759808,42.70564230657288],[-84.48857640508233,42.70559737722807],[-84.48855901595549,42.70554752100015],[-84.48854360329443,42.70550919570084],[-84.48853035376257,42.70545682179151],[-84.48852002990714,42.70542113421898],[-84.48850775127146,42.70537909303847],[-84.48849217234626,42.70533204204452],[-84.48847531273462,42.70528725190631],[-84.48846147891327,42.70524880469152],[-84.48844578664766,42.70521215825531],[-84.48842166990008,42.70516911029079],[-84.48839350978491,42.70513311100984],[-84.48835404965142,42.70510334594851],[-84.48831097534553,42.70508086714452],[-84.48826743403077,42.70506495335952],[-84.48821508716324,42.70505716330523],[-84.48815470043209,42.70505375575241],[-84.4880890314317,42.70505303021378],[-84.48803069979296,42.70505016624669],[-84.48796687436166,42.70505141602552],[-84.48789835745193,42.70505885278702],[-84.48784944537006,42.70506312657147],[-84.48779752655096,42.70506771004276],[-84.48772703400586,42.70506719207443],[-84.48766743899796,42.70507386777281],[-84.48760496624249,42.70507946248589],[-84.48754361508976,42.70508407824799],[-84.48748354379975,42.70508950386567],[-84.48742617413308,42.70509415306858],[-84.48736312639659,42.70510193916483],[-84.48730323621469,42.70510772656458],[-84.48724296363527,42.70511462574092],[-84.48719039632499,42.70512247842149],[-84.48714197719272,42.7051493795279],[-84.48709015240729,42.70517753910784],[-84.48704726531629,42.70522280344192],[-84.4870216751119,42.7052631760484],[-84.48699873012171,42.70530430714579],[-84.48697494524032,42.70534230122249],[-84.48696376772085,42.70538262699873],[-84.48695619849182,42.70543167258842],[-84.48697164470195,42.70548108746313],[-84.48697901648401,42.70553176013664],[-84.48697999066606,42.7055849458158],[-84.48698310086888,42.70563078122585],[-84.48697110304691,42.70568358161323],[-84.48696621907962,42.70573423472419],[-84.48695875733395,42.7057893476487],[-84.48694835086836,42.70583855477327],[-84.48694027979556,42.70587893029928],[-84.48693299435502,42.70593271199566],[-84.48692473457601,42.70598127553489],[-84.48691868684742,42.70603322765081],[-84.48691702752761,42.70608295649442],[-84.48691498584593,42.70612792020405],[-84.48690714014148,42.70617818056685],[-84.48690342478758,42.70622781998674],[-84.48689593901983,42.70627349384271],[-84.48689341651648,42.70632726820582],[-84.48688877191971,42.7063765400522],[-84.48688517617246,42.70642207158599],[-84.48688322767447,42.70645840087148],[-84.48688488046011,42.70650261364455],[-84.48687615441145,42.70655293608834],[-84.48687614616576,42.70659236783396],[-84.48687636371945,42.70663575906487],[-84.4868860828988,42.70668164581842],[-84.48690657698603,42.70673064870823],[-84.48692503692351,42.70677738407645],[-84.48694235483678,42.70682111734369],[-84.48696392517523,42.70686321394881],[-84.48699433083303,42.7069069968976],[-84.48701951246072,42.70695289472751],[-84.48704306919537,42.70699604050665],[-84.48706693073844,42.70703682964555],[-84.4870883514314,42.70708056048285],[-84.48711138961119,42.70711912681189],[-84.48713283186169,42.7071606636199],[-84.48715469712828,42.70720612233615],[-84.48717944952351,42.70724701756568],[-84.48720121496238,42.70728719950205],[-84.48722119363681,42.70732609202278],[-84.48724076410997,42.70736617523586],[-84.48725899066116,42.70740745078079],[-84.4872772287369,42.70745095335447],[-84.48729396600396,42.70749739605732],[-84.48730563842193,42.7075450244829],[-84.4873149135368,42.7075944158759],[-84.4873233425175,42.70764664985037],[-84.48732203134466,42.7077020154548],[-84.48732384807455,42.70774609941941],[-84.48733207084209,42.70779879514929],[-84.48733360498679,42.70785088662959],[-84.48733587558979,42.70789741459923],[-84.4873390762961,42.70794281663195],[-84.48733293558752,42.70798718626936],[-84.48732863082962,42.70804660677607],[-84.48733496438032,42.70808941731726],[-84.48733032988169,42.70813883962045],[-84.48732770188565,42.70819123254854],[-84.4873304443767,42.70823714733583],[-84.48733289566795,42.70828323929496],[-84.487335521785,42.70833158390909],[-84.48733333662335,42.70837900978614],[-84.48733431557399,42.7084228743565],[-84.48732545432698,42.70847330995077],[-84.4873259198846,42.70852117372257],[-84.4873242895427,42.70856831111023],[-84.48731949714308,42.70861325461172],[-84.48731635377617,42.70866157513682],[-84.48730697382611,42.70870357526503],[-84.48729163505132,42.70875160743221],[-84.48726820636129,42.70879872829462],[-84.48723599924854,42.70883867088986],[-84.48720930199268,42.7088783267088],[-84.48717902770998,42.70891507966461],[-84.48713396456014,42.70896011344396],[-84.487094049972,42.7089982497264],[-84.4870514284163,42.70903971700439],[-84.48701152072948,42.70907203886144],[-84.48697179102805,42.70910511225315],[-84.48693777344425,42.70913596035037],[-84.48690570692968,42.70917670784041],[-84.48686765492185,42.70920314080069],[-84.48683641250643,42.70924048109917],[-84.4868048004465,42.7092822260127],[-84.486761674941,42.70931417835774],[-84.48671053854493,42.70932942508258],[-84.48665612953272,42.70933873669613],[-84.48660650453762,42.70934483376098],[-84.48654948791751,42.70934441670374],[-84.48649010974914,42.70933698053812],[-84.48642914121348,42.70932951051518],[-84.48637284467958,42.70930899391848],[-84.48632776043388,42.70928327772636],[-84.48629420109499,42.70925252117214],[-84.48625040811817,42.70920924080927],[-84.48622346841624,42.70915984284406],[-84.48620210548633,42.70911491362023],[-84.48617265057005,42.70906718763515],[-84.48615195255041,42.7090172224847],[-84.48612741508283,42.70896812887424],[-84.48610656342392,42.70892061497233],[-84.48608861314752,42.70887441302271],[-84.48607293050625,42.70882879476298],[-84.48605253956978,42.70878002264723],[-84.48603830093745,42.70873192259891],[-84.48602094058529,42.70867905782274],[-84.48602272661823,42.70863583663855],[-84.48601466571466,42.70858065880476],[-84.48600019604748,42.70852175282339],[-84.48600002060847,42.70847220858006],[-84.4860027916497,42.70842800787575],[-84.48599974287599,42.70838305494739],[-84.4859979969286,42.70833961928627],[-84.48599697549507,42.70829335063294],[-84.48599724736954,42.70824920876898],[-84.4860023803002,42.70820593278178],[-84.48599964441449,42.70815807545468],[-84.4860011530225,42.70811055770785],[-84.48599873478764,42.70806661120716],[-84.48600051702239,42.70801482486322],[-84.48600217091497,42.70796747085872],[-84.48600448731126,42.70791690307093],[-84.48600896025884,42.70786765256785],[-84.48600646358395,42.70781581954973],[-84.48600523180741,42.70776418088862],[-84.48599866871254,42.70772188797769],[-84.48599981227929,42.7076722873513],[-84.48600017344503,42.70762080687697],[-84.48600721429509,42.7075707677551],[-84.48600683522274,42.70751997328257],[-84.48600701924076,42.7074634017784],[-84.4860161608804,42.70741451317085],[-84.4860166714266,42.70735820274761],[-84.48601629923903,42.70730485645787],[-84.48601855710376,42.70725799178412],[-84.48602382544212,42.70720636453225],[-84.48602710278637,42.70715877488592],[-84.48603311924255,42.70711046220534],[-84.48603471058982,42.70706474044334],[-84.48604757437289,42.70702034924508],[-84.4860476675055,42.70697226311854],[-84.48605941784784,42.70692437142537],[-84.4860602571095,42.70687413377462],[-84.48606408716874,42.70682966279894],[-84.48606781664509,42.70678177478134],[-84.48607362851172,42.70672996774645],[-84.48607948933983,42.70668343321218],[-84.48608560322253,42.70663423524616],[-84.48609114497582,42.70658806039309],[-84.48609634022233,42.70654166015292],[-84.48610071756173,42.70649431448604],[-84.48610418274437,42.70644295292721],[-84.48610648220034,42.70639422404769],[-84.48611404358208,42.70634286046148],[-84.48612261408718,42.70629243462899],[-84.48612882891261,42.70624644900968],[-84.48613497382227,42.70619948973217],[-84.48612950678594,42.70615508236864],[-84.48613154768702,42.70610799958339],[-84.4861356019142,42.70606523218213],[-84.48613431611393,42.70601330485126],[-84.48613845361817,42.70596496882413],[-84.48614383520267,42.7059201040986],[-84.486144221832,42.705872287348],[-84.48613707736817,42.70582436074653],[-84.48613554214373,42.7057873986813],[-84.48612693404017,42.70574368570285],[-84.48612618728647,42.70570777669663],[-84.48612273716556,42.70567173226945],[-84.48611111181262,42.70564016338149],[-84.4861001632389,42.7056046708424],[-84.48608353365158,42.70557199224441],[-84.48605066648379,42.70554627720908],[-84.48601727553822,42.70553465977058],[-84.48597187974961,42.70552904495199],[-84.48592984389725,42.70552263382652],[-84.48588501134259,42.70551906301981],[-84.48583707402135,42.70552411656906],[-84.48578881621779,42.70553313306183],[-84.4857513546806,42.7055418022954],[-84.4857073644662,42.70555552275628],[-84.48565667611494,42.70558471076804],[-84.48562533436994,42.70561652952199],[-84.4855956182871,42.70564795557463],[-84.48556693448421,42.70568462622734],[-84.48553987509442,42.70571870399064],[-84.4855141671383,42.70575882545297],[-84.4854810133382,42.70579951428523],[-84.48544250737547,42.70583818377416],[-84.48539942505921,42.70588227422554],[-84.48536648331925,42.70592537274954],[-84.48533680361693,42.70596705717531],[-84.48530217656364,42.70600620771826],[-84.48526755013862,42.70604726631385],[-84.48523563908738,42.70608629572906],[-84.48520163520728,42.70612818307531],[-84.48516694434714,42.70616170988557],[-84.48512102490638,42.70620266617799],[-84.48507946142992,42.7062431716051],[-84.48504115665662,42.70628149569178],[-84.48500586789697,42.70631562503058],[-84.48496796445066,42.70635228649036],[-84.48494304580562,42.70639240129763],[-84.48491153702628,42.70643537676351],[-84.48489214799356,42.70647368283037],[-84.48487275635824,42.70651973367429],[-84.48486419797926,42.70656402049501],[-84.48485089039731,42.70661034334663],[-84.48484431607648,42.70666361052519],[-84.48483946887565,42.70671756359331],[-84.48483095701,42.7067661415834],[-84.48482453753721,42.70680990979523],[-84.48482387797655,42.70686150547557],[-84.4848284443308,42.70689732657948],[-84.48483165619533,42.70693097617605],[-84.4848306214619,42.70697323654277],[-84.48482493038236,42.70701765006002],[-84.48482499073359,42.70705726848199],[-84.48482710816427,42.70709706199308],[-84.48482761893828,42.70714390204387],[-84.48482920850341,42.70719714758509],[-84.48483407643056,42.70725030316466],[-84.48483073373093,42.70730698559027],[-84.48483227831579,42.70735192168355],[-84.48483290665466,42.70740389478275],[-84.48483019140856,42.70745392930559],[-84.48482879823177,42.70749460737712],[-84.48483308803469,42.70754884434675],[-84.48483255187534,42.70759223505573],[-84.48483916789614,42.70764509138674],[-84.48484251849143,42.70769300913672],[-84.4848444714694,42.70774164910628],[-84.48485029309113,42.70778300081331],[-84.48486775083529,42.70782764836567],[-84.48489922516987,42.70787320002099],[-84.48492720198276,42.70790551792278],[-84.48497461132281,42.70794259673021],[-84.48502348225445,42.70797593293516],[-84.48508490217404,42.7080094560559],[-84.48514547557232,42.70804090237095],[-84.48519594247409,42.70807590868105],[-84.48524865609942,42.70811026499033],[-84.48529907714142,42.70814248487466],[-84.48534431246071,42.70818179274804],[-84.4853884840262,42.70821977390409],[-84.48543144808475,42.70825137471805],[-84.48547349387049,42.70828896744474],[-84.48550242869769,42.70832915210913],[-84.4855295372232,42.70837198049853],[-84.48555232060404,42.70841967724424],[-84.485572330265,42.70846906789826],[-84.48558802446067,42.70852205238933],[-84.48559561637846,42.70857241402641],[-84.48559555129621,42.70862561170165],[-84.4855747079754,42.70867270378281],[-84.4855421618303,42.70872265826187],[-84.48550666071282,42.70876438600337],[-84.48547997084934,42.70880170125609],[-84.48545268769476,42.70884272961138],[-84.48542965998793,42.70887514125629],[-84.48540547337176,42.7089093088346],[-84.48537528865612,42.70893444078061],[-84.48535274994434,42.70896626901134],[-84.485333518682,42.70899536036465],[-84.48531660065768,42.70902390624997],[-84.48530542509805,42.70906247360036],[-84.4852900591466,42.70909463586332],[-84.48526835296852,42.70913175057786],[-84.48524420347634,42.70917748917378],[-84.48521751843504,42.70922005074986],[-84.48519660915669,42.70926188023673],[-84.48517610068924,42.70930376220713],[-84.4851554265127,42.70935091529126],[-84.48513312940523,42.70939504954894],[-84.48510924721442,42.70943771752859],[-84.48508795045548,42.70948306159028],[-84.48506346882196,42.70952966522881],[-84.48504264196403,42.70957581148721],[-84.48501727615245,42.70960666959284],[-84.48499491764763,42.70964185179172],[-84.4849763216878,42.70967537227173],[-84.48494842794969,42.70971463412632],[-84.48493616351,42.70974591642343],[-84.48491294670377,42.70977187942694],[-84.48489438861009,42.7098082768817],[-84.48487740758029,42.70983192787666],[-84.48486955611745,42.70985957169668],[-84.48482701175499,42.70987465890934],[-84.4847870715847,42.70990182226296],[-84.4847631697107,42.70993653901881],[-84.48475328455805,42.70997455374339],[-84.48474732129597,42.71000860974502],[-84.48474732129597,42.71000860974502],[-84.48475914114584,42.7100472514474],[-84.48478022918276,42.71008967998214],[-84.48481115488703,42.71012824000415],[-84.48484664335693,42.71016307301947],[-84.48485399544914,42.71014478464001],[-84.48488612528196,42.71014961011619],[-84.48491776079352,42.71015620069151],[-84.48499511552941,42.71018412109255],[-84.4850642119105,42.71023391561359],[-84.48511947965804,42.71027801447636],[-84.48518145273023,42.71032169591954],[-84.4852368332813,42.71035114593282],[-84.48530109561781,42.71037878452066],[-84.48537635897156,42.71039784966985],[-84.48544377523484,42.71042731849497],[-84.48551523327177,42.7104579160271],[-84.48558936044651,42.71049034174381],[-84.48566014015337,42.71052220621883],[-84.48573198762733,42.71055462749469],[-84.485799672913,42.71058233945123],[-84.48586908129505,42.71060878825533],[-84.48593966056092,42.71063448563847],[-84.48602012407098,42.71065496235263],[-84.48608638538322,42.71066148562849],[-84.48615706923395,42.71066197921814],[-84.48622687732951,42.7106642335745],[-84.48629407407617,42.71066381749493],[-84.4863582006173,42.71066196325261],[-84.48641617688693,42.71066113248179],[-84.48648148158854,42.71066214321933],[-84.48654384630466,42.71066135531645],[-84.48661001838813,42.71065605415841],[-84.48667725193665,42.71065517753783],[-84.4867353227406,42.71064756789175],[-84.48679095367753,42.71063619280832],[-84.4868461230283,42.7106134436503],[-84.4869032037904,42.71058747383819],[-84.48696021108496,42.71055866385456],[-84.48700940907075,42.71052807841529],[-84.48706072194541,42.71049735891599],[-84.48710970024528,42.71046896496024],[-84.48716015195025,42.710436937842],[-84.48720800255077,42.71040253039219],[-84.48726098288418,42.71036638269484],[-84.4873095728533,42.71033494328612],[-84.48735915469719,42.71030208991126],[-84.48741310132439,42.71026856506737],[-84.48745798357345,42.71024142699403],[-84.48752028309967,42.71020300496704],[-84.48757051855254,42.71017155337659],[-84.48761193767767,42.71014311739859],[-84.48763962375143,42.71011196719992],[-84.48766715301905,42.71007615742991],[-84.48769089368811,42.71003093076838],[-84.48771779586559,42.70998624402932],[-84.48775886396625,42.7099364191838],[-84.48780716722976,42.70988657931141],[-84.48785280482828,42.7098464540646],[-84.48789975496243,42.70981120899125],[-84.4879520306567,42.70978539301256],[-84.48800516959791,42.70975994053874],[-84.48805889956726,42.70977095013676],[-84.48812677663975,42.70976358646849],[-84.48819300225404,42.70977958505007],[-84.48826232580389,42.70979232876015],[-84.48833583181354,42.70981143987402],[-84.4884082276111,42.70982062690722],[-84.48846675809638,42.70983523957447],[-84.48853775691471,42.70985185527167],[-84.48860337556032,42.70985628296917],[-84.48866001716381,42.7098709238275],[-84.48872178678802,42.70988239581592],[-84.48878565744877,42.70989668566913],[-84.48884968361469,42.70990543333135],[-84.4889042164906,42.70991891829571],[-84.48897564462168,42.70993319389924],[-84.48903814694339,42.70994773143332],[-84.48910343026725,42.70995655008861],[-84.48916885255097,42.70996907039209],[-84.48922189104756,42.70997638179789],[-84.4892793685427,42.70998095618653],[-84.4893436456499,42.7099998473839],[-84.48940266506605,42.71001080084389],[-84.48946255764345,42.71001748695628],[-84.48952124399172,42.71003231609377],[-84.48956952321205,42.7100380174798],[-84.48962738014121,42.71005021313167],[-84.48969213892903,42.71006042248991],[-84.4897564518656,42.71006905780516],[-84.48981514532021,42.71008469821247],[-84.48987404140739,42.71009456190433],[-84.48993544898241,42.71010458937885],[-84.4899950414268,42.71011717954237],[-84.49005020173645,42.71013009892162],[-84.49010808652149,42.71014841377844],[-84.49016960924396,42.7101666462919],[-84.49022769869309,42.71018292739557],[-84.4902807930505,42.71019833262442],[-84.49033649349676,42.71019960884699],[-84.49039527770968,42.71019761772391],[-84.49046154897479,42.7101968278085],[-84.49053066385329,42.71020331983772],[-84.4905942291472,42.71021441146613],[-84.49065896840298,42.71022431124535],[-84.49072475974499,42.71023272586348],[-84.4907839036465,42.71023828469946],[-84.49085714992798,42.71024785710252],[-84.49092745342992,42.71025654624345],[-84.49099749739179,42.71026700317854],[-84.49106151705531,42.71028241493224],[-84.49112966169724,42.71029559642915],[-84.49119699305017,42.71030674034562],[-84.49126847145634,42.71031701418671],[-84.49132062110972,42.71032716644268],[-84.49137657879612,42.71034550576229],[-84.49144537391193,42.71036309587566],[-84.49150676135324,42.71037958143473],[-84.49156604207096,42.71039800088753],[-84.49163190439019,42.71041664779323],[-84.49169415595252,42.71043036063019],[-84.49175344662692,42.71045173776923],[-84.49181387967114,42.7104696091525],[-84.49187136707751,42.71048931151429],[-84.49194073751204,42.71051040864857],[-84.49197751493374,42.71053795173857],[-84.4920245469233,42.71057147658765],[-84.49206505604035,42.71059483493926],[-84.49210772100795,42.71063282721917],[-84.49215144310993,42.71067174278326],[-84.49219991712326,42.71070001637219],[-84.49224503984779,42.71072014076883],[-84.49231428586617,42.71074366174728],[-84.49237039546222,42.71073391412468],[-84.49242867069736,42.71072262925861],[-84.49248151275155,42.71070080752647],[-84.49252065522286,42.71067147463737],[-84.49255516775023,42.71064425257057],[-84.49257428923653,42.71060968338947],[-84.49258207820024,42.71056871502446],[-84.4925617511557,42.7105409148914],[-84.49255566248485,42.7105030570769],[-84.49253842386689,42.71045878152376],[-84.49252453829823,42.71042171749561],[-84.4925084056869,42.71038759732969],[-84.49247675766745,42.71035190803508],[-84.49244764437151,42.71031412039326],[-84.49240791302961,42.71028244857422],[-84.49236168977237,42.71024813851768],[-84.49231132310285,42.71021846185595],[-84.49226538192976,42.71018098112708],[-84.49223242273175,42.71013993441942],[-84.49219380146434,42.71009766516203],[-84.4921601577798,42.71006085857679],[-84.49211843729285,42.71002680949497],[-84.4920841123293,42.70998978881923],[-84.49204329130333,42.7099530406577],[-84.49200028125549,42.70991471005087],[-84.49196763078557,42.7098779163038],[-84.49192699077108,42.70982952714088],[-84.49188452955933,42.70978530957252],[-84.49184826369518,42.70974107556764],[-84.49180677314612,42.70969515748104],[-84.49176617230188,42.70965004795534],[-84.49172450706381,42.70960527306035],[-84.49168416770596,42.70956202536383],[-84.49164057239106,42.70952366536294],[-84.49159317242722,42.70948257044115],[-84.49154123611028,42.70944702229297],[-84.49149404729741,42.70940707080945],[-84.4914367304173,42.70936770419085],[-84.49138327860295,42.70932660571491],[-84.49133041705116,42.70928872488967],[-84.49127992249807,42.70925225622553],[-84.49123360366379,42.70921723980695],[-84.49118467245083,42.70918183284378],[-84.49113216733822,42.70914635714268],[-84.49108571818783,42.70911139007231],[-84.4910305622103,42.70907482676184],[-84.49097553372847,42.70904323677956],[-84.4909177856834,42.70900598591047],[-84.49086655566286,42.70896629744101],[-84.49081934638455,42.70892833197802],[-84.49077232899609,42.70889093958549],[-84.49072068815543,42.7088573900492],[-84.49067544656833,42.70881381543711],[-84.49063012681995,42.70877800543281],[-84.49057591842006,42.70874349881112],[-84.49052450137478,42.70870540148763],[-84.4904782665557,42.70866766981302],[-84.49043021949016,42.70862631892714],[-84.49038367623717,42.7085909994721],[-84.49034115750209,42.7085484002871],[-84.49030844080346,42.70850005194438],[-84.49027210581036,42.70846345526342],[-84.49023632323973,42.70842554886158],[-84.49019198011531,42.70838824775192],[-84.49013840557609,42.70834788493676],[-84.49009968248853,42.70830656779606],[-84.49005392094992,42.70826391047787],[-84.49001482093361,42.70821903909211],[-84.48998940901588,42.70818165591591],[-84.48995373256157,42.70813726734387],[-84.48991781146269,42.70809196993198],[-84.48988667449672,42.70805067007711],[-84.48985307353199,42.70800136863696],[-84.48982370817549,42.70795432964215],[-84.48979282891375,42.70791088480059],[-84.48975859515653,42.70786188827051],[-84.48973196343692,42.70781416517163],[-84.48971240487897,42.70776952734646],[-84.4896896295128,42.70772293034467],[-84.48965272375773,42.7076790400539],[-84.48962641361845,42.70763093174578],[-84.48960027142115,42.70757230167666],[-84.48957042499268,42.70752164679132],[-84.48954505408135,42.70747484928558],[-84.48952066968599,42.70742796794631],[-84.48949775228336,42.70738381323752],[-84.4894766983922,42.70733631151346],[-84.48944794517787,42.70728811556016],[-84.48941436005445,42.70724898993922],[-84.48936924427157,42.70721360346757],[-84.48935021232208,42.70717258783759],[-84.48934146821658,42.70713183586655],[-84.48933893290823,42.70709473440441],[-84.48934092882142,42.70705282247181],[-84.48932883701947,42.70700501089127],[-84.48931083104208,42.7069632667117],[-84.48929195873356,42.70692323699069],[-84.48928018166602,42.70687784436272],[-84.48926156102918,42.70682383247138],[-84.4892343567304,42.70678007199555],[-84.48920631380798,42.70673253270259],[-84.48916888589667,42.70668681431626],[-84.48913474559482,42.70664458932882],[-84.4890898771468,42.70659527067898],[-84.48904468904846,42.70654689193028],[-84.48900113309995,42.70649781124551],[-84.48896034283607,42.70644968816429],[-84.48892912094281,42.70640279230207],[-84.48890239862627,42.70635335599446],[-84.4888714584919,42.70630345538571],[-84.48885089333847,42.70625020783623],[-84.4888316938101,42.706192710815],[-84.4888165106994,42.70614342504677],[-84.48879050792479,42.70609160793764],[-84.48877134654977,42.70604393324901],[-84.48874954260012,42.70599072103792],[-84.48872388005272,42.70593860591626],[-84.48871373005178,42.70588880541293],[-84.48869894197563,42.70583833481257],[-84.48867954521126,42.70579176839325],[-84.48865762860453,42.70573545790683],[-84.48863868599682,42.70568149769298],[-84.48862198971102,42.70562730476289],[-84.48860806790107,42.70557903509233],[-84.48859622133727,42.70553725424071],[-84.48858237278797,42.70548569292918],[-84.48856163626665,42.70543451506261],[-84.48854263907562,42.70538393414176],[-84.48852124965347,42.70533787726076],[-84.4884978255918,42.70529054934318],[-84.48847083439104,42.70524293801299],[-84.48844952972075,42.7052035917063],[-84.48842365542377,42.70515955930087],[-84.48838248879956,42.70512957147545],[-84.48833889893712,42.70510358449148],[-84.48828542662096,42.70508886644753],[-84.4882287018763,42.70507135882967],[-84.48816520216,42.70506709808523],[-84.48810850175866,42.70506757813707],[-84.48803755332086,42.70506937658355],[-84.48797182804006,42.70506715383264],[-84.48790319570978,42.70507008661991],[-84.48784436066207,42.70508061449218],[-84.4877712203499,42.7050813667238],[-84.4876931860193,42.70508244153972],[-84.48761328340622,42.70508598830523],[-84.48754509492468,42.70509171218145],[-84.48747474853214,42.70509635982283],[-84.4874084858217,42.70510375762265],[-84.48733695621337,42.7051133358693],[-84.48727121530368,42.70511928261494],[-84.48720784562481,42.70512562171886],[-84.4871472625713,42.70514956190714],[-84.48709415820511,42.70518165498125],[-84.48703639410905,42.70520827057386],[-84.4869828755304,42.70523060296851],[-84.486923397292,42.70525528312289],[-84.48686480414665,42.70527843801892],[-84.48680524617949,42.70529693072811],[-84.48673793317045,42.70530574779556],[-84.4866758804045,42.70531138889697],[-84.48661174321359,42.7053282509385],[-84.48654643125194,42.70533726361804],[-84.48646547224392,42.70534959254993],[-84.48640542456683,42.70536213945527],[-84.48634286166775,42.70538063888655],[-84.48628455233946,42.70539929955696],[-84.48622892883402,42.70541973290079],[-84.48617101704237,42.70544381021842],[-84.48617101704237,42.70544381021842],[-84.48612178438654,42.70546065540065],[-84.48606417038339,42.70547595105759],[-84.48600766372142,42.70548351522127],[-84.48594405264477,42.70549430378001],[-84.48589671116386,42.70549947092411],[-84.4858303451786,42.70551079886679],[-84.48577116588207,42.70551637092958],[-84.48571605626958,42.7055448487251],[-84.48565465181919,42.70557307779784],[-84.48560900154463,42.70559879279614],[-84.48558450151192,42.70563342143686],[-84.48555052301359,42.70567787047466],[-84.48552205155607,42.70571653644377],[-84.485491953154,42.70576432884447],[-84.48545511807461,42.70580709492062],[-84.48542129349359,42.70585382817514],[-84.48538376038371,42.70589916052149],[-84.48534581976769,42.70594742403077],[-84.48530938072834,42.70599488056299],[-84.48527306758722,42.70603732620896],[-84.48523058298042,42.70607792961648],[-84.48519622892006,42.70612199383451],[-84.4851557099796,42.70616969253189],[-84.48511804455217,42.70620586545821],[-84.48507418035491,42.70624708545068],[-84.48503131256201,42.70628857190862],[-84.48499626382446,42.70632861505572],[-84.4849601878144,42.70637154794506],[-84.4849339139955,42.70641225582379],[-84.48491383944203,42.70645472526217],[-84.48489717074482,42.70649874927283],[-84.48488168038601,42.7065418748847],[-84.48486371400162,42.70659589572907],[-84.48486065510946,42.7066499312587],[-84.48484961693356,42.70670622702524],[-84.48484206819883,42.7067507281781],[-84.48483354950889,42.70679828474714],[-84.48483192907626,42.70684969621979],[-84.48483080789552,42.7069028281708],[-84.48482342651745,42.7069508905826],[-84.48482807987948,42.70699930270492],[-84.48483321853655,42.70705099697199],[-84.48484249006522,42.7071005154622],[-84.48484192844742,42.70715138687495],[-84.48484554770994,42.70720085418285],[-84.4848511585747,42.70725582179234],[-84.4848534623037,42.70730432540704],[-84.48485493001779,42.70735950800435],[-84.48486008555456,42.70740712748401],[-84.4848596864943,42.70747159247139],[-84.48486569603297,42.7075143734894],[-84.4848779684921,42.7075677060939],[-84.48487597579685,42.70761666336644],[-84.48487971804636,42.70766663322322],[-84.48488375077729,42.70772053769812],[-84.48488152912252,42.70777351917525],[-84.48489560349766,42.70782173994727],[-84.4849191247075,42.70786780401516],[-84.48494494215365,42.70791390561601],[-84.48498534094234,42.70795068384186],[-84.48504306188397,42.70799484875386],[-84.48510129818303,42.70803487352971],[-84.48516390116697,42.70806692805287],[-84.48521597508696,42.70810603773607],[-84.48527535464527,42.70814453829166],[-84.48532937039772,42.70818022086018],[-84.48538115499228,42.70821826401593],[-84.48542580574448,42.70825562217537],[-84.48546811853893,42.70829540408638],[-84.4854971101945,42.7083390053272],[-84.4855265199736,42.70838780979945],[-84.48555194224085,42.70843711891471],[-84.48557288164456,42.70848524572811],[-84.48558707847323,42.70853066193943],[-84.48559990000463,42.70857253278081],[-84.48560300505687,42.70862072234078],[-84.48559472977371,42.70865934145178],[-84.48557306966939,42.70869779400135],[-84.48554753941725,42.70873640982023],[-84.48552172095732,42.7087769276536],[-84.4854915184544,42.70880570365837],[-84.48546250675614,42.70884917472043],[-84.48544500246292,42.70888529309113],[-84.48541048248727,42.70892296548493],[-84.48538498210795,42.7089547174426],[-84.48535765096149,42.7089904800813],[-84.48533302425788,42.70903174557913],[-84.48531918950265,42.70905662045634],[-84.48529811114568,42.7090876922043],[-84.4852751829654,42.70912317151802],[-84.48524931059497,42.70916949907993],[-84.48522372795604,42.7092176698714],[-84.48520640384803,42.709267610109],[-84.48518320496964,42.70931639112438],[-84.48516368833916,42.7093630635626],[-84.48514302915902,42.70939975562492],[-84.48512089885328,42.70944732731781],[-84.48510222338017,42.70948683343558],[-84.48508557039338,42.70952726717041],[-84.48506139279327,42.7095630412126],[-84.48503283072984,42.70959553783521],[-84.48501263228417,42.70962263446603],[-84.48498703799147,42.70964560976624],[-84.48497527001929,42.70968477024326],[-84.48496348968641,42.70971505334067],[-84.48494497135894,42.70974533751176],[-84.48492772538725,42.70977795059243],[-84.484912914489,42.70980000537241],[-84.48489147688414,42.70983087594387],[-84.48486416405906,42.70985593522474],[-84.4848363878631,42.70988058823385],[-84.4847895267058,42.70990033122486],[-84.48475830448969,42.70992735537553],[-84.48474435479177,42.70995818276726],[-84.48474910042823,42.70999037789036],[-84.48476494136206,42.71002635479996],[-84.48478269091918,42.71006593221875],[-84.48480993894113,42.71010725330084],[-84.48484700235285,42.71014839441826],[-84.48489577617363,42.71018491410559],[-84.48494827898953,42.71021763907761],[-84.48500534403352,42.71025065398985],[-84.48506763790272,42.71027645447425],[-84.48512790283098,42.71031072664576],[-84.4851876783695,42.71034865458689],[-84.48524229024594,42.71038084465382],[-84.48530062205438,42.71041013858621],[-84.48536224203175,42.71043629854414],[-84.48542624577756,42.71046065555916],[-84.48547925899969,42.71048711946231],[-84.48554039014985,42.71051224286092],[-84.48560054456489,42.71053841471286],[-84.48563077961764,42.71055300068935],[-84.485716253552,42.71059045444153],[-84.48579116677767,42.71061618797815],[-84.4858577191711,42.71063691344398],[-84.4859287451228,42.71065610754719],[-84.48599987973502,42.71066719435056],[-84.48606619381174,42.71067567660005],[-84.48612868513256,42.71068516834445],[-84.48618683294407,42.71068443223518],[-84.48625482382411,42.71068108705591],[-84.48631516312393,42.71067954565238],[-84.48636655688263,42.71068047846728],[-84.4864188965214,42.71067847924191],[-84.48648209946508,42.71067697750027],[-84.48654635882765,42.71067663210764],[-84.48660401830254,42.71067630369415],[-84.4866627545049,42.71067249562223],[-84.48672098473662,42.71066397076107],[-84.48676836652916,42.71065057432377],[-84.48683150039358,42.71062810882888],[-84.48689615707188,42.71059812081911],[-84.48694830044023,42.7105728520587],[-84.48700115610346,42.71053616674669],[-84.4870488743458,42.71050472480196],[-84.48710394321702,42.71046831074781],[-84.48715702983047,42.71042874824974],[-84.48720875710379,42.71039358982658],[-84.48726349714754,42.71036058537315],[-84.48731839496777,42.71032627894003],[-84.48737284717443,42.7102907381176],[-84.48742233365998,42.71025934323019],[-84.48747229800514,42.71022674082382],[-84.4875197141042,42.71019716117249],[-84.48756973148808,42.71015485469229],[-84.48760098817068,42.71012315163912],[-84.48763178111851,42.71008150329063],[-84.48765049862084,42.71004156931789],[-84.48768033414277,42.70999590807753],[-84.48768422158432,42.70994017573996],[-84.48769124743158,42.7098705795444],[-84.48769810937124,42.70980956323712],[-84.48769020695855,42.70976305624622],[-84.48767744911919,42.70971342849082],[-84.48765750344765,42.70966096555279],[-84.4876248686841,42.70960714455313],[-84.48760079659095,42.70955678693393],[-84.48756847561891,42.70950352988459],[-84.48754273113619,42.70945136636844],[-84.48751238390419,42.70940135074913],[-84.48748880992474,42.70934938305849],[-84.48746658841824,42.70929870622606],[-84.48744492186218,42.70924669830563],[-84.48742763742975,42.70919330592373],[-84.48741413947099,42.70914363932857],[-84.48740862973554,42.70909333301881],[-84.48740417792509,42.70905418467886],[-84.48739945638206,42.70901949150203],[-84.48739057096769,42.70898225352489],[-84.48738142428586,42.70895383191319],[-84.48736929243425,42.7089206705451],[-84.48735867206666,42.70889168205036],[-84.4873497988332,42.70885894460506],[-84.48734645114618,42.70883506391078],[-84.48733889880924,42.70880936426129],[-84.48733210626789,42.70878822577921],[-84.48733245459478,42.70876421711163],[-84.48733508919592,42.70873816500045],[-84.4873381665424,42.70871703669212],[-84.48733865516161,42.70869914068257],[-84.48734380361708,42.70867849563633],[-84.48734168567552,42.7086481851113],[-84.48734081081409,42.7086234635914],[-84.48733552955034,42.70859097022851],[-84.48733775290063,42.70855513369704],[-84.48734805625251,42.70852463201717],[-84.48734736785669,42.70848973258104],[-84.48735542253937,42.70844195475838],[-84.48734116166207,42.70840537490261],[-84.48734676074518,42.70837343573581],[-84.487346483401,42.70832979722477],[-84.48735190957167,42.70829748960989],[-84.48735177877312,42.70825749406443],[-84.4873455914327,42.70821868875731],[-84.4873415595587,42.70817323745948],[-84.48734640232483,42.70812917167491],[-84.48735196929421,42.70808913039522],[-84.48734817139251,42.70804035592927],[-84.48734472016152,42.70799437883142],[-84.48734768879348,42.70795654848376],[-84.48735264746126,42.70791660044486],[-84.48736019555467,42.70786986559803],[-84.48735909406012,42.70781558269908],[-84.48734514676542,42.70777166202105],[-84.48733478973243,42.70771617996522],[-84.48733600063012,42.70766654896202],[-84.48733535477261,42.70761477054505],[-84.4873305595272,42.70757149565927],[-84.48732673281842,42.70752759324667],[-84.48731939220096,42.70747507028002],[-84.48731637963216,42.70742732949962],[-84.48732038146959,42.70738538878909],[-84.48732353753853,42.70733951431266],[-84.48734023796149,42.70729175995598],[-84.48737552541311,42.70724444425532],[-84.4874051315654,42.70721951008183],[-84.48745957557082,42.70717890762862],[-84.48749580909333,42.70716616663592],[-84.48753058680819,42.70714109075289],[-84.48757375443438,42.70712384189355],[-84.48761752883416,42.70710069734376],[-84.4876610741275,42.7070769251707],[-84.48770715699153,42.70704661379401],[-84.48774087511318,42.70701827563824],[-84.48778365193436,42.70699535540456],[-84.48782036292715,42.70696659997442],[-84.48786400346354,42.70693797456617],[-84.48791273916524,42.70690611421001],[-84.48795719340184,42.70686793455906],[-84.48800675837136,42.70683872332515],[-84.48805422430505,42.70681226282464],[-84.48810552255144,42.70678523975884],[-84.48815102467982,42.70674476306007],[-84.48819839484113,42.70671248451039],[-84.48824741232815,42.7066803659311],[-84.48829854336732,42.70665556149501],[-84.48833898545799,42.70663406547966],[-84.4883835046069,42.7066104186444],[-84.48843066995039,42.70658423856734],[-84.48847698414104,42.70656224858401],[-84.48852821965892,42.70654153112635],[-84.48857563689124,42.70652808027828],[-84.48862306226486,42.70651631562596],[-84.48867658045786,42.70652373056759],[-84.48872804338153,42.70653730301943],[-84.48876068132226,42.70658037774833],[-84.48877048561334,42.70662270005231],[-84.4887603304462,42.70666586955035],[-84.4887516877364,42.70670996385313],[-84.48873763319331,42.70674866385171],[-84.48872124385247,42.70679042804433],[-84.48870952719128,42.70683928309766],[-84.48870466129839,42.70688234318311],[-84.48869594329939,42.70691677314795],[-84.48867978935876,42.7069644515063],[-84.48867278697132,42.70700519573609],[-84.48866389410746,42.70704237463961],[-84.48864386270844,42.70708787437935],[-84.48862727937161,42.70713139423755],[-84.48861669303386,42.70717831103244],[-84.48862339415177,42.70722303868248],[-84.48862420803633,42.70727460471377],[-84.48861913814481,42.70732990328766],[-84.48862565233095,42.7073829267166],[-84.48863479712627,42.70743160308614],[-84.48864252178903,42.70747812579967],[-84.4886602177039,42.70752076271577],[-84.48867635551377,42.70756283978696],[-84.48869850778655,42.70760684926621],[-84.48871387765182,42.7076550211926],[-84.48873440633162,42.70770072699068],[-84.48875702077248,42.70774864804179],[-84.48877731647106,42.70779289942205],[-84.48879756812498,42.70783771433266],[-84.48881637562667,42.70788262252834],[-84.48883899173698,42.70792745845925],[-84.48886178362166,42.70797094783521],[-84.48888458729397,42.70801216052436],[-84.48890823435521,42.70805360196639],[-84.48893326565818,42.70809582902594],[-84.48895952448683,42.70813400583651],[-84.48898833891288,42.70816895469719],[-84.48902628377034,42.7081999023715],[-84.48906009532556,42.70822945799114],[-84.48911897034111,42.70826541247416],[-84.48916620164599,42.70828908343719],[-84.48921760666911,42.70830391413664],[-84.48927275282239,42.70832953923916],[-84.48931981750889,42.7083529300379],[-84.48936612892116,42.70837398882389],[-84.48939984626185,42.70839592099152],[-84.48944194247196,42.70843064492097],[-84.48947131651376,42.70847805377928],[-84.48949390816288,42.70852872931457],[-84.4895078815225,42.70857556971104],[-84.48950809508855,42.70862098389703],[-84.48949973003045,42.70866917294421],[-84.48947946806832,42.70871218953832],[-84.48944161532982,42.7087526220387],[-84.48940650783312,42.70879008856654],[-84.48936595464596,42.70881848294885],[-84.48931523765637,42.70884572455316],[-84.48925127283522,42.70886850982333],[-84.48919055288432,42.70888982269499],[-84.48912985355761,42.70891357317284],[-84.48907623825853,42.7089435160912],[-84.48901973654162,42.7089703439575],[-84.48896271115046,42.70899780710243],[-84.4889114786915,42.70901469824449],[-84.4888524834645,42.70904045523295],[-84.48879935133988,42.70906214315096],[-84.48874998950664,42.70909164580799],[-84.4887058087419,42.7091251715868],[-84.48867002659173,42.70915571603349],[-84.4886440931762,42.70920191581298],[-84.48862081992046,42.70923316550778],[-84.48859549971901,42.70926710326308],[-84.4885687912494,42.7093003102307],[-84.48854814882189,42.70933483848349],[-84.48852892198552,42.7093756331601],[-84.48852407382722,42.70941180118561],[-84.48853822915082,42.70944859238114],[-84.48857248995039,42.70948717535539],[-84.48861725043709,42.70951468648977],[-84.48866953524661,42.70952914463101],[-84.48873161878144,42.70955046557387],[-84.48873161878144,42.70955046557387],[-84.48879103870485,42.70956771671708],[-84.48884613076271,42.70958971852671],[-84.48889979363136,42.70960689785628],[-84.48895435059272,42.70963036878742],[-84.48901610441033,42.70965134919608],[-84.48907401152059,42.70967684331617],[-84.48911717047584,42.70970255112164],[-84.48916804980236,42.70971958275705],[-84.48921704223606,42.70974434071724],[-84.48926354543124,42.70976720482947],[-84.48931849444125,42.70978817034944],[-84.48937519314711,42.70981385997124],[-84.48942378538538,42.70983230554781],[-84.48947585631032,42.7098558792616],[-84.48952712970274,42.70988081679397],[-84.48958342513797,42.70990190251084],[-84.48963516392357,42.70992676243696],[-84.48969273546292,42.70994858015386],[-84.4897411053677,42.70996738465778],[-84.48978296251234,42.70998908608432],[-84.48982487161035,42.71001785272248],[-84.48985960157337,42.71004764228515],[-84.48988003343645,42.7100904826703],[-84.48988747507889,42.71013662982039],[-84.48989227731211,42.71017272134684],[-84.48989636822802,42.71020526829949],[-84.48990475226253,42.7102395259753],[-84.48992830391906,42.71027712363625],[-84.48995294325802,42.71029436296335],[-84.48999893025758,42.71030886290882],[-84.49004642399927,42.71033212363173],[-84.49008333878625,42.71036137636249],[-84.49012739290286,42.71038985689694],[-84.49016300008931,42.71042242798772],[-84.49020075138942,42.71046050563515],[-84.49024410955519,42.71049431860497],[-84.49029029873316,42.71053558151237],[-84.49033970325085,42.71057136533911],[-84.490388499255,42.71060770256297],[-84.49043830886849,42.71064604870216],[-84.49048286981566,42.7106848352748],[-84.49052465310768,42.71072661489529],[-84.49055566673258,42.71077196134867],[-84.49057144017661,42.71081951804546],[-84.49060202382796,42.71087405469376],[-84.49062646461546,42.7109230541086],[-84.4906472466074,42.71097068025331],[-84.49067074090516,42.7110149996653],[-84.49069916870128,42.7110640971997],[-84.4907275693673,42.71111121467518],[-84.49076616583122,42.71116087531549],[-84.49080462634613,42.71120190466076],[-84.4908533185039,42.71125329098123],[-84.49090984358261,42.71129416959837],[-84.49096000701677,42.71132863115756],[-84.4910025438767,42.71135716284651],[-84.49106252271383,42.71138688905545],[-84.49111788572144,42.71141510226731],[-84.49117543470763,42.71144568972773],[-84.49123089409746,42.7114755349253],[-84.49129812838963,42.7114876282151],[-84.49135902102933,42.71149602945444],[-84.49141927897132,42.71150521584798],[-84.49148008517314,42.71151621585489],[-84.4915448597543,42.71151597404778],[-84.49160568924842,42.71151337414831],[-84.49167817271075,42.71150508217612],[-84.49173926206613,42.71148891910892],[-84.49180995796931,42.71147120140127],[-84.49186037720645,42.71145053983648],[-84.49192697800788,42.71142822889492],[-84.49198542765424,42.71140045323101],[-84.49205007169122,42.7113726930594],[-84.49210859639939,42.71134319513374],[-84.49216072082064,42.71131188794516],[-84.49221072423616,42.71128236700623],[-84.49225581287385,42.71125071827294],[-84.49230892060244,42.71121514395656],[-84.49235666932199,42.71117529768187],[-84.49239039574623,42.71113201457533],[-84.49242289798012,42.71108765419882],[-84.4924617055526,42.71103763073689],[-84.4925006909931,42.71098877655526],[-84.4925377353204,42.71094377595585],[-84.49256471080913,42.7108989836771],[-84.49259107878184,42.71085248373872],[-84.4926197364037,42.71080650411832],[-84.49265033374525,42.71076000278847],[-84.4926717486982,42.71071731051986],[-84.49269695366709,42.71067086278144],[-84.49271638145512,42.71062816701563],[-84.49272342363113,42.71058172822904],[-84.49272075722058,42.71053489633108],[-84.49271523709373,42.71049077824818],[-84.49270204941938,42.71044081542722],[-84.49268892495208,42.71039015008853],[-84.49266749540067,42.71033228028232],[-84.49264608128608,42.71028064510023],[-84.49261691586729,42.71022870843495],[-84.49260584801998,42.71017903889906],[-84.49258838074927,42.71012350524409],[-84.49256868737886,42.710069849794],[-84.49255165095565,42.71003386191644],[-84.49253258749243,42.70998655808273],[-84.49251936416502,42.70993639620491],[-84.49250573808665,42.70989271136017],[-84.49249999586172,42.70984262758206],[-84.49248471215627,42.7098078645348],[-84.49247173016819,42.70977850617425],[-84.49246383361421,42.70975467309431],[-84.49245759783025,42.7097182871925],[-84.49243805669225,42.70969014384371],[-84.4924268492417,42.70964787553739],[-84.49240806519671,42.70960916610524],[-84.49238926571753,42.70957159081694],[-84.49238046897533,42.70953944532621]]}}
