{"type":"Feature","properties":{"name":"NCAAMidwest-6k","legacyMeetId":"5232","distance":"6k"},"geometry":{"type":"LineString","coordinates":[[-92.294760997952,38.88861665475572],[-92.29524882152641,38.88480559105587],[-92.29533668332701,38.88395586098189],[-92.29532437051688,38.88390535669479],[-92.29530534107127,38.88383607190148],[-92.29527123030516,38.88376865678088],[-92.29524564159108,38.88372265758908],[-92.29520286048344,38.8836709950922],[-92.29512067309504,38.8835902566498],[-92.29506030145592,38.88353091926767],[-92.29499272135128,38.88347942221101],[-92.2949488130325,38.88344222337098],[-92.29485593184305,38.88338025439899],[-92.29474249581526,38.8833270905167],[-92.29463821556025,38.88328333856467],[-92.29452319233253,38.88325021054453],[-92.29443102641653,38.88322717016318],[-92.29435151703709,38.88322522879503],[-92.29426753330627,38.88322298352989],[-92.29415967929681,38.8832251520157],[-92.29410635988268,38.88322836035481],[-92.29401622580824,38.88323206656222],[-92.29392321754572,38.8832492607467],[-92.29384324120511,38.88326823787234],[-92.29376511307909,38.88330623231803],[-92.29371109061496,38.88335850712664],[-92.29368104331685,38.88341578439478],[-92.2936696419315,38.88346324391856],[-92.29366669022892,38.8835183861293],[-92.29367634815969,38.88356406177732],[-92.29369414824754,38.88362149515945],[-92.2937285501817,38.88367430765919],[-92.29378451202894,38.88372243995865],[-92.29391186130917,38.88377312757981],[-92.29403687498542,38.88379720854486],[-92.29442882978357,38.88385987649811],[-92.29446965822405,38.883874528936],[-92.29450250711801,38.88388632297045],[-92.2945423707172,38.88391992763633],[-92.29457508639958,38.8839538582187],[-92.29459703221158,38.88400381442111],[-92.29460874309311,38.88406917570615],[-92.29460588669016,38.88413657890204],[-92.2945852033794,38.88420978717738],[-92.29451688288087,38.88442425614151],[-92.29447092133479,38.88459662360396],[-92.29446113883272,38.88468155188693],[-92.29445255211522,38.88478365255393],[-92.2944819671592,38.88552742326652],[-92.29448517140297,38.88569647007709],[-92.29448522328194,38.88584637834488],[-92.29446263731124,38.88593623910642],[-92.29443650577218,38.88599543849091],[-92.29439569722601,38.88605431429274],[-92.29434782938463,38.88612105477385],[-92.29426443100003,38.88620204680401],[-92.29417615341939,38.8862701170055],[-92.29410475948087,38.88631258669908],[-92.29402710711551,38.8863541035347],[-92.29396553814976,38.88638303611501],[-92.2938593167872,38.88641496772535],[-92.29373889136353,38.88643033196467],[-92.29364460326852,38.88642843487865],[-92.29350715652768,38.8864207424446],[-92.29338111634473,38.88640438412351],[-92.29329001575195,38.88638761182057],[-92.29319526751213,38.88636744216599],[-92.29311603890442,38.88633391654745],[-92.29306003282149,38.88630557610753],[-92.29298318900406,38.88624359767331],[-92.29260529043756,38.88583853283852],[-92.29255459602368,38.88580245801712],[-92.29249561984152,38.8857752978457],[-92.29243683549876,38.88576134466486],[-92.29238452762199,38.88576051781416],[-92.29231763690336,38.88576852815005],[-92.29223533530715,38.88578841354243],[-92.29189311680791,38.88588472677662],[-92.29175277201338,38.88592207801953],[-92.29168814658178,38.88592880741761],[-92.29163161914613,38.88593045995172],[-92.29112265545668,38.88590953375525],[-92.29104248126225,38.88589863106318],[-92.29099853479364,38.8858854756392],[-92.29091803560232,38.88585036618447],[-92.29085163075344,38.88580840886882],[-92.2907655412881,38.88573360013268],[-92.29068897639485,38.88566978633664],[-92.29061128799184,38.88557642673612],[-92.2903386232824,38.88516158078316],[-92.29028759709837,38.88511355582173],[-92.29023952029759,38.88507459961643],[-92.29018186955483,38.88504727790498],[-92.29011062547926,38.88503017256286],[-92.29005814651183,38.88502188042371],[-92.28999027730644,38.88501692576469],[-92.28993684402546,38.88501800235205],[-92.2898731761395,38.8850303036738],[-92.28981789577193,38.88504798698325],[-92.28976547229284,38.88507118939656],[-92.28970123416134,38.88510948512191],[-92.28965317233934,38.88514487504978],[-92.28961676275361,38.88517990421078],[-92.28958009096814,38.88523144378847],[-92.28956026883674,38.88529293613077],[-92.28956054826331,38.88533546589453],[-92.28956776253433,38.88537238959043],[-92.28961491680123,38.88545567515801],[-92.28978179354961,38.88570649219542],[-92.28980938922533,38.88576611066915],[-92.28982168753892,38.88581711870716],[-92.28981484147522,38.88584764162338],[-92.28979576709017,38.88589294985321],[-92.2897671534297,38.88593477991395],[-92.28972965470514,38.88596514308541],[-92.28969204992819,38.88599055538458],[-92.28963462670663,38.88601080213847],[-92.28956413721107,38.8860245509479],[-92.2894849334989,38.88603190850972],[-92.28942659585258,38.88602951884079],[-92.28932905281093,38.88601596400559],[-92.28924867529089,38.88598792418813],[-92.28883151102272,38.88583725864095],[-92.28872941410508,38.88581869891264],[-92.28864330014088,38.88581480020039],[-92.28854014597107,38.88582283027149],[-92.28845023247997,38.88584245668131],[-92.28837844486355,38.88586081981692],[-92.28829215772218,38.88588922610702],[-92.28819892294807,38.88592604594157],[-92.28812783158645,38.88596982443678],[-92.2880700814278,38.88602276353839],[-92.28803575908428,38.8860813176954],[-92.28802776522338,38.88612943688987],[-92.28802755027596,38.8861735418178],[-92.28804862137034,38.88623346796334],[-92.28809837175177,38.88629467488214],[-92.28821788580156,38.88637492636784],[-92.28834880722906,38.88644939906932],[-92.28853133046204,38.88653274124347],[-92.28868672954047,38.88659557902847],[-92.28886710412698,38.8866434089071],[-92.28894437637786,38.88664923792243],[-92.28903088159781,38.88664867594834],[-92.28916668550133,38.8866479562314],[-92.28931564839084,38.88662964930842],[-92.28942266755878,38.88660452544166],[-92.28953225599739,38.8865715089044],[-92.28962448663339,38.88652209255268],[-92.29024585378595,38.88607835433583],[-92.29031815012108,38.88604413325429],[-92.29041503657197,38.88603536492046],[-92.29047385415933,38.886050138054],[-92.29053543754422,38.88607824344091],[-92.2906031250933,38.88611418259258],[-92.29065722761159,38.88615593617779],[-92.2906974048537,38.88619695242642],[-92.29072833584276,38.88625641982617],[-92.2907398462184,38.88630646764246],[-92.29073691119761,38.88635842768731],[-92.29071794300592,38.88641576792224],[-92.29067413344964,38.88649936597983],[-92.29043272689245,38.88683230583876],[-92.29041039372798,38.886892018953],[-92.290406144773,38.88695424159096],[-92.29041691455403,38.88701360873623],[-92.29047022329415,38.88713215849909],[-92.29057567121467,38.88732649780426],[-92.29078616507293,38.88767761015898],[-92.29095843784016,38.88794568068003],[-92.29109672729358,38.88813942202366],[-92.29116287858814,38.88821136285685],[-92.29122045212523,38.88824951697983],[-92.29128476842804,38.88827795847761],[-92.29138623613186,38.88829597852303],[-92.29148679114527,38.88829270107146],[-92.29165947601263,38.88827503236581],[-92.29181405726757,38.88824875328002],[-92.29199934651736,38.88821058749068],[-92.29216192105388,38.88816685098859],[-92.2923146306017,38.88810509122241],[-92.29245222559013,38.88802236026713],[-92.29255061682842,38.88793370149514],[-92.29262166656751,38.88784874336512],[-92.29267414527293,38.88774079521797],[-92.29270800174938,38.88759973643506],[-92.29268163756406,38.88709164437594],[-92.29268966875246,38.88694915591809],[-92.29271406214544,38.88686195284444],[-92.29276838886086,38.88679080594132],[-92.29283649524814,38.88672905773993],[-92.29289516988914,38.88668843583246],[-92.29300898458915,38.88663935101893],[-92.29313096652889,38.88660620625225],[-92.29323481886719,38.88659944014517],[-92.2933499114742,38.88660696256088],[-92.29347426761869,38.8866304420701],[-92.29355693958304,38.88665668870512],[-92.29363869465652,38.88670721187483],[-92.29371208583795,38.88676066471498],[-92.29376849402331,38.88683685449192],[-92.29381885288883,38.88694491451807],[-92.29396976264468,38.88767049880597],[-92.2943093785232,38.88863132227539],[-92.2943614004315,38.88866804522214],[-92.29441933355594,38.88868612622545],[-92.29447808250482,38.88870533987948],[-92.2945391218491,38.88870562378325],[-92.29461865937805,38.88868606812999],[-92.29468658099123,38.88865487617931],[-92.29467520849802,38.88866224874862],[-92.29471030944546,38.88861600269897],[-92.29524410963731,38.88477526429797],[-92.29533981279332,38.88398064208464],[-92.29533207366626,38.88393523462744],[-92.29531845480999,38.88387627758045],[-92.29529129909739,38.88380369769402],[-92.29526004406519,38.88374497155679],[-92.29522681881562,38.88370236960871],[-92.29517793088706,38.88364559561241],[-92.29509502161903,38.88356038623142],[-92.29502587352135,38.88350629139242],[-92.29496249525143,38.88345306336124],[-92.29490443625319,38.8834092229209],[-92.29479502272984,38.88335137369819],[-92.29469866784643,38.88330647460128],[-92.29457401403576,38.88326387992431],[-92.29447855261921,38.8832362640568],[-92.29439197938623,38.88322516987679],[-92.29430529092006,38.88322314496294],[-92.29421257344781,38.88322384930889],[-92.29412964452456,38.88322451668024],[-92.2940628468982,38.88322994316384],[-92.29395841732905,38.88324025819967],[-92.2939043305667,38.88325461451607],[-92.29386026016286,38.88326170117688],[-92.29379722934135,38.88328783087122],[-92.29377489363026,38.88330111132461],[-92.2937356772807,38.88333310262981],[-92.29370176766929,38.88336946225672],[-92.29369204874818,38.88339335286112],[-92.29367286712412,38.88343736550178],[-92.29366596321239,38.88348894545067],[-92.29367355302377,38.88354294114939],[-92.29368109877086,38.88359068950533],[-92.29371238355473,38.88365200512511],[-92.29375358110248,38.88369693127711],[-92.293794686282,38.88372891700025],[-92.29389567200074,38.88376777994187],[-92.29397480229983,38.88378570956354],[-92.2944022761953,38.88385130842896],[-92.29448768960916,38.88387936291771],[-92.29452449543165,38.88390598701326],[-92.29455750118397,38.88393458826663],[-92.2945872821807,38.88397811725584],[-92.29460754063449,38.88404166433033],[-92.29460938318124,38.8841068918698],[-92.29459673128247,38.88418209062242],[-92.29450856731457,38.88444388246041],[-92.29446361124158,38.88463688302517],[-92.2944555224571,38.88473487495477],[-92.29448199688409,38.88554349848636],[-92.29448388236622,38.88580839460853],[-92.29447899317746,38.88590559422941],[-92.2944488070327,38.88597343787427],[-92.2944095739918,38.88603329035326],[-92.2943690417324,38.8860907743595],[-92.294301428424,38.88617476176909],[-92.29421515423685,38.88624383342002],[-92.29414166495145,38.88628888399676],[-92.29406723644715,38.88633720612079],[-92.29399229932827,38.88636990335643],[-92.293907943543,38.88639807717202],[-92.29379842541418,38.88642350864983],[-92.29369321800021,38.8864316531366],[-92.29357400125897,38.88642587556053],[-92.29343323368617,38.88641056401],[-92.2933322326611,38.88639481654835],[-92.29324852289326,38.886379761043],[-92.29315003414193,38.88634731754661],[-92.29308901858997,38.88632031774874],[-92.29304383730644,38.88629500784165],[-92.29299372610278,38.88625372957058],[-92.29262062254958,38.88585482097687],[-92.29256834750895,38.88580646338331],[-92.29251485473932,38.88578070735876],[-92.29245499259636,38.88576305240422],[-92.29240870712505,38.88575977070482],[-92.29234850849978,38.88576435187675],[-92.29226877729052,38.88577660965657],[-92.29191631379344,38.88587932969348],[-92.29179353199915,38.88591398376794],[-92.29171259326168,38.88592746138061],[-92.2915965607334,38.88592961419602],[-92.29108303281794,38.88590388273224],[-92.29102778199956,38.88589216245867],[-92.29095647440887,38.88587180465148],[-92.29088480918722,38.88582836301197],[-92.29083489738419,38.88579616723897],[-92.29080802125505,38.88576993598023],[-92.29072493615584,38.88570077350014],[-92.29067367170117,38.88565417021287],[-92.29060037897261,38.88556273343592],[-92.29034570704954,38.88517511502434],[-92.29030798253487,38.88513075285682],[-92.29026018362069,38.88509094544879],[-92.29021078165391,38.88506052785311],[-92.29018980843946,38.8850514831252],[-92.29014316812994,38.88503734958495],[-92.29008696909344,38.88502521218604],[-92.29002004122302,38.88501864026456],[-92.2899610235679,38.88501720631999],[-92.28989625477254,38.88502310984438],[-92.2898406801484,38.88504253714317],[-92.28978645500386,38.88505954425514],[-92.28972446923905,38.88509144014658],[-92.2896754297153,38.88512896865622],[-92.2896327138749,38.88516270480389],[-92.28959614598514,38.88520636609282],[-92.28956958213698,38.88525980524921],[-92.28955733988563,38.88531547130843],[-92.28956496925615,38.88535504692125],[-92.28960690246048,38.88544332634437],[-92.28979207573565,38.88572509532266],[-92.28980550420202,38.88575201184301],[-92.28981613654945,38.88579194979889],[-92.28982035121605,38.88582954386809],[-92.28980401421352,38.88587322940363],[-92.28978114474883,38.88591505837771],[-92.2897457140178,38.88595176185238],[-92.28971081043358,38.88597392834791],[-92.28966741681384,38.88599653550835],[-92.28959575343951,38.88601993794534],[-92.28952297052079,38.88602862543202],[-92.28945012851104,38.88603156760951],[-92.2893753658553,38.88602140348129],[-92.2892839555533,38.88600260193241],[-92.28885597597207,38.88584202602427],[-92.28877479415728,38.88582549302457],[-92.28868634295469,38.8858165175995],[-92.28858963556885,38.88581978629061],[-92.28849607834596,38.8858328719246],[-92.28842482019381,38.88585199293963],[-92.28832383755183,38.8858776419889],[-92.2882421004569,38.88590661005978],[-92.28815655202618,38.88595177722348],[-92.28809338398734,38.88599722178714],[-92.28804781949161,38.88605839087786],[-92.28802908410698,38.8861061551254],[-92.28802229511467,38.88615474321687],[-92.28803857807563,38.88620717733473],[-92.28807332592102,38.88626316984249],[-92.28816058942088,38.88633841323239],[-92.2882861982704,38.88641411706815],[-92.28844436137697,38.88649479229282],[-92.2886053614241,38.88656247610544],[-92.2887808856642,38.88661991346655],[-92.28884841239076,38.88663670550536],[-92.28891308279371,38.8866445254675],[-92.28898493216462,38.8866520168309],[-92.28909599966966,38.88664554610894],[-92.28925094147253,38.88663622811664],[-92.28937041592208,38.88661701728846],[-92.28945100822965,38.88659504996973],[-92.28950945845452,38.88657703909989],[-92.28959090447532,38.88654045778241],[-92.28964912606389,38.8865013065999],[-92.29023216123923,38.88609062489198],[-92.29028473494571,38.88605867007803],[-92.29032915222419,38.88604052825949],[-92.29040045680108,38.88603301901196],[-92.29043197260513,38.88603643992739],[-92.29046499089019,38.88604602022005],[-92.29050800092828,38.88606420145755],[-92.29056817975312,38.88609329781143],[-92.29063536042888,38.88613690509462],[-92.29068080423784,38.88617797919656],[-92.29071567785256,38.88623228292732],[-92.29073701017663,38.88628311273675],[-92.29073882147418,38.88633466283807],[-92.29072709792894,38.88639338987817],[-92.29069523326913,38.88645621970603],[-92.2906662082561,38.88651251941823],[-92.29042824537427,38.88684062548707],[-92.2904154668297,38.88687561282871],[-92.29040632767772,38.88692753782749],[-92.29041007780697,38.88698716675009],[-92.29044655878167,38.88707934985636],[-92.29055312205674,38.88728470759191],[-92.29076850482377,38.88765320918741],[-92.29094150703777,38.88791862562221],[-92.29107731482829,38.88811531283611],[-92.29113374265022,38.88818212549737],[-92.29119314366775,38.88822979654301],[-92.29125109879026,38.88826183436341],[-92.29133081896747,38.8882848187996],[-92.29143362336214,38.88829326652584],[-92.2915768128002,38.8882853944917],[-92.29173251181317,38.8882618600891],[-92.29190920887655,38.88822894730858],[-92.29207260932137,38.88819184678345],[-92.29221427105837,38.88814654765296],[-92.29228797123336,38.88811310072008],[-92.29238555840199,38.88806381337125],[-92.29246313590825,38.88801086828808],[-92.29253581405365,38.88795191114446],[-92.2926087979571,38.88786924865481],[-92.29266543686148,38.88776191433285],[-92.29270303329679,38.88762344875393],[-92.29270939556164,38.88758399020043],[-92.29268316839017,38.88710830909515],[-92.29269243035152,38.88697131790195],[-92.29271101959262,38.88688715937556],[-92.29274365911866,38.88682241298599],[-92.29280907687455,38.88675320863794],[-92.29286955448896,38.88670560153924],[-92.29295813773777,38.88666047850234],[-92.29307317157813,38.88662093943894],[-92.29318017833072,38.88660185926995],[-92.29329137815395,38.88660190154252],[-92.29341380128034,38.88661710537159],[-92.2935185799189,38.88664274081163],[-92.29360336220788,38.88668125172638],[-92.29367900272318,38.88673618681823],[-92.29374335525898,38.8867990171838],[-92.29379280125849,38.88688466876339],[-92.29382294331586,38.88696773521456],[-92.29392966515735,38.88768313167981],[-92.29440741619752,38.88898061174542]]}}
