{"type":"Feature","properties":{"name":"NCAAD2-6k","legacyMeetId":"5313","distance":"6k"},"geometry":{"type":"LineString","coordinates":[[-122.5818128740164,47.19916655747592],[-122.5818149420928,47.19916985442902],[-122.5818128624264,47.19916915194699],[-122.5818094656037,47.19916693632462],[-122.5817954753117,47.19916388727972],[-122.581725884555,47.19916859429002],[-122.5816876450098,47.19917340352394],[-122.5816405561399,47.19918251921938],[-122.581603359532,47.19919450877622],[-122.5815508078218,47.19920272498553],[-122.5814875315177,47.19921572700889],[-122.5814358071346,47.19921824073023],[-122.5813763152511,47.19922819567287],[-122.5813272866562,47.19922586719802],[-122.5812599203676,47.19922904935864],[-122.5812000634337,47.19923399192527],[-122.581140493909,47.1992336960589],[-122.5810823430875,47.19923556402556],[-122.5810222676328,47.19923639519202],[-122.5809707956179,47.19923496271896],[-122.5809063759599,47.19923605270512],[-122.5808459152416,47.19923381133184],[-122.5807819667273,47.19923643182203],[-122.5807272611747,47.19923330055451],[-122.5806600139403,47.19923527179378],[-122.5805981057013,47.19923335424962],[-122.5805397155707,47.19923376906114],[-122.5804781729225,47.19923378166216],[-122.5804197729526,47.19923393818816],[-122.5803534661056,47.19923116193663],[-122.580299351133,47.19923124848216],[-122.5802490176855,47.19922749673616],[-122.5802021303383,47.19922659670472],[-122.5801460574051,47.19922565878829],[-122.5800994562774,47.1992222493127],[-122.5800595154616,47.19921772890782],[-122.5800302472697,47.19921690419806],[-122.5799811819734,47.19921445893911],[-122.5799372358844,47.1992115012793],[-122.5798959167201,47.19920983330774],[-122.5798624700724,47.19920907688987],[-122.5798303386305,47.19920943046717],[-122.5797868959721,47.19920781212794],[-122.5797506823582,47.19920824640891],[-122.5797244326555,47.19920414993965],[-122.5796963214675,47.19920477134683],[-122.5796701639769,47.19920577140401],[-122.579643111097,47.1992027536765],[-122.5796208379025,47.19920659177819],[-122.5795879424761,47.19920815346652],[-122.579552235806,47.19920804406976],[-122.5795223489306,47.19920428595033],[-122.5794961415013,47.19920523148302],[-122.5794726292854,47.19920822183847],[-122.5794441613789,47.19920693082839],[-122.5794091040731,47.19920633825085],[-122.5793815785399,47.19920511207322],[-122.5793532949792,47.19920547861064],[-122.5793265372985,47.19920373829552],[-122.57929233235,47.19920699802213],[-122.5792612844107,47.19920396658743],[-122.5792361448414,47.19920055950866],[-122.5792102550401,47.19920105422494],[-122.5791751682626,47.19919890222242],[-122.5791473255534,47.19919696738526],[-122.5791159629548,47.19919925855213],[-122.5790904460615,47.19919797714582],[-122.5790548479712,47.19919486648985],[-122.5790241764037,47.19919413438453],[-122.5789924781724,47.19919387897429],[-122.5789475116751,47.19918889345148],[-122.5788902987069,47.19918255345984],[-122.5788170215912,47.19918397261534],[-122.5787371784361,47.19918528731656],[-122.5786543421207,47.19919030964134],[-122.5785698148041,47.19919342930655],[-122.5784951917712,47.19919247838634],[-122.5784119578439,47.19919982615544],[-122.5783396966076,47.19919572825522],[-122.5782763172653,47.19918956002606],[-122.5782047485176,47.19918830197342],[-122.5781271798974,47.19919073018197],[-122.5780599976766,47.19919090114931],[-122.5779723819235,47.19919119907063],[-122.5778990690629,47.1991929851188],[-122.57783400883,47.19918805592967],[-122.5777619849657,47.19918899537242],[-122.5776836610989,47.19918645007198],[-122.5776069657211,47.1991910343255],[-122.5775325615205,47.19918796371192],[-122.5774599168631,47.19918395921357],[-122.5773891873723,47.19918062890123],[-122.5773180017049,47.19918048382448],[-122.5772590272754,47.19917824359995],[-122.5771865158876,47.19917761798948],[-122.577113539936,47.19917321466898],[-122.5770429890292,47.19917553320838],[-122.5769749186291,47.19917173418838],[-122.5769045520943,47.19916861678357],[-122.5768305434991,47.19916582534731],[-122.5767577413197,47.19916007688281],[-122.5766878918016,47.19915312250257],[-122.5766243819511,47.1991517427855],[-122.5765594128401,47.1991568930699],[-122.576487691333,47.19915098290907],[-122.5764063929653,47.19914229360418],[-122.576324997734,47.1991409589383],[-122.5762544519538,47.19913736129845],[-122.5761846170212,47.19913442505737],[-122.5761157227489,47.19912223647221],[-122.5760471508756,47.19909888190869],[-122.5759797634651,47.19907043281354],[-122.5759184285331,47.19903913577188],[-122.57586144299,47.19900971301529],[-122.57586144299,47.19900971301529],[-122.5758111466734,47.19897499295406],[-122.5757327512721,47.19893573654847],[-122.5756853859484,47.198905771173],[-122.5756242936114,47.1988627669064],[-122.5755949331736,47.19884542373919],[-122.5755292174335,47.19880467964992],[-122.5754693236232,47.19877562570021],[-122.5754117684305,47.19873889408817],[-122.5753515082976,47.19870493481802],[-122.5752903693702,47.19867201056248],[-122.5752352114105,47.19864165219529],[-122.5751840671595,47.19860479569623],[-122.5751223988104,47.19856102336057],[-122.5750604325106,47.19852312687679],[-122.5750024998248,47.19848531476488],[-122.5749502490335,47.19845257436694],[-122.5748967121803,47.198421337444],[-122.574850392811,47.19838529634701],[-122.5748043680848,47.19834973331484],[-122.5747649870477,47.19831647199493],[-122.5747285844214,47.19829458968761],[-122.5746895222743,47.19827876472214],[-122.5746592286795,47.19826088833482],[-122.5746295897746,47.19824411192435],[-122.5746022318739,47.19821900247631],[-122.5745642388497,47.19820275414195],[-122.5745318297981,47.19817792100765],[-122.5744817054144,47.19815043166695],[-122.5744234466736,47.19812335362445],[-122.574365024763,47.19809730641178],[-122.5743118803712,47.19807087991301],[-122.5742598380486,47.19804556006967],[-122.5741982230402,47.19801778889716],[-122.574134955939,47.19800114521821],[-122.5740645943768,47.19797874975651],[-122.5739914483533,47.1979592774332],[-122.5739136049786,47.19794178578736],[-122.573824357472,47.19793139245967],[-122.5737429700641,47.19792938349185],[-122.5736783859643,47.19793572598331],[-122.5736151398816,47.19795320358097],[-122.5735528257309,47.19796819877242],[-122.5734975849223,47.1979886805272],[-122.5734310787052,47.19801040912749],[-122.5733621290578,47.19802529706245],[-122.5732969159745,47.19804428035086],[-122.5732330169827,47.19805924294046],[-122.5731708654984,47.19808045935942],[-122.5731079552965,47.19810220174769],[-122.5730484876882,47.19812426514422],[-122.5729888583428,47.19814195285887],[-122.5729230246562,47.19817082703106],[-122.5728560797672,47.19818897546387],[-122.5727818816083,47.19822062255256],[-122.5727205212691,47.19824451325529],[-122.5726763697282,47.19827753045832],[-122.5726350028091,47.19831476054296],[-122.5726133077815,47.19835673785812],[-122.5726138121367,47.19840497913744],[-122.5726290601773,47.19844017262562],[-122.5726548513215,47.19847640307395],[-122.572703775049,47.19851576477648],[-122.5727602905893,47.19855480463966],[-122.5728121104601,47.19859059576992],[-122.5728603198929,47.19862595955629],[-122.5729264572213,47.19865687142632],[-122.572990256552,47.1986872208177],[-122.5730558642979,47.19871867224192],[-122.5731277609369,47.19875271872061],[-122.5732027846672,47.19878208562503],[-122.5732512541033,47.19881562901825],[-122.5733098751069,47.19884646434294],[-122.5733689494799,47.19888392116167],[-122.5734211489611,47.19891787580008],[-122.5734971879896,47.19894730173886],[-122.5735550499509,47.1989834756983],[-122.573622683564,47.19901972684357],[-122.5736791931865,47.1990542140274],[-122.5737323578831,47.1990823924304],[-122.5737938201226,47.19911570673377],[-122.5738546601769,47.19915470396865],[-122.5739189204206,47.19919146034258],[-122.5739741645666,47.19922838356755],[-122.5740294130743,47.19926514888932],[-122.5740826582964,47.19929996783387],[-122.5741592409213,47.19934157586444],[-122.5742083975031,47.19937336750118],[-122.5742666467986,47.1994049572875],[-122.5743249940227,47.19943867583865],[-122.5743618060403,47.1994630958402],[-122.5744077022504,47.19949268895647],[-122.5744587538045,47.19952075616289],[-122.5745086104989,47.19954866277841],[-122.5745583889112,47.19956529984979],[-122.5746232028086,47.19957778875033],[-122.5747010442673,47.19957753679648],[-122.5747820109477,47.19956288993244],[-122.5748609072798,47.19954216065246],[-122.57495447591,47.19952351583574],[-122.5750336538548,47.19950808442674],[-122.5751167263533,47.199491736432],[-122.5752045278286,47.19947430822229],[-122.5752974758641,47.19945796080729],[-122.5753870068569,47.19943773690427],[-122.5754711147562,47.19942062254453],[-122.5755544363539,47.19940171795272],[-122.5756378841409,47.19938712554227],[-122.5757131763546,47.19936908796774],[-122.5757853743937,47.19935221953718],[-122.5758475185841,47.19934060390795],[-122.5759129710617,47.19932981641153],[-122.5759789439015,47.19932110614963],[-122.576042390946,47.19931166906497],[-122.576104080576,47.19930657241014],[-122.5761693444211,47.19930201746563],[-122.576240582874,47.19930083419738],[-122.5762926060037,47.19930336445557],[-122.5763549941786,47.19930929364123],[-122.576420776591,47.19930467603049],[-122.576484677415,47.19930972815116],[-122.576561777365,47.19931891970475],[-122.5766191073797,47.19932542957751],[-122.5766806662682,47.19932937079778],[-122.5767405502923,47.19933678347454],[-122.5767994169163,47.19934788749975],[-122.5768616205685,47.19936101464165],[-122.576927055604,47.199371398432],[-122.5769981884148,47.19938476369325],[-122.5770744847758,47.19940031777141],[-122.5771510293644,47.19941374001396],[-122.5772153044327,47.19942513924195],[-122.5772882999108,47.19943603698385],[-122.5773523047626,47.19945132523741],[-122.5774222390744,47.19945891668481],[-122.5774828566032,47.19946678398257],[-122.5775485005905,47.19947983173594],[-122.5776165731244,47.19949245722369],[-122.5776828108229,47.19950434895249],[-122.5777536290341,47.19952098256656],[-122.5778284015036,47.19953486287339],[-122.5779016377804,47.19954761994742],[-122.5779720076421,47.19955741322352],[-122.578042503342,47.19956524349956],[-122.578120875786,47.19957368378905],[-122.5781986474947,47.19958121832736],[-122.5782696303872,47.19959021827592],[-122.578342323611,47.19960040524867],[-122.5784075248582,47.19960660428497],[-122.5784732900138,47.19961163455756],[-122.5785504000148,47.19962054467847],[-122.5786222971895,47.1996265567991],[-122.5786951888276,47.19963543274842],[-122.5787673015081,47.19964096906479],[-122.5788391922469,47.19964670661782],[-122.5789058389498,47.19964823151788],[-122.5789713511197,47.19964816659203],[-122.5790344868085,47.19964988846451],[-122.5790951242418,47.19964639473923],[-122.5791489687202,47.19964647593172],[-122.5792068838247,47.19964911111796],[-122.5792668203886,47.19965393403184],[-122.5793313461914,47.19965776927683],[-122.5793771822644,47.19966370948217],[-122.5794234714358,47.19966371155019],[-122.5794411066656,47.19966118969582],[-122.5794692541494,47.19966123336579],[-122.5794898745125,47.19965918919749],[-122.5795327729221,47.19964775270605],[-122.5795542413363,47.19963846597701],[-122.5795878140995,47.19963020654205],[-122.5796437330505,47.19962605705432],[-122.5796880783012,47.19963086820106],[-122.5797290319244,47.19963155905648],[-122.5797624884203,47.19963453233121],[-122.5797924733932,47.19964034628285],[-122.5798099432123,47.19965559083797],[-122.5798371692249,47.19967217344733],[-122.5798615609334,47.19969403305804],[-122.5798706142057,47.19972307342243],[-122.5798707524066,47.19975934547649],[-122.5798717830438,47.19979845976405],[-122.579868649863,47.19983965549631],[-122.5798718657718,47.19988446218155],[-122.5798764532352,47.19991963883661],[-122.5798819056596,47.19994706580046],[-122.5798887050733,47.19997415368548],[-122.5798901915797,47.20000485467668],[-122.5798947221886,47.20003754901705],[-122.5798987789593,47.20007611345063],[-122.5799018110813,47.20011024544934],[-122.579902053529,47.20014141660641],[-122.5799026535836,47.2001717028831],[-122.579902133589,47.20019590571293],[-122.579902691586,47.2002192777118],[-122.5799020154604,47.20024166612499],[-122.5799018166455,47.20026214428199],[-122.5798992250556,47.20027821129286],[-122.5799000772885,47.20029737079029],[-122.5799027775412,47.2003189900764],[-122.5799047255083,47.2003390584221],[-122.5799056249498,47.2003619507927],[-122.5799070863308,47.20038334857853],[-122.579906707285,47.2004074433199],[-122.5799045449407,47.2004319417701],[-122.579903300083,47.20045362098931],[-122.5798944531877,47.20047000271384],[-122.5798904588629,47.20048665164433],[-122.5798874973222,47.20050251441209],[-122.5798600215514,47.2005289471957],[-122.57982038529,47.20055102205175],[-122.5797646933678,47.20056653976751],[-122.5797088412537,47.20057285142097],[-122.5796535644893,47.20057842522465],[-122.5795930151239,47.20058422783453],[-122.5795346020321,47.20058599431584],[-122.5794721727992,47.20058487917404],[-122.5794066928594,47.20058209863571],[-122.5793386798583,47.20057503237072],[-122.5792803427454,47.20057012938245],[-122.5792293792489,47.20056594360226],[-122.5791786836409,47.20056593394854],[-122.5791234958771,47.20056235906575],[-122.5790768801545,47.20056235568124],[-122.5790329353011,47.20056304686575],[-122.578987322608,47.20056701615981],[-122.5789449277488,47.20057806635019],[-122.5789062891885,47.20059323632891],[-122.5788695124508,47.20060738133657],[-122.5788413847451,47.20062295938243],[-122.5788182572076,47.20063751972349],[-122.5787855272289,47.20065196462704],[-122.5787681411879,47.20066432986197],[-122.5787481267693,47.20067639040992],[-122.578729810796,47.20069473002518],[-122.578705986257,47.20071085646053],[-122.57868409029,47.20072876531891],[-122.5786597267258,47.20074325197002],[-122.5786357284795,47.20075672817157],[-122.5786148857674,47.20077500102011],[-122.5785909507399,47.20079154076534],[-122.5785693157703,47.20080395612389],[-122.5785539298287,47.20081572456092],[-122.5785359550839,47.20082695710343],[-122.5785207861721,47.20083728363062],[-122.5785012776055,47.20084821275213],[-122.5784825729279,47.2008612174897],[-122.5784646754615,47.20087312639863],[-122.5784455468557,47.20088544429604],[-122.578427299211,47.2008965558253],[-122.5784051419855,47.20090424917585],[-122.5783962563317,47.20091719839512],[-122.5783752343,47.20093047748919],[-122.5783594458908,47.2009418046262],[-122.5783393445286,47.20095342151107],[-122.5783191924454,47.20096346602653],[-122.5783039902938,47.20097248314499],[-122.5782850279637,47.20098175397488],[-122.5782656288345,47.20098992872578],[-122.5782448121867,47.20100277604601],[-122.5782021473369,47.201015836233],[-122.5781512284101,47.20103860988365],[-122.5780860416242,47.20105529061561],[-122.5780102239725,47.20106520520331],[-122.5779329385363,47.20106816422519],[-122.5778510165488,47.20105899791489],[-122.5777708919338,47.20104758629322],[-122.5776982477093,47.20102947862996],[-122.5776357120135,47.2010172931462],[-122.5775739081397,47.20100557033871],[-122.5775162734031,47.20099459334323],[-122.5774585739384,47.20098602632643],[-122.577404579456,47.20098217740176],[-122.5773469025141,47.20098380658445],[-122.5772850511765,47.20099520129038],[-122.5772253397089,47.20101266035526],[-122.5771745042368,47.20103923941465],[-122.5771326721118,47.20107826944874],[-122.5771020848484,47.20111968200564],[-122.5770759291668,47.20116430969392],[-122.5770704362381,47.20120904580627],[-122.5770864065313,47.2012548445985],[-122.577118609601,47.20130279630398],[-122.5771643862475,47.20135028339394],[-122.5772059923227,47.20140310170543],[-122.5772503608974,47.20144579166732],[-122.5773004732295,47.2014851963824],[-122.5773555241858,47.20152469729326],[-122.5774243349645,47.20155043082437],[-122.5774938510496,47.20157550508292],[-122.5775658141476,47.2015983698728],[-122.5776387251577,47.20161774571855],[-122.5777111438492,47.2016334187908],[-122.5777891200885,47.20164481709205],[-122.577859412988,47.20166009095792],[-122.577936782598,47.20166740180481],[-122.5780089267642,47.20167586903587],[-122.5780885930354,47.20167867164518],[-122.5781654894488,47.20167563510704],[-122.5782371698631,47.20166975891096],[-122.5783124793591,47.20166749079284],[-122.5783897512422,47.20166524611187],[-122.5784711578371,47.2016667099941],[-122.5785496744352,47.20167381101236],[-122.5786240259288,47.20168359334056],[-122.578691135522,47.20169447832242],[-122.5787572943675,47.2017099277269],[-122.5788302878667,47.20171962785849],[-122.5789011426421,47.20173571764415],[-122.578969426488,47.20175629245846],[-122.5790389609651,47.20176861747139],[-122.5791189052154,47.20177665719754],[-122.5791808355403,47.20179035767288],[-122.5792500660134,47.20179644886792],[-122.5793225427514,47.20180401955262],[-122.5793851371457,47.20181314023027],[-122.5794510490685,47.20181918821515],[-122.5795109335248,47.20182521648331],[-122.5795709970709,47.20182803784559],[-122.5796242813883,47.20183155056165],[-122.5796899768713,47.20183698918502],[-122.5797606068578,47.20185058472963],[-122.5798141684909,47.201866662063],[-122.5798730577392,47.20188894589921],[-122.5799293490897,47.20190892813346],[-122.5799970781863,47.2019357360872],[-122.5800621457539,47.20195123934445],[-122.5801235010389,47.20196260797081],[-122.5801840132999,47.20197147961419],[-122.580244221583,47.20197591786334],[-122.580300442451,47.20197389203288],[-122.5803499719723,47.20197367096559],[-122.5803905925618,47.20197249187768],[-122.5804362193026,47.20197367803858],[-122.580474760603,47.20196913554705],[-122.5805169645098,47.20196283304502],[-122.5805637566185,47.20195301487696],[-122.5806182748669,47.20194384909324],[-122.5806822658627,47.20193352985191],[-122.5807482275023,47.20191875553946],[-122.5808135934116,47.20190379312827],[-122.5808809476222,47.20188624537393],[-122.5809526661335,47.20187139461176],[-122.5809526661335,47.20187139461176],[-122.5810169112868,47.20185243192898],[-122.5810991317654,47.20183397765829],[-122.5811548745386,47.20181070343745],[-122.5812037260548,47.20179614321473],[-122.5812415723429,47.20177615715052],[-122.5812889360609,47.20174606660655],[-122.5813271910976,47.20170655025661],[-122.5813412000327,47.20166043451736],[-122.5813386471707,47.20161470385818],[-122.5813546757245,47.20155776865496],[-122.5813607860015,47.20150456426872],[-122.5813473387829,47.20146117632893],[-122.5813197248238,47.2014305344812],[-122.5812672844728,47.20138092026836],[-122.5812532138089,47.20134254098208],[-122.58123885455,47.20127960868997],[-122.5812218953446,47.20121928715331],[-122.581216459969,47.20115619727876],[-122.5812051585084,47.20109734793818],[-122.5811936266826,47.20104897604247],[-122.5811765386139,47.20099992486742],[-122.581163168223,47.20095514068927],[-122.581149586971,47.20091472106766],[-122.5811428442172,47.20087660723134],[-122.5811396511634,47.20084172049714],[-122.5811324179686,47.20080873042291],[-122.5811231433121,47.20077054265803],[-122.5811131608363,47.20073315352208],[-122.5810957992069,47.20069367004663],[-122.5810714276065,47.20065096466312],[-122.5810448145577,47.20061068072982],[-122.5810098170774,47.20057153816464],[-122.5809689248025,47.2005386622153],[-122.5809128917321,47.20051507018944],[-122.5808597688402,47.20050688499372],[-122.5808156722604,47.20050270157535],[-122.5807667586966,47.20050982228199],[-122.5807218583719,47.20051689223352],[-122.5806801334641,47.20052744277559],[-122.5806393697687,47.20052824462636],[-122.5806007820087,47.20053498820385],[-122.5805627832836,47.2005426693669],[-122.5805232538376,47.2005496457825],[-122.5804884812921,47.20055510931724],[-122.580453443945,47.20055840813968],[-122.5804220296282,47.20056011041603],[-122.5803901721,47.20056082021678],[-122.5803635639574,47.20056113049944],[-122.5803298015324,47.20056071555843],[-122.5802962353655,47.20055840317468],[-122.5802629851033,47.20055294341484],[-122.5802369836955,47.20054695454758],[-122.5802152925111,47.20053804935882],[-122.5801963574564,47.20053000937811],[-122.5801795803182,47.20052227397944],[-122.5801638549661,47.20051164315105],[-122.5801474222376,47.2005063019913],[-122.5801350943031,47.2004938125509],[-122.5801220816478,47.20048388480348],[-122.5801083581468,47.20046898327573],[-122.5801026933719,47.20046340281315],[-122.5800875090299,47.20044517789105],[-122.5800795611804,47.20042349061266],[-122.5800747931285,47.20040905630761],[-122.5800771930716,47.20040386500277],[-122.5800755911228,47.20039017533144],[-122.5800667621323,47.2003694802843],[-122.5800563917403,47.20036378775033],[-122.5800429541571,47.2003434460229],[-122.580028960999,47.20032061610568],[-122.580020788732,47.20026728324599],[-122.5800189612286,47.20020318662543],[-122.5800144393003,47.20020826805337],[-122.5800005165437,47.2001655978303],[-122.5800011800911,47.20014969492522],[-122.5799912904237,47.20012475500519],[-122.5799871953592,47.20009619358338],[-122.5799801382321,47.20006985698036],[-122.5799829828558,47.20001761696857],[-122.5799820230332,47.19999013715434],[-122.5799836490452,47.19994168992699],[-122.5799858539399,47.1999034551404],[-122.5799805331876,47.19987813802851],[-122.5800036302349,47.19983955749689],[-122.5800258494704,47.1998251000455],[-122.5800869551362,47.19979075079544],[-122.5801593265934,47.19976953633427],[-122.5802195391307,47.19975948305724],[-122.5802707150103,47.19975279120071],[-122.5803129945276,47.19974302992144],[-122.5803503680756,47.19973723979298],[-122.580398650365,47.19972872510137],[-122.5804284339841,47.19972051097549],[-122.580454364289,47.19971198033552],[-122.5804860079172,47.19970605712196],[-122.5805231943124,47.19969799739367],[-122.580552007671,47.19969110578976],[-122.5805875832138,47.1996868985032],[-122.5806414569535,47.19968123859536],[-122.5806926718475,47.19967893289481],[-122.5807416658512,47.19967593145665],[-122.5808069880532,47.19967359264241],[-122.5808790126993,47.19967126986603],[-122.5809459162044,47.199667040332],[-122.5809997932709,47.19966437537231],[-122.5810552780156,47.19965798093415],[-122.5811197492754,47.1996538781697],[-122.5811943652885,47.19965148834064],[-122.5812764530507,47.19965103592759],[-122.5813636620408,47.19964804919148],[-122.5814476317414,47.19964485787909],[-122.58153049936,47.19964119595787],[-122.5816140998252,47.19968695053223],[-122.5816979132913,47.19968532115521],[-122.5817795998528,47.19963461399583],[-122.5818570595002,47.19962198839021],[-122.5819268580894,47.19960823817106],[-122.5819918308105,47.19958022202547],[-122.5820389915322,47.19954898689249],[-122.5820700502157,47.19950617494616],[-122.5820649116132,47.19945889689115],[-122.5820637256978,47.19941672475562],[-122.5820500256801,47.19936176029172],[-122.5820404904796,47.19930235957843],[-122.5820376643082,47.19924480596548],[-122.5820373957362,47.19918485868031],[-122.5820349765913,47.19912725495558],[-122.5820309963706,47.19907002794587],[-122.582029574704,47.19901664332292],[-122.5820274632567,47.19895651273765],[-122.5820214075197,47.19890663868727],[-122.5820054055475,47.19885351142884],[-122.5819745581282,47.19881043089237],[-122.581930708034,47.19877382761559],[-122.5818737978018,47.19874801605918],[-122.5818005677089,47.19873841414393],[-122.581722116722,47.19873923066741],[-122.5816363089051,47.19874611718912],[-122.5815479149681,47.19875147071726],[-122.5814675556084,47.19875335505989],[-122.5813827927522,47.19875696382],[-122.5812979604051,47.19876159669702],[-122.5812192901591,47.19876496654457],[-122.5811358689148,47.19876864434941],[-122.5810558233189,47.19877116662389],[-122.5809768635777,47.19877347197508],[-122.5808979492088,47.1987756227169],[-122.5808196122827,47.19877818215772],[-122.5807399984544,47.19878215678843],[-122.5806614747634,47.19878679459675],[-122.5805882407795,47.19879077532482],[-122.5805051437939,47.19879651047116],[-122.5804300391185,47.19880284971221],[-122.5803622494391,47.19880885554035],[-122.5802946502308,47.19881691100052],[-122.5802305062451,47.19882518379901],[-122.5801738622574,47.19883035749562],[-122.5801050484766,47.19883659522291],[-122.5800362536499,47.19884081534141],[-122.5799675794576,47.1988348294539],[-122.5798985125741,47.19884080715433],[-122.5798238158714,47.1988469771261],[-122.5797478561047,47.19885623745607],[-122.5796789267365,47.19886373573437],[-122.5796106024595,47.1988704612647],[-122.5795466504387,47.19887648947594],[-122.5794837438605,47.19888124201336],[-122.5794208493076,47.19888616543629],[-122.5793634835985,47.19889392189146],[-122.5793034483181,47.19889931847324],[-122.5792435924858,47.19890400161554],[-122.5791823042955,47.1989058110368],[-122.5791148801784,47.19891000459517],[-122.5790422495408,47.19891400665129],[-122.5789679280332,47.19891929079576],[-122.5788880248444,47.19892542465687],[-122.5788040932063,47.19893626557089],[-122.5787232506109,47.1989473692875],[-122.5786449830028,47.19895774666829],[-122.5785622935733,47.19896490256715],[-122.5784861496201,47.19896836090332],[-122.5784069069163,47.19897451345403],[-122.5783282108434,47.19897892656079],[-122.5782495317492,47.19898403361047],[-122.5781740462934,47.1989908461565],[-122.5780944660862,47.19899733194428],[-122.5780170330126,47.19900470980375],[-122.5779382957666,47.19901201836853],[-122.5778596590037,47.1990144845292],[-122.5777791769515,47.19901911151859],[-122.5776960167321,47.19902265235216],[-122.5776188355293,47.19902423791438],[-122.5775373043572,47.19902674785544],[-122.5774636442162,47.1990307243284],[-122.577393020395,47.19903306392546],[-122.5773229325974,47.19903872935777],[-122.5772508207421,47.1990442244575],[-122.5771811605762,47.19904504303423],[-122.5771138875296,47.1990489851872],[-122.5770382482894,47.19905350170144],[-122.5769678898892,47.19905922491829],[-122.5768888200679,47.19906515893079],[-122.5768111711004,47.19907074496397],[-122.5767352062363,47.19907556476485],[-122.5766593589841,47.19907852926481],[-122.5765803226788,47.19908367857205],[-122.5764992957487,47.19909134688059],[-122.5764235253754,47.19909670792256],[-122.5763532479362,47.19910080312352],[-122.5762780490243,47.19910065956363],[-122.5762054854374,47.19909774226377],[-122.5761333216226,47.19909072735876],[-122.5760578032193,47.19907459164548],[-122.5759935869544,47.19905635355557],[-122.5759303738421,47.19903184011733],[-122.5758755990818,47.1989935478382],[-122.5758186847465,47.19895742057124],[-122.5757525452066,47.19891931448611],[-122.5756934798253,47.19888034973248],[-122.5756264246654,47.1988405170888],[-122.5755762528259,47.19880951499278],[-122.5755105025458,47.19877240544959],[-122.5754595354186,47.19873081061557],[-122.575400590418,47.19870487219511],[-122.5753385005801,47.19867130050451],[-122.5752807265722,47.19863578600328],[-122.5752201230352,47.198598703448],[-122.5751671017189,47.1985620039619],[-122.5751038305763,47.19852793746539],[-122.5750622888892,47.19849083056434],[-122.5749957672353,47.19846289785472],[-122.5749392297879,47.1984233533404],[-122.5748827409996,47.19839184291211],[-122.5748284594839,47.19836118796849],[-122.5747742624895,47.19832803678926],[-122.574725210263,47.19829981223594],[-122.5746751417497,47.1982718354294],[-122.574630497071,47.19824342461156],[-122.5745898763849,47.19821750820847],[-122.5745492326663,47.19819169593885],[-122.574505798861,47.19816527547163],[-122.5744513059231,47.1981285704905],[-122.5743920782628,47.19809675927354],[-122.5743270830324,47.19806740846568],[-122.5742616240511,47.19804140104952],[-122.5741957147118,47.19801583035132],[-122.5741377734244,47.19799712106716],[-122.5740583966345,47.19797552543679],[-122.5739843970758,47.1979561226317],[-122.5739006738143,47.19794423239492],[-122.5738208133918,47.19793224593492],[-122.5737473633737,47.19793078623277],[-122.5736732031123,47.19793869181109],[-122.5736114372653,47.19795431000934],[-122.5735494814617,47.19797375673974],[-122.5734885294323,47.19798969322488],[-122.573425673547,47.19800714701797],[-122.5733637905942,47.19802662803999],[-122.5733003566352,47.19804268397694],[-122.573239330982,47.19806314877145],[-122.5731745545968,47.19808591107097],[-122.5731087141278,47.19810666014716],[-122.5730433833042,47.19812581827068],[-122.5729748154641,47.19814747741378],[-122.57290712671,47.19816916793325],[-122.5728346512988,47.1982010490028],[-122.5727717267946,47.19822496648683],[-122.5727111442256,47.19825770035343],[-122.5726615801534,47.19829273379926],[-122.572630674846,47.19834703273551],[-122.5726277618435,47.19839195685272],[-122.5726329619658,47.1984367443284],[-122.5726631330087,47.19847438555264],[-122.5727086656862,47.19851284604742],[-122.5727680484846,47.19854989534473],[-122.5728286876573,47.19858637687926],[-122.5728975104896,47.19862330918878],[-122.5729641353019,47.19865011535252],[-122.5730268820625,47.19868529088465],[-122.573096549219,47.19872238567459],[-122.5731679711267,47.19875230907882],[-122.5732230621817,47.198788590134],[-122.5732868507049,47.19882371617819],[-122.5733489595924,47.19885814212091],[-122.5734237529058,47.19889188147442],[-122.5734852449513,47.19892633535245],[-122.5735376625685,47.19895894335109],[-122.5735873987502,47.19899964255582],[-122.5736464314879,47.19902985650011],[-122.5736949017715,47.19906998534499],[-122.5737544244279,47.19910619026095],[-122.573806726167,47.19914594633796],[-122.5738644952302,47.19918360598115],[-122.5739241452334,47.19921731471766],[-122.5739806124039,47.19925462938769],[-122.5740393991239,47.19929446798901],[-122.5740989297337,47.19932915871858],[-122.5741590847317,47.1993672912829],[-122.5742173808903,47.19940755977671],[-122.5742728325925,47.1994343488317],[-122.5743190202191,47.19946496457157],[-122.5743190202191,47.19946496457157],[-122.5743623547773,47.19949811581454],[-122.5744177176258,47.19953643366851],[-122.5744740215656,47.19955788482282],[-122.5745347534302,47.19956754546818],[-122.5746179997085,47.19958575758028],[-122.5747070361642,47.19957938231545],[-122.574791450926,47.19956279116778],[-122.5748765761611,47.19956012822455],[-122.5749642555196,47.19954586314713],[-122.5750488300066,47.19953038942759],[-122.5751311607721,47.19951583374798],[-122.5752293052063,47.19949657456193],[-122.5753171821683,47.19948459510334],[-122.5754094071037,47.19946456561919],[-122.5754987006167,47.19944866881257],[-122.5755765030396,47.19943053652657],[-122.5756537451885,47.19941380007808],[-122.5757316085659,47.19939780317564],[-122.5758008550731,47.19938038582512],[-122.575867554134,47.19936532923455],[-122.5759338072067,47.19934960132931],[-122.5760039708649,47.19933610651579],[-122.5760694049969,47.19932326881607],[-122.5761367054434,47.19931734456851],[-122.5762218485216,47.19931541033243],[-122.5763091211983,47.19931268698392],[-122.5763883759718,47.19931105634267],[-122.5764627240263,47.19931286021021],[-122.5765348141016,47.19932011255997],[-122.5765975360814,47.19932541620803],[-122.5766633172778,47.19932734763707],[-122.5767216972808,47.1993318827482],[-122.5767792155918,47.19933679251915],[-122.5768312145794,47.19934220132109],[-122.5768890435059,47.19934462922186],[-122.5769491754282,47.19935428010849],[-122.577023314041,47.19936566201516],[-122.5770940832669,47.19937982285727],[-122.5771749178523,47.1993923411252],[-122.5772593389844,47.19940431337719],[-122.5773371438802,47.19941700247744],[-122.5774096742725,47.19943136300625],[-122.5774766704707,47.19944352683533],[-122.5775416824577,47.19945495137407],[-122.5776131291361,47.19946781516844],[-122.5776774886135,47.19948134298178],[-122.5777548755987,47.19949384025244],[-122.577828793687,47.1995074845204],[-122.5779060672971,47.19952058991203],[-122.5779817797226,47.19953448230025],[-122.5780598504598,47.19954809156308],[-122.5781399761137,47.19956001952637],[-122.5782198276597,47.19956975441662],[-122.5783001165927,47.199578557924],[-122.5783805082735,47.19958900239019],[-122.5784538695555,47.19959761059393],[-122.5785191344015,47.19960540779122],[-122.5785983473699,47.19960877364137],[-122.5786756174273,47.19961485970744],[-122.578749322754,47.199619017971],[-122.5788240718868,47.19962538299685],[-122.5788999933339,47.1996298956459],[-122.5789764523073,47.19963469976575],[-122.5790382810147,47.19964038984834],[-122.5791136877255,47.19964550651206],[-122.579174895885,47.19965093193418],[-122.5792354967357,47.19965259780952],[-122.5792923864329,47.19965608732484],[-122.5793430575144,47.19965689527103],[-122.5793852567082,47.19966099675881],[-122.5794168887256,47.19965628125203],[-122.5794410819306,47.19965351409652],[-122.5794716118988,47.19965828015874],[-122.579506685499,47.19965130081997],[-122.5795400078083,47.19964588760277],[-122.5795739866466,47.19963425674764],[-122.5796042958658,47.19962950360416],[-122.5796320031113,47.19962780765707],[-122.5796622331351,47.19962145100403],[-122.5797033591364,47.19962011944389],[-122.5797373546398,47.19962209112025],[-122.579777115988,47.19963523230037],[-122.5798040478313,47.19965631670732],[-122.5798195447886,47.19968225341042],[-122.579829843199,47.19970077654945],[-122.5798367017807,47.19971704110221],[-122.5798363327175,47.19972518613298],[-122.5798358659362,47.19972629813662],[-122.5798287392869,47.19973043079887],[-122.5798278710438,47.19973026005302],[-122.5798340728222,47.19972434596139],[-122.5798335857894,47.19972593901093],[-122.5798350315035,47.19972628629226],[-122.5798349587938,47.19972598159171],[-122.5798346997372,47.1997261167357],[-122.5798346997372,47.1997261167357],[-122.5798346997372,47.1997261167357],[-122.5798346997372,47.1997261167357],[-122.5798346997372,47.1997261167357],[-122.5798374023247,47.19972356764023],[-122.5798373266155,47.19972626361064],[-122.5798385729286,47.19974585106403],[-122.5798376013609,47.1997699087007],[-122.5798427408523,47.1997898364932],[-122.5798517184489,47.19981634253709],[-122.579858530791,47.19983874459859],[-122.5798658195226,47.19986559641837],[-122.5798714144263,47.19989411572034],[-122.5798778536429,47.19991887441396],[-122.5798809972931,47.19994533279852],[-122.5798835755066,47.19996977179957],[-122.5798854918743,47.19999386439287],[-122.5798901073012,47.20001653433383],[-122.5798930130987,47.20004168840256],[-122.5798947375459,47.20007171769149],[-122.5798975326135,47.20009886289843],[-122.5798985497891,47.20012185493853],[-122.5799002727008,47.20014119433127],[-122.5799070384579,47.20016112374193],[-122.5799014351241,47.20018291913884],[-122.5799053683427,47.20020803843973],[-122.5799103574283,47.20023163979257],[-122.5799109866395,47.20025734045712],[-122.5799110538339,47.20028389942015],[-122.5799131012623,47.20031305830356],[-122.579914612893,47.20033685981237],[-122.5799165627026,47.20036544869554],[-122.5799180970335,47.20039312001691],[-122.5799188229374,47.20041989643877],[-122.5799144862538,47.20044495179018],[-122.5799065169389,47.20047035197555],[-122.5798948624899,47.20049840873379],[-122.579876200202,47.20052561242208],[-122.5798479942258,47.20054723596821],[-122.5798115007162,47.20056453179112],[-122.5797640734704,47.20057231640855],[-122.5797241131371,47.20057371169038],[-122.5796690794269,47.2005842848072],[-122.5796255523698,47.20059211353215],[-122.57957869144,47.20059356978651],[-122.5795268745223,47.20059462058338],[-122.5794849047473,47.20059142499001],[-122.579442144621,47.20058942916562],[-122.5793912744835,47.20058434472472],[-122.5793442130652,47.20058111418609],[-122.579301112885,47.20057769296217],[-122.5792562746461,47.2005760431847],[-122.579210223979,47.20057547418038],[-122.5791650544321,47.20057495433296],[-122.5791269367725,47.20057477519274],[-122.5790863702144,47.20057711486679],[-122.5790461721155,47.20058019653223],[-122.57901076679,47.20058256979159],[-122.5789797036264,47.20058568938952],[-122.5789506844982,47.20059204665765],[-122.5789201737677,47.20059505834156],[-122.5788905300132,47.20060179907303],[-122.5788619596897,47.20061070361852],[-122.57883355428,47.20061906849553],[-122.5788090117836,47.20063023557568],[-122.5787876010038,47.20064168450178],[-122.5787673210025,47.20065636542626],[-122.5787580111667,47.20066500216277],[-122.5787446618058,47.20067710418346],[-122.5787288970424,47.20069033378208],[-122.5787086804041,47.20070679405353],[-122.5786926792645,47.20072032800233],[-122.5786700149839,47.20073789556674],[-122.5786510781837,47.20075137553221],[-122.5786340481305,47.20076663261565],[-122.5786145229211,47.20078084648591],[-122.5785964472471,47.20079522414832],[-122.5785799395183,47.20080959553131],[-122.5785616828755,47.20082160782285],[-122.5785380499558,47.20083341465269],[-122.5785195377304,47.20084170588167],[-122.5784980288582,47.20085272553043],[-122.5784812874916,47.20086568472708],[-122.5784610672921,47.20088019925261],[-122.5784390813694,47.20089836361346],[-122.5784164503884,47.20091607854039],[-122.5783929730878,47.2009322791345],[-122.5783699885445,47.20094645794891],[-122.5783487378593,47.20095968218748],[-122.5783300504672,47.20097081108331],[-122.5783060315892,47.20098153864237],[-122.5782771729022,47.20099386577716],[-122.5782510512504,47.20100563851862],[-122.5782388710369,47.20100972260249],[-122.5782055048775,47.20102302824574],[-122.5781617686775,47.20103553320885],[-122.5781152318849,47.20105748763675],[-122.5780771481675,47.20107181865964],[-122.5780527806105,47.20107607174729],[-122.5780397457724,47.2010772240585],[-122.5779922992082,47.20108373468995],[-122.5779297308773,47.20108317836466],[-122.5778679493795,47.20107786784082],[-122.5777955814614,47.20105678389757],[-122.5777146672324,47.20103553689851],[-122.5776410066415,47.20101364241571],[-122.5775795251059,47.2010066267663],[-122.5775171756584,47.2009956690373],[-122.5774596625064,47.20099339889841],[-122.5773958682314,47.20099362764062],[-122.5773323702481,47.20100139928308],[-122.5772622303972,47.2010178009484],[-122.5772036793631,47.20104218747424],[-122.5771549117928,47.20107035460906],[-122.5771152472244,47.20110485373769],[-122.5770756446088,47.20114602718062],[-122.5770568537966,47.20118929260126],[-122.5770586708124,47.20123520580105],[-122.5770790627943,47.20127564154152],[-122.5771185911821,47.20132666888387],[-122.5771560353359,47.20137359790721],[-122.5771977988024,47.20142185086775],[-122.5772395476211,47.20146112359735],[-122.577291503863,47.20150541832062],[-122.5773529024657,47.20153952080469],[-122.5774219052527,47.20156543926235],[-122.5774933210394,47.20158801968407],[-122.5775680524573,47.20160921291448],[-122.5776412709063,47.20162896811833],[-122.577712507522,47.20163831937764],[-122.5777879077997,47.20165039777775],[-122.5778642288256,47.20166541425814],[-122.577936858647,47.20167246535292],[-122.578013236256,47.20168010365517],[-122.5780901665381,47.20168060934429],[-122.5781622919339,47.20168240158687],[-122.5782375385598,47.20167813441525],[-122.5783171157092,47.20167499017377],[-122.5783951936323,47.20167314774213],[-122.5784736388758,47.20167697991072],[-122.57855528436,47.20168692330325],[-122.5786342110596,47.20170004949293],[-122.5787182070077,47.20170877933332],[-122.5787794311903,47.20172756984228],[-122.5788500938929,47.20174910629602],[-122.5789212582637,47.20176449913038],[-122.5789899603667,47.20178373390544],[-122.579060848489,47.20178951568315],[-122.579133100894,47.20180089922996],[-122.5792099780799,47.20181060325694],[-122.5792820690852,47.2018196860769],[-122.5793646462672,47.20182657050051],[-122.5794448974463,47.20183166436676],[-122.5795280603393,47.20183558001112],[-122.5796005320949,47.20184005396309],[-122.5796808950502,47.20185391978052],[-122.5797545714632,47.20186624666897],[-122.5798213890299,47.20187844786819],[-122.5798850427086,47.20189653263476],[-122.579962659383,47.20191637948732],[-122.5800345597787,47.20193935495599],[-122.5801042823529,47.20196011668882],[-122.5801679041992,47.20197087301266],[-122.5802337494492,47.20197750839457],[-122.5803008439903,47.20198034429467],[-122.5803660630033,47.20197906746724],[-122.5804241527457,47.2019770741145],[-122.5804764708846,47.20197286562573],[-122.5805379557164,47.20196460022077],[-122.5806117203661,47.20195342261273],[-122.5806800558092,47.20193494118782],[-122.5807600598766,47.20192390773842],[-122.5808291039363,47.20190153462114],[-122.5808952093869,47.20188498563396],[-122.5809557105737,47.20186958709121],[-122.5810246139803,47.20185393498085],[-122.5810847649352,47.20183719965662],[-122.5811435056549,47.20182276192567],[-122.5811963814979,47.20180760297014],[-122.581240956779,47.20178566967292],[-122.5812715199622,47.20175417584053],[-122.5812892508198,47.20170789694608],[-122.5813040279732,47.20166622357907],[-122.5813125858563,47.20162764655414],[-122.581332398923,47.20157780103234],[-122.581355570254,47.2015313668059],[-122.5813352471506,47.20149019372146],[-122.5812966392334,47.20146202883624],[-122.5812657024775,47.20142376977879],[-122.581239438014,47.20138749724029],[-122.5812160162157,47.20134724728799],[-122.581201745458,47.2012913541046],[-122.5812014327824,47.20123642330926],[-122.5811905280543,47.2011901606296],[-122.5811821749011,47.20114345126156],[-122.581172171478,47.20110000786705],[-122.5811687724195,47.20105933702983],[-122.581161629408,47.20101226639046],[-122.5811593481034,47.2009684361218],[-122.5811596902776,47.20093356439584],[-122.5811544902261,47.20090121245772],[-122.5811505613567,47.20087145925035],[-122.5811418231064,47.20084679774074],[-122.5811341472952,47.20082163333759],[-122.5811258082149,47.20079403264641],[-122.5811258082149,47.20079403264641],[-122.5811098921587,47.20076013494818],[-122.5810913344659,47.2007254466815],[-122.5810725554518,47.20070045527509],[-122.5810499846125,47.20066759719131],[-122.5810221808483,47.20063906276789],[-122.5809956882393,47.20061159329844],[-122.5809656286892,47.2005857669263],[-122.5809272452785,47.20056039580925],[-122.5808852886267,47.20053791599415],[-122.5808438855075,47.20052343077407],[-122.5808020496613,47.20051682834772],[-122.5807646274282,47.20051997145005],[-122.5807181174294,47.20052004765486],[-122.5806772759532,47.20052805662612],[-122.5806433186342,47.20053773673233],[-122.5806102821349,47.2005444813207],[-122.5805795482243,47.20055177918825],[-122.5805451938307,47.2005584462736],[-122.5805102780037,47.20056281311861],[-122.5804713658108,47.20057104860693],[-122.5804385015341,47.20057523474501],[-122.5804072888742,47.20057679721202],[-122.5803765010684,47.20057483213407],[-122.5803453596993,47.20057696033167],[-122.5803085368731,47.20057342079034],[-122.5802770089304,47.20056790577059],[-122.5802354726092,47.20055999577603],[-122.5801966205457,47.20054913608018],[-122.5801565392379,47.20053604124737],[-122.5801307139552,47.2005197211035],[-122.5801072000563,47.20050710648643],[-122.580076889159,47.20048414945889],[-122.5800673386503,47.20046747454951],[-122.580056738125,47.200447800963],[-122.580050356471,47.20043211347826],[-122.5800493009664,47.20042088965194],[-122.5800466801924,47.20041077382668],[-122.5800451769898,47.20040014729199],[-122.5800364156923,47.20037587080611],[-122.5800211209688,47.2003442190895],[-122.5800132128865,47.20030117814502],[-122.5800018169372,47.20024836349036],[-122.5799996707749,47.20020084826972],[-122.5799937211023,47.20015757627699],[-122.5799897017178,47.20011329180859],[-122.5799877942838,47.20007033496654],[-122.5799845061109,47.20002868200448],[-122.5799876456009,47.19998912432975],[-122.5799863558256,47.19994619860607],[-122.5799785332523,47.19989817948201],[-122.579978895754,47.19985885641553],[-122.5799727946879,47.19981717326421],[-122.57997172023,47.19977891250099],[-122.57997677651,47.19974086831582],[-122.5799872904925,47.199705381181],[-122.580011994798,47.19966966584833],[-122.5800452693586,47.19963572831328],[-122.5800912063087,47.19961059702889],[-122.5801460694056,47.19959693456373],[-122.5801978678105,47.19959873036305],[-122.5802533187765,47.19960322271587],[-122.5803022933378,47.19960471656361],[-122.5803551341961,47.19960526673342],[-122.580409887292,47.19960794686833],[-122.580465851966,47.19961005156136],[-122.5805225980793,47.19961083968493],[-122.5805769787556,47.19961210782727],[-122.5806337725176,47.19961095547612],[-122.5806838342301,47.19961020058169],[-122.5807415003185,47.19960935092198],[-122.5808042693818,47.19960775435113],[-122.5808719057067,47.19960601149999],[-122.5809383160599,47.19960562373195],[-122.5810073301682,47.19960558443173],[-122.5810664536597,47.19960776013698],[-122.5811215948854,47.19960263879145],[-122.5811807677777,47.19960050178751],[-122.5812607699002,47.1996011099177],[-122.581337867729,47.19960306751345],[-122.5814170040302,47.19960027763643],[-122.5814963683438,47.19959841516703],[-122.5815740141219,47.19959603723848],[-122.5816499442556,47.19959702368826],[-122.5817246901169,47.19959762923612],[-122.5817959149278,47.19959644477717],[-122.5818603705899,47.19959596976913],[-122.5819258272272,47.19958627041744],[-122.5819904881783,47.19956363435466],[-122.5820355320225,47.19953639552541],[-122.582069881433,47.19951780713105],[-122.5820775338002,47.19947819415057],[-122.5820641456415,47.19943641120755],[-122.5820555886523,47.19938999543179],[-122.5820382180662,47.19935147629162],[-122.582021841314,47.19931133964427],[-122.5820169493311,47.19926786156292],[-122.5820129891644,47.19922422881031],[-122.5820114002908,47.19918322530745],[-122.5820089378098,47.19914227483589],[-122.5820042534634,47.19910003643773],[-122.5820006721777,47.1990614862957],[-122.5819960225611,47.19902272060911],[-122.581990654098,47.19898449917358],[-122.581986942345,47.1989489712723],[-122.5819808826138,47.19891882787329],[-122.5819688053015,47.19887813840997],[-122.581949322178,47.19884286108321],[-122.5819203568665,47.198815636304],[-122.5818894197361,47.19878674062871],[-122.581852501898,47.19876877898191],[-122.5818072465576,47.19875505173967],[-122.5817532651319,47.19875345343419],[-122.5816958388774,47.1987579070997],[-122.5816374366855,47.19876832745943],[-122.5815943006117,47.1987766768121],[-122.581546990345,47.19877924825252],[-122.5814969170463,47.19878212661699],[-122.5814418104005,47.19877365566936],[-122.5813658013703,47.19877031812079],[-122.581285025032,47.19876652862131],[-122.5811996460969,47.19876360105351],[-122.5811137681993,47.19876717571723],[-122.5810367021455,47.19877432632494],[-122.5809423013283,47.19877776275462],[-122.5808632304274,47.19878081325562],[-122.5807844345703,47.19879005121248],[-122.5807002196817,47.19879614523472],[-122.5806210298731,47.19880268606874],[-122.5805442569955,47.19880862796695],[-122.5804717315497,47.1988134831208],[-122.580396106356,47.19882059658227],[-122.5803315329416,47.19882983017332],[-122.5802656346862,47.1988369344644],[-122.5801992090154,47.19884310227975],[-122.580140644258,47.19884506299368],[-122.5800761159362,47.19884898117626],[-122.580012011413,47.19885132757062],[-122.5799414881985,47.19885308749431],[-122.5798696358293,47.19885466094929],[-122.5797940584124,47.19886117521217],[-122.5797304665107,47.19887103512801],[-122.579648997279,47.19887967304668],[-122.5795870138889,47.19888385761055],[-122.5795255056357,47.19888742120651],[-122.5794625581427,47.19889283155226],[-122.5794040123656,47.19890055963526],[-122.5793390607053,47.19890406714797],[-122.5792874773306,47.19891273479841],[-122.579227346492,47.19891701143892],[-122.5791640205127,47.19891798371133],[-122.5790919106497,47.1989227300221],[-122.5790274248478,47.19892639106367],[-122.578955350773,47.19893651562808],[-122.5788857204783,47.19894460721938],[-122.5788043417178,47.19895510318392],[-122.5787201638069,47.19896310301234],[-122.5786402236479,47.19896903633111],[-122.5785514089003,47.19898086262649],[-122.5784726179143,47.19898831294176],[-122.5783906115923,47.19898822996369],[-122.5783081676649,47.19899346950068],[-122.5782297645292,47.19900055787424],[-122.5781482220497,47.19900552671271],[-122.5780651402536,47.19900750628802],[-122.5779939261811,47.19901463097437],[-122.5779248410701,47.19902409789156],[-122.577848478285,47.19903230548197],[-122.5777728210398,47.1990377643999],[-122.5777037826539,47.19903677194619],[-122.5776286493703,47.19904373065954],[-122.5775464820278,47.19904576801075],[-122.5774705305858,47.19905237124966],[-122.5773998739474,47.19905529893474],[-122.5773315626515,47.1990607206355],[-122.5772675497402,47.19906626925835],[-122.5772045643257,47.19907004833796],[-122.5771394037789,47.19907371353808],[-122.5770658425456,47.19907008985322],[-122.5769963048932,47.19906990010913],[-122.5769257353972,47.19907007949075],[-122.5768652119997,47.1990773697207],[-122.5768171919178,47.19909916895527],[-122.5767890956647,47.19912981047408],[-122.5767786340563,47.19916445997657],[-122.5767753196722,47.19919824037687],[-122.5767827620567,47.19922481866028],[-122.5767931322217,47.19925382727087],[-122.5768070163292,47.19928041650695],[-122.5768241487787,47.19930653676541],[-122.5768481082201,47.19932694066062],[-122.5768913949031,47.19934306957627],[-122.5769404209212,47.19935694151786],[-122.5770153337999,47.19936929496633],[-122.577077602223,47.19937802147707],[-122.5771433261391,47.19937797988678],[-122.5772143376004,47.19938584297317],[-122.5772854606519,47.19940661079565],[-122.5773511472896,47.19941560091501],[-122.5774197705805,47.19943095454496],[-122.5774917250356,47.19944679711725],[-122.5775477097243,47.19945352860067],[-122.5776178224107,47.19946964443371],[-122.5776811875132,47.19948103300333],[-122.5777446261653,47.19948754372848],[-122.5778115535523,47.19949878924452],[-122.5778781495353,47.19950646704051],[-122.5779425085943,47.19951838730714],[-122.5780070233095,47.19952817288389],[-122.5780676521699,47.19952952655449],[-122.5781281600013,47.19954671695582],[-122.5782002191516,47.19955530968576],[-122.5782643010007,47.19956515971799],[-122.5783213424592,47.19957178442657],[-122.5783907983553,47.19958228099781],[-122.5784572837116,47.19959048640357],[-122.578524101085,47.19959892858423],[-122.578595613439,47.19960330064465],[-122.5786769843405,47.19960748755486],[-122.5787504776704,47.19961183422742],[-122.5788204507182,47.19961831556802],[-122.5788861099013,47.19962631889401],[-122.5789545951307,47.19963377256742],[-122.579012724289,47.19964353149598],[-122.5790727393722,47.19964752927506],[-122.5791292709465,47.19965452810294],[-122.5791830895631,47.19965985193754],[-122.5792374548223,47.1996634013879],[-122.5792918905655,47.19966308731539],[-122.5793352280198,47.19966576934961],[-122.5793747053741,47.19966367923827],[-122.5794136440029,47.19966609880547],[-122.579438809552,47.1996670454883],[-122.5794668872872,47.19966447507575],[-122.5794875443747,47.19966007404383],[-122.5795095074634,47.19965851920532],[-122.5795379347058,47.19965320366336],[-122.5795632128009,47.19964652863095],[-122.5795879347365,47.19963852962223],[-122.5796260320572,47.19963551870936],[-122.5796502296335,47.19963068403001],[-122.5796862520172,47.19962978838066],[-122.5797245970145,47.19963242561208],[-122.579754092744,47.19963626630359],[-122.5797821371776,47.1996571601596],[-122.5798103216899,47.19968131547205],[-122.579831209826,47.19970695723195],[-122.5798436585387,47.19973532369877],[-122.5798494792035,47.19978111483209],[-122.5798605817017,47.19981891160874],[-122.5798712691428,47.19985265980625],[-122.5798800711019,47.19988790875026],[-122.5798893925762,47.19992469037355],[-122.5798968222724,47.19995812963031],[-122.5799002593099,47.19999295034427],[-122.5799006715598,47.2000343108238],[-122.5799046143286,47.20007642756867],[-122.579908432225,47.20011265299954],[-122.5799118291264,47.2001577955259],[-122.5799202132088,47.20019533128909],[-122.5799239726205,47.20023043523904],[-122.5799263935264,47.20026429038331],[-122.5799318306274,47.20030034711387],[-122.5799376132084,47.2003319820859],[-122.579942411148,47.20036146331574],[-122.5799478402688,47.20039056533731],[-122.5799488948629,47.20042198389582],[-122.5799501866675,47.20043948176473],[-122.5799542390988,47.20045965547628],[-122.5799529265127,47.20047612303743],[-122.5799504664641,47.20049320431275],[-122.5799578726827,47.20049859329472],[-122.5799611264999,47.20050348010046],[-122.5799621485044,47.20050245399515],[-122.5799695367995,47.20050924723575],[-122.5799660289898,47.20051194117724],[-122.5799665548018,47.20053061145657],[-122.5799520975163,47.20055153331838],[-122.5799493819992,47.20057428629762],[-122.5799484174107,47.20059294564926],[-122.5799438067578,47.20060651616148],[-122.579944596523,47.20061593340093],[-122.5799423055555,47.20063047100182],[-122.5799407491313,47.20065904047105],[-122.5799349396953,47.20069193209294],[-122.5799297578402,47.20071828816903],[-122.5799240195005,47.20074298703344],[-122.579923909065,47.20076208435074],[-122.5799228326871,47.20078376098592],[-122.5799148604788,47.20080281909338],[-122.5799053698414,47.20083206176975],[-122.5799039813197,47.2008680374623],[-122.5798998666613,47.20091596860852],[-122.5799005860329,47.20095822291098],[-122.5798829028771,47.20099671946529],[-122.5798726655999,47.20103151932453],[-122.5798705099444,47.2010477366921],[-122.5798696932831,47.20105760520208],[-122.5798711208096,47.2010654472701],[-122.5798694933317,47.20107449589327],[-122.579870675985,47.20108699366934],[-122.579871024382,47.20110218127505],[-122.5798679920743,47.20111550773754],[-122.5798625180919,47.20112948346215],[-122.5798601588746,47.20113779694031],[-122.579856642789,47.20114376550067],[-122.5798556236445,47.20115509460271],[-122.5798549835193,47.20116413812505],[-122.5798504053189,47.20117567359674],[-122.5798436046959,47.20118995613536],[-122.5798398126271,47.20120081297834],[-122.5798364894586,47.20120819635034],[-122.5798385727357,47.20121291277449],[-122.5798368102814,47.201214931092],[-122.5798353003606,47.2012212698836],[-122.5798323105841,47.2012244028796],[-122.5798314127063,47.20122448652076],[-122.579828706564,47.20122584092484],[-122.5798321438085,47.20122361007377],[-122.5798323768792,47.20122350378507],[-122.5798323768792,47.20122350378507],[-122.5798312095179,47.20122416675173],[-122.5798312095179,47.20122416675173],[-122.5798312095179,47.20122416675173],[-122.5798281886878,47.20123476450754],[-122.5798314970631,47.20123941391152],[-122.5798306704515,47.20123818820553],[-122.5798267022548,47.20124243756243],[-122.5798254644624,47.20124707484823],[-122.5798235852354,47.20126416525364],[-122.579819314686,47.2012956765283],[-122.5798103132303,47.20133156006312],[-122.5798021388052,47.20136743669006],[-122.5797964992454,47.20139403623644],[-122.5797942036428,47.20142179159073],[-122.5797862344481,47.20144253883741]]}}
