{"type":"Feature","properties":{"name":"NCAAOSU-10k","legacyMeetId":"8266","distance":"10k"},"geometry":{"type":"LineString","coordinates":[[-97.07724569645654,36.13306912168801],[-97.07769866413258,36.13753910689638],[-97.07802562268579,36.14060740950123],[-97.07807648482462,36.14082944959407],[-97.07821315470473,36.14099114554842],[-97.07833393868613,36.14100706518648],[-97.07844567223457,36.14100619130917],[-97.07856625810265,36.14093119100416],[-97.07861804780119,36.14087729952367],[-97.07869494858141,36.14071135097699],[-97.07877507209402,36.14025287031217],[-97.07903234811592,36.13999275757185],[-97.07915081706277,36.13995845627167],[-97.07928437009005,36.13993034140343],[-97.07940498167626,36.13992350483034],[-97.07953326514941,36.13993990917508],[-97.07966243455155,36.13996498697687],[-97.07979236218232,36.14002612794485],[-97.07988659269942,36.14010084277928],[-97.08029521728295,36.14069412142975],[-97.08038534057022,36.14075067149625],[-97.0805815200489,36.14084914396297],[-97.08126763089265,36.14110861386889],[-97.08137761526896,36.14113419734598],[-97.0814701768412,36.14114272316893],[-97.08240653031952,36.1411323135811],[-97.08249766608317,36.14111632375893],[-97.08258256275644,36.1410577979303],[-97.08263409316035,36.14099972919996],[-97.08267430707497,36.14089387851558],[-97.08266080682819,36.1407062274391],[-97.08265505156328,36.13883289349656],[-97.08260427747541,36.13875264855955],[-97.08253472271296,36.13870725448856],[-97.0824313924344,36.13869322170226],[-97.08229258500725,36.13867899317896],[-97.08207825989376,36.13874004483666],[-97.08137847575638,36.13900163834156],[-97.08128311191962,36.13902760038496],[-97.08096811019878,36.13908029117481],[-97.0803627130456,36.13914154957851],[-97.07988795253351,36.13905196899565],[-97.07952810864711,36.13896452592914],[-97.07900414349277,36.13880438975212],[-97.0787235259971,36.13873268165968],[-97.07853374974874,36.13870269130265],[-97.0784541287787,36.13869246043654],[-97.07837005493599,36.1387051769663],[-97.0782814639579,36.13874008034743],[-97.07821521105664,36.13879263248931],[-97.07805635137481,36.13892406316125],[-97.07792259032728,36.13909227494612],[-97.07799142745128,36.14100425317215],[-97.07797414719067,36.1410787058965],[-97.07791094877567,36.14115233920067],[-97.0778128236774,36.14119704815765],[-97.07771224658298,36.14118152369646],[-97.0774531210759,36.14108431261783],[-97.07719590550917,36.14093997145893],[-97.07714113225366,36.14085627080262],[-97.07683886959894,36.14013671912598],[-97.07640018759673,36.1391616246601],[-97.07633319108825,36.13891517735734],[-97.07635339613549,36.13862631239581],[-97.0764246319391,36.13834889292846],[-97.07646605440239,36.13816687174329],[-97.0764963390919,36.13795791662236],[-97.07651851297733,36.13779797540396],[-97.07651180601454,36.13760548417225],[-97.0764857731805,36.13751088931975],[-97.07642817150548,36.1374402724345],[-97.07635658846331,36.13739852009029],[-97.07626989804103,36.13736883552016],[-97.07616947610732,36.13736127150954],[-97.07608629770507,36.13740195760776],[-97.07600719349307,36.13749554657237],[-97.07598853485933,36.13760062193446],[-97.07600877416047,36.1386297820114],[-97.07618423899069,36.14031443940393],[-97.07617762565813,36.14061826725153],[-97.0761337372979,36.14075676795004],[-97.07608553648309,36.14083020033559],[-97.0759811350699,36.14087708351052],[-97.07587634462729,36.14086064191579],[-97.07540263969148,36.14066412292954],[-97.07504732800997,36.14059652062929],[-97.07468310001825,36.14059138280478],[-97.0744871728741,36.14057400373304],[-97.0743958643908,36.14050609728267],[-97.07432373533506,36.14043366392719],[-97.07428907682488,36.14027635637129],[-97.07428465872741,36.14014156353788],[-97.0742688152918,36.13998903925379],[-97.07426526383271,36.13986288889689],[-97.07430309998183,36.13980087243429],[-97.07441376262244,36.1396940555595],[-97.07474688166715,36.13944642917762],[-97.07484045425795,36.13937240066016],[-97.0748933167728,36.13926654037564],[-97.07501790885377,36.13899602408351],[-97.07509583746088,36.13878430305554],[-97.07516214902428,36.1385839994851],[-97.0752116161946,36.13838480045505],[-97.07524938369606,36.13820046530579],[-97.07526338129057,36.13809279171507],[-97.07524235288932,36.13799671882893],[-97.07489765947619,36.13726948338573],[-97.07481383270392,36.1369202059771],[-97.07476535195879,36.13687683183831],[-97.07467652038132,36.13682652777906],[-97.07454631283231,36.13679356801738],[-97.07443027884821,36.13680378433791],[-97.0743346591042,36.13684376889974],[-97.07424810777742,36.13689743535736],[-97.07418725652776,36.1369905075069],[-97.07417312520631,36.13709085172307],[-97.0744121145501,36.13840091379587],[-97.07436858048034,36.13856221565577],[-97.07419711630568,36.13871357557706],[-97.0740058893987,36.13882087973673],[-97.07369709208506,36.13896094480808],[-97.07357840689309,36.13897280559569],[-97.07345938254308,36.13891736433127],[-97.0733661543406,36.13871743025134],[-97.07332337882895,36.13849881594842],[-97.07331686860903,36.1378186015297],[-97.0733152805307,36.13742521372033],[-97.07330678620497,36.13655642641837],[-97.07335419291613,36.13645560364096],[-97.0734155854109,36.13623610605612],[-97.07341506712356,36.13614191781837],[-97.07338533354239,36.13593521634282],[-97.0733161784229,36.13538363281253],[-97.07328642418761,36.1345395476401],[-97.07326487928292,36.13415510422376],[-97.07325272930882,36.13381748709383],[-97.07323698188692,36.13349780660186],[-97.07326745499898,36.13340311990693],[-97.07332041161094,36.13329300359221],[-97.07338755077515,36.13323215674085],[-97.07347761167752,36.13319360963747],[-97.07557053339319,36.13308894636409],[-97.0760941616649,36.13305685599847],[-97.07658912361023,36.1329849828384],[-97.07766545684433,36.13284260053813],[-97.07778287602251,36.13285866065573],[-97.07786663708534,36.13290995682612],[-97.0779266139235,36.13295915380312],[-97.07796977714558,36.13306439260759],[-97.07796904394647,36.1332113358773],[-97.07789052685185,36.13374664187904],[-97.07778927807834,36.13431277667513],[-97.07758090725562,36.1350324664405],[-97.0776155402624,36.13631398228849],[-97.0778327392169,36.13824904979568],[-97.07789733906084,36.13833878124474],[-97.07809691614766,36.13845439825892],[-97.07834176329114,36.13857717458384],[-97.07844389591783,36.13860211096993],[-97.07918677767314,36.13886974342984],[-97.0794556166974,36.13894788726876],[-97.07973199007101,36.13900651127454],[-97.08002491745914,36.13907790576696],[-97.08028836401226,36.13912406682017],[-97.08044926297187,36.13913564313172],[-97.08091378950812,36.13909063588788],[-97.08104736514093,36.13906820137292],[-97.08122364053185,36.13903719352337],[-97.08132619534479,36.13901487467163],[-97.08142484652286,36.13897923602924],[-97.08202767625116,36.13876342181944],[-97.08213666547309,36.13871824027451],[-97.08224071204361,36.13869301553331],[-97.08233041465564,36.13868243076205],[-97.08247718808578,36.13869551595451],[-97.08256833665581,36.13872729537182],[-97.082633338655,36.13879513334147],[-97.08265744492064,36.13887262634709],[-97.08266382334362,36.14066811793687],[-97.08267326030224,36.14081369091925],[-97.08265126750456,36.14095562709688],[-97.08260750230629,36.14103230236821],[-97.08253872248923,36.14108855466131],[-97.08244836411465,36.14112037020005],[-97.08153123907489,36.14114068258054],[-97.08141544372278,36.14113164814875],[-97.08132011397588,36.14112000806176],[-97.08062387908315,36.14086762877539],[-97.08041213121814,36.14076758931763],[-97.08034577423307,36.14072354468237],[-97.08027419372776,36.14067075409936],[-97.07990141419671,36.14013209611512],[-97.07985843529664,36.14008206671213],[-97.07976996737271,36.14001328895719],[-97.0796968248095,36.13997815738097],[-97.0795990819054,36.13995145831171],[-97.07946477485845,36.13993537069992],[-97.07934574038232,36.13992478675506],[-97.0792125041229,36.13994231360789],[-97.07909331514884,36.13997595397898],[-97.07900079717314,36.14002148224341],[-97.07878866724823,36.14022452067154],[-97.07871348340493,36.14060968678108],[-97.07869720083221,36.14069898031454],[-97.0786825709289,36.14074445427421],[-97.07863312158412,36.14085452286253],[-97.07858465019449,36.14091132443223],[-97.07851196001492,36.14096415340236],[-97.0784651116292,36.14099170808784],[-97.07783974901074,36.14120091127929],[-97.07775629966346,36.14118928901754],[-97.07763336102295,36.14115370731434],[-97.0774925918978,36.14109675555099],[-97.07739290162404,36.14105250699607],[-97.07722707424466,36.14095409438587],[-97.07718149707681,36.14091206685985],[-97.07712494068358,36.14082307771503],[-97.07684914720055,36.14015655278372],[-97.07682797759678,36.14010797132619],[-97.07641299073461,36.13919687444279],[-97.07638796792078,36.13912912466385],[-97.07634415667084,36.13894091311608],[-97.07633685948232,36.13888587672701],[-97.0763493466137,36.13865698686816],[-97.07641855145928,36.13837902594507],[-97.07643769144526,36.13827723517077],[-97.07646069753751,36.13820224060115],[-97.0764754857897,36.13808473028749],[-97.07648790939011,36.13800998502408],[-97.076511196156,36.13787992336893],[-97.0765145898533,36.13770901055047],[-97.07651374363401,36.13764387464187],[-97.07649918877013,36.13755090777681],[-97.07646001129068,36.13747486386303],[-97.07639669760857,36.13742388633896],[-97.07631750892573,36.1373869003134],[-97.07622021886526,36.13736672177063],[-97.07618081460258,36.13736522833783],[-97.07612404999269,36.13737641492727],[-97.07606930043852,36.13741704201028],[-97.07602316726083,36.13747612482037],[-97.07599822293498,36.13751944556257],[-97.07598940194856,36.13757981471758],[-97.07598952623846,36.13763131176379],[-97.0760125158289,36.13860109377298],[-97.07617898217181,36.14028761382956],[-97.07618119978193,36.14035923478335],[-97.07617803631052,36.14059252768153],[-97.07615497280109,36.14070423951599],[-97.07610673448525,36.14079561934669],[-97.07606740360583,36.14083682621306],[-97.07600611657426,36.14085956803047],[-97.07595809137898,36.14087866846322],[-97.07590982550752,36.14086044219847],[-97.07560217659524,36.1407426324974],[-97.07544668006645,36.14068651292428],[-97.07532580170974,36.14065514746388],[-97.0750973887139,36.14061423918527],[-97.07497941584123,36.14059637261153],[-97.07472901200033,36.1405831907036],[-97.07462216145403,36.14058507997107],[-97.07452805468591,36.14056800149427],[-97.07442716994032,36.14053551827243],[-97.07435951312915,36.14047066307319],[-97.07429785911386,36.14039512376809],[-97.07427685049063,36.14023824599837],[-97.07427482928478,36.14006896733637],[-97.07426157031011,36.13993331221604],[-97.07427357923036,36.13983136234324],[-97.07435086335619,36.13975136967519],[-97.07469226288124,36.13948090869745],[-97.07478663003668,36.13940891996891],[-97.07485018723095,36.13934636790311],[-97.074871182444,36.13930051218801],[-97.0749156873133,36.13923217982956],[-97.07499164807699,36.13904002900379],[-97.07506272269113,36.13888629720594],[-97.07512978813904,36.13868670467743],[-97.07518470245338,36.13848377027882],[-97.07522887610432,36.13828647277175],[-97.07525139104986,36.13815025915566],[-97.07525739198945,36.13803799353713],[-97.07521600012491,36.13793803670745],[-97.07491910018254,36.13732086147173],[-97.07488297528226,36.13722257544713],[-97.07482245438831,36.1369616931273],[-97.07479219172022,36.13689782325211],[-97.07471478344301,36.13685308150309],[-97.07462453661505,36.13680940840278],[-97.07448956239509,36.13679810255916],[-97.07437064267427,36.13682099821222],[-97.07427755446045,36.13687129399442],[-97.07421372950014,36.13694827903214],[-97.07416549950716,36.13705351243584],[-97.07416739586037,36.13714802763398],[-97.07440003075307,36.13834710756851],[-97.07439094423884,36.1384611595217],[-97.07437837454022,36.13852710153329],[-97.07432845661884,36.13860464726736],[-97.07424043789793,36.13868081074572],[-97.0741468422504,36.13874564574525],[-97.07395969304174,36.13884407949177],[-97.07375194861828,36.1389422435706],[-97.07362771508073,36.13896867066457],[-97.07351358385246,36.13895234093945],[-97.07343185377219,36.13887134889526],[-97.07337904155399,36.13876573414341],[-97.07336235277944,36.13865335482184],[-97.0733282952519,36.13854749406536],[-97.07331435599761,36.13844670129698],[-97.07331443761016,36.13787323995052],[-97.07331336505194,36.13746354036437],[-97.07330420786923,36.13659876464537],[-97.07332122094856,36.13651479542537],[-97.07336931989988,36.13640951376153],[-97.07340156229301,36.13627643344183],[-97.07340560204815,36.13619972054666],[-97.07339250080648,36.13599717027964],[-97.07332204106115,36.13543510855361],[-97.07328714931201,36.13456925079553],[-97.07326688392038,36.13420222568178],[-97.07325335587824,36.13387543747054],[-97.07324012936225,36.13355038535667],[-97.0732433436143,36.13345011079924],[-97.07328481390576,36.13335094253194],[-97.0733499944206,36.13326454644339],[-97.07342914633735,36.13321252771972],[-97.07353380489543,36.13318706756196],[-97.07624788694523,36.13309809582808],[-97.07634252345,36.13313090617627],[-97.07643444707585,36.13319581550201],[-97.0764890173338,36.13325206697321],[-97.07652194207957,36.13331584836155],[-97.0761105768686,36.13502072436985]]}}
