{"type":"Feature","properties":{"name":"NCAAMidAtlantic-10k","legacyMeetId":"7555","distance":"10k"},"geometry":{"type":"LineString","coordinates":[[-77.87317713182252,40.79470759168753],[-77.87506401104535,40.79291485250024],[-77.87514048064989,40.79275483512173],[-77.87512868250104,40.79254067515415],[-77.87513868072618,40.79221832127798],[-77.87516959850605,40.79192732507625],[-77.87521990966955,40.79155531256393],[-77.87527518535423,40.79136594003801],[-77.8753234262344,40.79122383432504],[-77.87539685247532,40.79102571435201],[-77.87549189002486,40.79083442062936],[-77.87564596264262,40.79051900958283],[-77.8756979523997,40.79028104018619],[-77.87578573945008,40.78980979772152],[-77.87581788524083,40.78968297392684],[-77.87587211218292,40.78959388857926],[-77.87588886707074,40.78950236498283],[-77.87589069491453,40.78933833421767],[-77.87596311256647,40.78919921757394],[-77.87627072661033,40.78850942093199],[-77.87647191730201,40.78816331734469],[-77.87656034382636,40.78800871200974],[-77.87661438074409,40.78789804082012],[-77.8766395561634,40.78767374960192],[-77.87670424410575,40.78704074160793],[-77.87672691454416,40.78663945822252],[-77.87675315834721,40.786382659162],[-77.87665142481474,40.78637367454625],[-77.87641724192095,40.78626223592275],[-77.87622009449966,40.7861643419531],[-77.8761252894655,40.7860134311758],[-77.87618890084752,40.78576802590231],[-77.87630598764385,40.78550274460768],[-77.87638866250339,40.78544149608116],[-77.87652119358522,40.7854493949214],[-77.87675597245212,40.78558877906652],[-77.87701956401486,40.78572704814409],[-77.87716499269429,40.78572789031649],[-77.877356056452,40.78564360264064],[-77.87769165706887,40.78543050101788],[-77.87807719594103,40.78516151858848],[-77.87839187493576,40.78519403751224],[-77.87860863792591,40.78531227389831],[-77.88004522250321,40.78638987931779],[-77.88056901144925,40.7865782683173],[-77.88092843825062,40.78664287697767],[-77.88134127049982,40.78674346657284],[-77.88172481334983,40.78683607327098],[-77.88261661878266,40.78729442865509],[-77.88322827114689,40.78775743955116],[-77.8835767703633,40.78799044795914],[-77.8837945317418,40.78787692201186],[-77.88401429187466,40.78774154006751],[-77.88405013973717,40.78745056513029],[-77.88394480106324,40.78707487456624],[-77.88376366382303,40.78686283490677],[-77.88327385644978,40.78633208890816],[-77.8823606452306,40.78542648061996],[-77.88215244884762,40.78531519389207],[-77.88174076982425,40.78486560140742],[-77.88161421722417,40.78455638572173],[-77.88148057094847,40.78416849345093],[-77.88134115174867,40.7836318754972],[-77.88133145634367,40.78360398871134],[-77.8811904922305,40.78319919245843],[-77.88121963295119,40.78303216126612],[-77.88114940090763,40.78286508422884],[-77.88060423700777,40.78232899192707],[-77.8804536412275,40.78233312247234],[-77.87676111059328,40.7848634392133],[-77.87657092640944,40.78508923018028],[-77.8763851793204,40.78531925143976],[-77.87645961842954,40.78543990146161],[-77.876654040274,40.78551894227736],[-77.87694069684748,40.78564023124683],[-77.87709906131532,40.78569137436274],[-77.87726417086503,40.78568963231574],[-77.87752297958158,40.78555559463449],[-77.87786142550176,40.78533728683343],[-77.87797958641272,40.78524570783164],[-77.87833800624817,40.78512693255932],[-77.8784748728715,40.78516793645542],[-77.87881509897213,40.78546042088735],[-77.88010436079524,40.78644304941461],[-77.88052204734223,40.78656628478579],[-77.88086747853428,40.78664038846097],[-77.88124267639039,40.78672393594202],[-77.88163266728077,40.78680375673672],[-77.88253327458558,40.78723617964153],[-77.88315410862103,40.78770385775078],[-77.88334230995177,40.78780690559658],[-77.88347054714659,40.78787995579973],[-77.88370635506837,40.78795819906653],[-77.88391652866076,40.78783460260718],[-77.88404506681611,40.78758725515423],[-77.88401829256286,40.78731154130816],[-77.88388553260121,40.78699183008556],[-77.88348256142295,40.78659077300185],[-77.8829913989037,40.78606522022589],[-77.88239512970365,40.78545752457521],[-77.88223230128222,40.78535702694975],[-77.88210916467943,40.78527961296759],[-77.88179022534966,40.78492014863389],[-77.8817018335962,40.78479356364041],[-77.8816346325957,40.7846283772976],[-77.88150289105403,40.78426301455298],[-77.88134480040989,40.78367672005172],[-77.88121798939191,40.78327806084511],[-77.88121109100972,40.78311017250451],[-77.88119979152926,40.78294755664871],[-77.88109223513244,40.78281652300164],[-77.88068793650332,40.78238842746487],[-77.8805445996146,40.78231945840435],[-77.88040267539078,40.78236926006728],[-77.87680691143382,40.78485159900023],[-77.87665510706822,40.78501405269986],[-77.87647880517973,40.78519160612709],[-77.87642538683531,40.78540104513751],[-77.87665740137547,40.7853554977975],[-77.87697046956356,40.78565903109252],[-77.877143196958,40.78589430692796],[-77.87737013520321,40.78601670474767],[-77.87749629248172,40.78640032556441],[-77.87777706483689,40.78680059003408],[-77.87818907389749,40.78717046889763],[-77.87877905440024,40.78754677220586],[-77.87949357853886,40.78768490437991],[-77.8802969155152,40.78785704554606],[-77.88135899968594,40.78827461939586],[-77.88146303476259,40.7881307445417],[-77.88123165730333,40.78784068878533],[-77.87928299939243,40.7868246839646],[-77.8788692001326,40.78665729804817],[-77.87865733904651,40.78650460355318],[-77.87850521588649,40.78630924532342],[-77.87858524952968,40.78593531283767],[-77.87873066348894,40.78590452202439],[-77.87902257956019,40.78569425081734],[-77.88020415249171,40.78645522787198],[-77.88074084037797,40.78661068829012],[-77.88111010798949,40.78664989144127],[-77.88148672920993,40.78679418778322],[-77.88184143053184,40.78689734682536],[-77.88185308932277,40.7870142348842],[-77.88141343940488,40.78731154256666],[-77.88144705513687,40.78745455624406],[-77.88175615430698,40.78782086539882],[-77.88203128899009,40.78827810049133],[-77.88218807550912,40.78856525463771],[-77.88220619438054,40.78866539873547],[-77.882552725122,40.78905720958684],[-77.88288473610488,40.78942908066693],[-77.88320455935973,40.78951936388727],[-77.88374967615476,40.79000163368737],[-77.88422013853048,40.79028403696917],[-77.8845615492243,40.79053897813838],[-77.8848399550408,40.79071304466943],[-77.88493199335657,40.7908404538703],[-77.88444444093305,40.79094008840705],[-77.88380203739574,40.79093737109443],[-77.88300723741798,40.79094291344104],[-77.88272278994653,40.7909423593948],[-77.88202321614628,40.79060373310622],[-77.88133701475417,40.79038116330769],[-77.88088266078827,40.79017639821262],[-77.88076086295638,40.78981035613349],[-77.8808902754742,40.78952005203985],[-77.8809783981637,40.78924883268301],[-77.88092668686133,40.78883972598257],[-77.88057171408211,40.78848600986586],[-77.87992499488468,40.78825838366527],[-77.87932952297733,40.78812442259418],[-77.87901816285996,40.78820041206588],[-77.8786417099016,40.78830772446993],[-77.87842660666318,40.78819299590565],[-77.87811599980367,40.78782812710565],[-77.87762378714388,40.78728966202831],[-77.87734838183438,40.78731675526776],[-77.87717175945076,40.78746242930488],[-77.87694206102294,40.7878050987837],[-77.87632124687676,40.78806042487992],[-77.87578686644561,40.78830015097505],[-77.8754677566517,40.7885324676351],[-77.87509800193304,40.78897761636091],[-77.87491124526844,40.78925321686111],[-77.87494103101629,40.78944154015325],[-77.87513199896986,40.78968147319752],[-77.87516583698759,40.7898301710379],[-77.8748469676722,40.79012868754396],[-77.87340293680332,40.79148683766937],[-77.87275053058835,40.79209135086396],[-77.87266036450322,40.79220946301262],[-77.87266020783129,40.7923093952621],[-77.87289788707238,40.79224754836174],[-77.87321897809124,40.79199826158476],[-77.8737740346338,40.79147561159218],[-77.87415503337822,40.79121673370872],[-77.87463720015234,40.79085149197324],[-77.87525650448303,40.79072283358577],[-77.87558297351579,40.79051872030369],[-77.87583222475097,40.79034199825594],[-77.87601065179997,40.7903916216671],[-77.87614106569231,40.79049601809244],[-77.8762997830591,40.79069629446919],[-77.87627982088075,40.79082479493903],[-77.8761537631137,40.79096774283931],[-77.87563772947364,40.7915310792534],[-77.87554703304899,40.7917955751106],[-77.87542086505435,40.7920875925532],[-77.87504132809002,40.79253281902845],[-77.87463879020646,40.79284709413465],[-77.87412010912844,40.7934934297081],[-77.87398254372499,40.79375931477877],[-77.87385354459798,40.79399895579073],[-77.87367377519264,40.79410854618853],[-77.87291475819991,40.7948281128351],[-77.87256943055976,40.79507443538551],[-77.87235760685793,40.79497504868664],[-77.87203012241528,40.79500359896041],[-77.87164100791227,40.79512398879011],[-77.87134767097076,40.79516249583243],[-77.87076923853797,40.79521272867009],[-77.87068176797368,40.79517251519955],[-77.87055814329085,40.79506541942969],[-77.87050248132596,40.79495342636378],[-77.87050728477487,40.79487878468547],[-77.87120424451649,40.79450443072509],[-77.87342579732173,40.79286612372682]]}}
