{"type":"Feature","properties":{"name":"NCAAD3-8k","legacyMeetId":"5278","distance":"8k"},"geometry":{"type":"LineString","coordinates":[[-84.49077676607607,42.70940825602388],[-84.49078359158949,42.70940731719336],[-84.49078935230409,42.70940832752956],[-84.4907890823972,42.70941100730823],[-84.4907940452279,42.70941193110036],[-84.49079335788049,42.70941458257428],[-84.49079518240235,42.70941953056527],[-84.49078951952778,42.70941729497926],[-84.49075940209548,42.70940152352863],[-84.49074974170755,42.70939951675106],[-84.4907370676729,42.70939707527162],[-84.49071106278372,42.70939163560943],[-84.49069179131854,42.70938150191756],[-84.4906720168996,42.70936453513971],[-84.49066567348343,42.70934805549633],[-84.49064381705671,42.70932813341523],[-84.49062943750248,42.70930177582075],[-84.49061535823982,42.70927771187181],[-84.4905984539551,42.70925303311834],[-84.49058161799137,42.70922767913601],[-84.49058161799137,42.70922767913601],[-84.49056105756894,42.70920069456955],[-84.49053933999512,42.7091705389745],[-84.4905139036317,42.70913706639002],[-84.49048940375202,42.70909661664839],[-84.49046746534515,42.70906586694089],[-84.49044015623714,42.70902603239669],[-84.49040905377471,42.70898580769941],[-84.49037994264793,42.70895230104779],[-84.49035273541132,42.70892008320909],[-84.49032665489345,42.70888092041966],[-84.49029752678969,42.70885161607116],[-84.49027716656275,42.70881011306178],[-84.49025405027079,42.70877214039822],[-84.49022940459415,42.70873239726203],[-84.49018841507795,42.70868998660045],[-84.49015859983882,42.70866134174807],[-84.490129068327,42.70862772643869],[-84.49009442292697,42.70859219384315],[-84.49006788890763,42.70853970424264],[-84.4900477581666,42.70850499642773],[-84.49002737903433,42.70846598936621],[-84.49000763654632,42.70843090697784],[-84.48997998201898,42.70839367030545],[-84.48995535329018,42.70835854503051],[-84.48993270139906,42.70832539215422],[-84.48991538461662,42.7082860730443],[-84.48989083942794,42.70825142893345],[-84.48987336228356,42.70821239357625],[-84.4898533627366,42.70817900524141],[-84.48982893688547,42.70813833013715],[-84.48980356515814,42.70809745119517],[-84.4897711165173,42.70805602993963],[-84.48974220885891,42.70802364013007],[-84.48971845029611,42.70798673073893],[-84.4896946677334,42.70794291485998],[-84.48966293893655,42.70790401007166],[-84.48963499948573,42.707870035663],[-84.48959750072731,42.70783022992207],[-84.48957093753866,42.70778735794604],[-84.4895452999455,42.70774017332995],[-84.48951612656927,42.70769440218758],[-84.48948530677986,42.70765731905807],[-84.48945265670038,42.70761849947915],[-84.48942378072908,42.70757871287393],[-84.48939071037739,42.7075407360882],[-84.48936359769597,42.70750462873296],[-84.48933362648788,42.70746796144373],[-84.48930623743091,42.7074272713778],[-84.48927921131381,42.70738543437103],[-84.48924936252503,42.70734414060482],[-84.48922859977543,42.70730073765376],[-84.48920335037033,42.70725937500292],[-84.48917584296073,42.70721527825607],[-84.4891440486803,42.70717269961928],[-84.48911631588592,42.70713279024859],[-84.48909328087326,42.70709328745577],[-84.48906879507635,42.70704488991199],[-84.48904622468451,42.70700523166729],[-84.4890242962465,42.70696226449432],[-84.48900387665661,42.70692433446732],[-84.48898239125646,42.70688339131238],[-84.48895367587559,42.706834117307],[-84.48893010201577,42.7067923680979],[-84.48891309396386,42.70674151324931],[-84.48889762363318,42.70669165113364],[-84.48887837843408,42.70663928952735],[-84.48886114033841,42.7065906105068],[-84.48884769241074,42.70654639265948],[-84.48883496936568,42.70649994439828],[-84.48882081152777,42.70645159431842],[-84.48880730441238,42.70641265734086],[-84.4888026825918,42.70636509786755],[-84.4887989513622,42.70631487731347],[-84.48878281093378,42.70626930834496],[-84.488772693966,42.70622069194666],[-84.48875933085488,42.7061765850442],[-84.48874264701783,42.7061322206732],[-84.48873100033342,42.70609268273272],[-84.48872168533572,42.70603866777269],[-84.48871466966999,42.70600583680584],[-84.4887084814836,42.70596323594176],[-84.48870275262092,42.70592033492101],[-84.48869876919838,42.7058808400058],[-84.48868383374446,42.70583282109133],[-84.48866795107377,42.70578977477656],[-84.48865714182227,42.70574921112664],[-84.4886470270108,42.70570657139222],[-84.48863415224157,42.70566908380158],[-84.4886234835993,42.70562465367641],[-84.48862248847276,42.70558105538785],[-84.48860400865159,42.70555309695758],[-84.48859271286763,42.70551018111245],[-84.48857487827647,42.70546802207782],[-84.48855856901041,42.70542198205646],[-84.48853127217455,42.70538176133795],[-84.48851315052526,42.70533600367452],[-84.48849825617437,42.70529045163823],[-84.48848387861948,42.70525097510455],[-84.48846773416349,42.70521316676525],[-84.48844250538484,42.70517286823053],[-84.48841523793526,42.70514088667422],[-84.48838556766101,42.70511886886686],[-84.48834481082903,42.70509712684043],[-84.48829564653249,42.70508010731311],[-84.48824613445282,42.70506989473002],[-84.48819342882835,42.70505978026458],[-84.48813392984633,42.70505602858477],[-84.48807486482207,42.70505484200761],[-84.4880220902303,42.70505443679111],[-84.48797476529641,42.70505432025814],[-84.48793404812369,42.70505324728362],[-84.48789166972207,42.70505575875155],[-84.48783434269022,42.70506165030533],[-84.48777685852518,42.7050634092006],[-84.48771419481662,42.70506547941925],[-84.48765402471062,42.70507359660073],[-84.48759938982259,42.70507691390047],[-84.48753424862784,42.70508388139175],[-84.48747905355825,42.70508882064455],[-84.48741973359783,42.70509611127976],[-84.48735757813286,42.70510148857672],[-84.48730564824372,42.70510870003541],[-84.48724683333515,42.70511695110412],[-84.48719401738161,42.70512895922756],[-84.48714600427886,42.70515011426444],[-84.48710300400478,42.70518114218229],[-84.48706234057897,42.70521527721372],[-84.48702873012401,42.70525026958116],[-84.48699885793623,42.70528731160664],[-84.48698048093172,42.70532529077025],[-84.48697283934247,42.70535554051168],[-84.48697115952558,42.70539160672859],[-84.48696126446207,42.70542943089215],[-84.48696952191021,42.70546933696939],[-84.48697684986372,42.7055098602308],[-84.486984807928,42.70555493553208],[-84.48699089381157,42.70559631452432],[-84.48698977318502,42.70563909249717],[-84.48698977993779,42.70568461520691],[-84.48698240185183,42.70572977283019],[-84.48698070067492,42.70577894894003],[-84.48697647101775,42.70582222696667],[-84.4869720094106,42.70586095746737],[-84.48697120473214,42.70590230356974],[-84.48696535341904,42.70593768155091],[-84.48696162767226,42.70597732115728],[-84.48695806124368,42.70601733629416],[-84.48695400360111,42.70606154070556],[-84.4869479802095,42.70610497634753],[-84.4869461997146,42.70614767414098],[-84.48694323301449,42.70619575263727],[-84.48693850229124,42.70623764200014],[-84.48693025362041,42.7062743404256],[-84.48692638112786,42.70630669701757],[-84.48692360106165,42.70635031124586],[-84.48692232624687,42.70639301510822],[-84.48692324771247,42.70643496397868],[-84.486923367679,42.70647557210738],[-84.48692092963476,42.7065128214079],[-84.48691934196673,42.70654983138011],[-84.48691675382919,42.70658740577794],[-84.48691472871019,42.70663070467901],[-84.48691215051065,42.70666924957501],[-84.4869167804183,42.70670857827304],[-84.48692196738193,42.70674697128869],[-84.48693682011975,42.70678383406898],[-84.48695698159243,42.70682687357851],[-84.48698054888015,42.7068691276903],[-84.48699504207596,42.70691079558399],[-84.48702156929127,42.70694885069121],[-84.48705105953341,42.70698865225167],[-84.48707157827394,42.70703085810985],[-84.48709565373265,42.70706345150185],[-84.4871208781511,42.7071043731757],[-84.48714374220847,42.70714607205706],[-84.48717031553308,42.70718395800438],[-84.48719133344844,42.70722423176726],[-84.48722157146776,42.70726973747424],[-84.48724693943986,42.70730889013875],[-84.48726579090618,42.70734521133782],[-84.48727770923509,42.70738907745336],[-84.48729330616558,42.70742760063656],[-84.48729966823356,42.70747142643398],[-84.48731534532367,42.7075089984112],[-84.48732394254296,42.70755057979263],[-84.48733550714584,42.70759290647869],[-84.48733887323208,42.70764022696821],[-84.48734230580774,42.70768514777019],[-84.48734086950586,42.70773749061565],[-84.4873415725637,42.70778570450227],[-84.48734659349553,42.70783333857142],[-84.48735001858536,42.70788459687138],[-84.48734981208611,42.70793350407516],[-84.48734777626073,42.70797918061434],[-84.48734405188115,42.70802469699998],[-84.48734005125885,42.70806866243756],[-84.48733559589095,42.70811089018121],[-84.48733307008376,42.70815487491697],[-84.48733615143443,42.70819776148023],[-84.48733795041096,42.70824766273761],[-84.48733363491155,42.70829129167317],[-84.48733259847526,42.70833511470259],[-84.48733566991383,42.70838201642491],[-84.48733543104925,42.70842617141484],[-84.48733194977044,42.70847003905999],[-84.48732598085876,42.70851579389056],[-84.48732964138809,42.70856439453409],[-84.48732683201823,42.70860874838026],[-84.48731917248467,42.70865118146256],[-84.48731257263601,42.70869670131812],[-84.48730232768574,42.70873672613575],[-84.48728548405165,42.70877875864643],[-84.48726261888504,42.70881646450743],[-84.48723926499021,42.70885507323149],[-84.48721321772413,42.70888619427171],[-84.48718777345488,42.70892290148956],[-84.48715376872086,42.70896522772105],[-84.48711747507822,42.70899892818922],[-84.48707585651147,42.70903087811332],[-84.48703629323924,42.70906496057824],[-84.48700629024769,42.7090994296975],[-84.48697212358651,42.70912623501673],[-84.48693890191504,42.70916004293138],[-84.48690547380986,42.70918650207693],[-84.48687132149634,42.70921685256128],[-84.48683495941394,42.70924906529036],[-84.48679997549687,42.70927900722072],[-84.48676006999213,42.70930508568963],[-84.48671195732666,42.70932919339051],[-84.48665880592047,42.70934375463779],[-84.48660617725263,42.70934743824246],[-84.48655235187442,42.70934577814766],[-84.48649741007962,42.7093408706351],[-84.48644647144273,42.70933166298961],[-84.48639691592608,42.70932071201397],[-84.4863562403529,42.70930581286137],[-84.4863251017797,42.70928725158114],[-84.48628849400798,42.70925922703739],[-84.4862635879361,42.70922841722243],[-84.48624114165546,42.70919124462345],[-84.48621303301405,42.70915135926207],[-84.48619128070585,42.70911067300248],[-84.48617322559045,42.7090723464884],[-84.4861516499237,42.70902809394462],[-84.48612721870342,42.70898745333429],[-84.4861055189804,42.7089418147775],[-84.4860918038037,42.7088993229433],[-84.48606817427802,42.70885472679252],[-84.48604891244419,42.70881417065041],[-84.48602886076411,42.70876847484615],[-84.48601677798571,42.70872418337282],[-84.48600919804618,42.708680584935],[-84.48599895727043,42.7086366797498],[-84.48598901743615,42.70858598615336],[-84.48598250994014,42.70853270646546],[-84.48598709016962,42.70849451564777],[-84.48598807023747,42.70844750327149],[-84.48599069141878,42.70840226591373],[-84.48599074488509,42.70836011187932],[-84.48598682782018,42.70831369415443],[-84.48599064922561,42.70826686937971],[-84.48599400437152,42.70822289076472],[-84.4859964034535,42.7081783145582],[-84.48600043296707,42.70813297210293],[-84.48600109342429,42.70808919789358],[-84.48600628818969,42.70804730107569],[-84.48600597958314,42.70798856864221],[-84.48600785762338,42.70795044092143],[-84.48601271047534,42.7079054513339],[-84.4860198613722,42.7078585298791],[-84.48602107285798,42.70781629697325],[-84.4860213308578,42.70776921699057],[-84.48602154366955,42.70772760516529],[-84.48602565552744,42.70768472703862],[-84.4860308766524,42.70763684778972],[-84.48603391093046,42.70759072761921],[-84.48603590867478,42.7075413005693],[-84.48604159491757,42.70749210661425],[-84.48605137981615,42.70744447430894],[-84.48605511995325,42.7073917131098],[-84.48606164065968,42.70734726474888],[-84.48606514185619,42.70730129046488],[-84.4860742809006,42.70725602052704],[-84.48607898084539,42.70720931684158],[-84.48607967577476,42.70716501219773],[-84.48608510437408,42.70711712144228],[-84.48608982426337,42.70707150314915],[-84.486099383863,42.70702311834489],[-84.4860981138582,42.70698138514221],[-84.48610387216432,42.70693259173992],[-84.48611293806789,42.70688410051479],[-84.48611494034817,42.7068369809219],[-84.48611674819651,42.70679250083117],[-84.48612532234208,42.70674681817105],[-84.48613451144284,42.70670331050533],[-84.48613623730455,42.70665989680349],[-84.48614125782461,42.70661848871836],[-84.48615011355051,42.70656735140977],[-84.48615061545208,42.70653019909675],[-84.48615113104957,42.70648293292788],[-84.48615420245918,42.70643902416483],[-84.48616393463615,42.70639393454982],[-84.48617079820195,42.70635323441658],[-84.48617194561186,42.70630352039228],[-84.48618140612649,42.70625078216786],[-84.48618328098046,42.70621499181118],[-84.48618787797308,42.7061650790158],[-84.4861931536482,42.70611575876035],[-84.48620051241072,42.70606785007126],[-84.48620051241072,42.70606785007126],[-84.4861995279553,42.70602300286079],[-84.48620331686949,42.70597081277266],[-84.48620028714309,42.70592449815013],[-84.48619722282682,42.7058698827613],[-84.48619099473325,42.70582867214023],[-84.4861897219101,42.70578199158728],[-84.48617194963336,42.70574316222175],[-84.48615950328342,42.70570902423795],[-84.48615529998787,42.70567228961402],[-84.48614615678798,42.70563457168944],[-84.48613544235681,42.70560885170194],[-84.48612179553152,42.70558301743896],[-84.48609504239485,42.70555293266814],[-84.48605610535336,42.70553513429057],[-84.4860061246683,42.70553623014122],[-84.48595109559798,42.70553415738417],[-84.4858883122225,42.70553020830205],[-84.4858334392931,42.70553684264916],[-84.485785330492,42.70555050867251],[-84.4857311340342,42.7055696818179],[-84.48568312182306,42.70559026652871],[-84.48564650519357,42.70561155719677],[-84.48561575188342,42.70563637326065],[-84.48559155986631,42.70566566112573],[-84.48556884431322,42.70569310197525],[-84.48554566909387,42.70573163512707],[-84.4855193519475,42.70576449030145],[-84.48548332855721,42.70580236844921],[-84.48544993007113,42.70583692353821],[-84.48541990511063,42.70587032760348],[-84.48538622078213,42.70590395754031],[-84.4853571498006,42.70594398733737],[-84.48532753729545,42.70597897077908],[-84.48529572308641,42.70601366509243],[-84.48526591791962,42.70604755170238],[-84.4852356319523,42.70608448147076],[-84.48520684330946,42.70612383651123],[-84.4851769728442,42.70616497499545],[-84.48513478471615,42.70620244160855],[-84.48509196541575,42.70623692731838],[-84.48505286680306,42.70627171452335],[-84.48501401554594,42.70630796942319],[-84.48497993877422,42.70634552939767],[-84.48494944177678,42.7063790153567],[-84.4849200940355,42.70641354722117],[-84.48489214321613,42.70645076058369],[-84.48486898371286,42.70648518564393],[-84.48485611384562,42.70651136619033],[-84.48484328077346,42.7065459103457],[-84.48482594927259,42.70658800899401],[-84.48482509414903,42.70663700809486],[-84.48481906189738,42.70667727481748],[-84.48480737139306,42.70671624802804],[-84.48479891177435,42.70676349115767],[-84.48479424938802,42.7067974221957],[-84.48479278380377,42.7068416746379],[-84.48479309913255,42.7068805830914],[-84.48479523539764,42.70692156422175],[-84.48479901507926,42.70696338042639],[-84.4848026618241,42.70701000993496],[-84.48479969744261,42.70705334580993],[-84.48480403989123,42.70709406450548],[-84.48480513460098,42.70713683151585],[-84.48480675388771,42.70718888863525],[-84.48480801060914,42.70723461309274],[-84.48481083705302,42.70727844543129],[-84.48481119978412,42.70732363193485],[-84.48481241421467,42.7073632367527],[-84.48481036209628,42.70740610580696],[-84.48480951978753,42.70745429642646],[-84.48480776774802,42.70749607362487],[-84.48480569508645,42.70754138910355],[-84.48481101547455,42.70758563473903],[-84.48481111646477,42.70762649021691],[-84.48481702521792,42.70767380954229],[-84.48482289055208,42.70771831420114],[-84.48482795178819,42.70775919931346],[-84.48483479809383,42.70779923766968],[-84.4848449690369,42.70783832733323],[-84.48486651504115,42.70787523254637],[-84.48487876346125,42.70791135700744],[-84.484910246022,42.70793561169875],[-84.48494799086602,42.70796740109449],[-84.48499283039015,42.70799681633768],[-84.48504530042219,42.70802413183843],[-84.48510009008022,42.708052488749],[-84.48514837679328,42.70808849179903],[-84.48519729087522,42.70812251985866],[-84.4852447334995,42.7081517700539],[-84.48529141721134,42.70818327980422],[-84.48533481235525,42.70821293456974],[-84.48538267452066,42.70824079060251],[-84.48542524419682,42.70827364526396],[-84.48545480111734,42.70830755034129],[-84.48548603800664,42.70834415844795],[-84.48551383805261,42.70838339760007],[-84.48553823192228,42.70842160993674],[-84.485563331663,42.7084568808557],[-84.48557173556422,42.70849655881601],[-84.48558893930125,42.70853739386224],[-84.48559836185618,42.70857396439738],[-84.48559555974967,42.70861403038212],[-84.48558275442241,42.70865301909634],[-84.48555757172318,42.7086935022403],[-84.48552803460419,42.7087302015254],[-84.48549767207649,42.70876739734059],[-84.48547022643122,42.70880206256298],[-84.48545053390426,42.7088432012991],[-84.48543001373385,42.70888081129204],[-84.48541763926436,42.70889952564],[-84.48538694577046,42.70893427401526],[-84.48535875921891,42.70896189648856],[-84.4853347327035,42.70899616779876],[-84.48531636306991,42.70902523560265],[-84.48530480344846,42.70905523203336],[-84.48529238902975,42.70907555273844],[-84.48527950047122,42.70909818351271],[-84.48525132719412,42.70912040374862],[-84.48522753522818,42.70916918433846],[-84.48520588810304,42.70921245515617],[-84.4851902420673,42.70925551035482],[-84.4851776228586,42.70929299623454],[-84.48516076875721,42.70932737072665],[-84.48514394716204,42.70936537661717],[-84.48512313802978,42.70940038744208],[-84.48511058620659,42.70944122806252],[-84.48509058273373,42.70948499564569],[-84.48507130358368,42.70953325123686],[-84.48504795306228,42.70957276585557],[-84.48502682347177,42.70960945534243],[-84.48500798296251,42.70963898756804],[-84.48498313109566,42.70966456651676],[-84.48497317776099,42.70969844627862],[-84.48495499651618,42.70972581804578],[-84.4849384859767,42.70976524130475],[-84.4849198491645,42.70979491954176],[-84.48489909101527,42.70981970255166],[-84.48488617113927,42.70985120137536],[-84.48487760633756,42.70987685730648],[-84.48486135981686,42.70989586178041],[-84.48483443132484,42.70991864708358],[-84.4848065841027,42.70993725433419],[-84.4847645990899,42.70995056161349],[-84.48474155987927,42.70997070427604],[-84.48473420695962,42.7099982158794],[-84.48472986794495,42.71003104766522],[-84.4847371824606,42.71006381334558],[-84.48476008301309,42.71009680167695],[-84.48479195703591,42.71012739856177],[-84.48482975730599,42.71015228674188],[-84.48487240085285,42.71018146472488],[-84.48491060469858,42.71020565224504],[-84.48495346103817,42.71022899345955],[-84.48500395027169,42.71024401330886],[-84.48505056644079,42.71026840056734],[-84.48509727824292,42.71029267722651],[-84.48514517255276,42.71032064100647],[-84.48518757057218,42.71034724898018],[-84.48524160322536,42.71037153554965],[-84.4852909478377,42.71039774120436],[-84.48533855712408,42.71042067535476],[-84.48539757089445,42.71044163822959],[-84.48545113179424,42.71046328636287],[-84.48550296990746,42.71048833204255],[-84.4855535403034,42.71051209414373],[-84.48560408978715,42.71053565683651],[-84.48565323418963,42.71055749621988],[-84.48570285942588,42.71057881527489],[-84.48575376933859,42.71060089532954],[-84.48579806313037,42.71062073219368],[-84.48584057526226,42.71063902679229],[-84.48588829134195,42.71065563837299],[-84.48593883581671,42.71067187001112],[-84.48598523264506,42.71068799166171],[-84.48603160314985,42.71069816984068],[-84.48607689103257,42.71070284697239],[-84.48612473651433,42.71070630314788],[-84.4861758489358,42.71070264376984],[-84.48623097131963,42.71069821047497],[-84.48627587255159,42.71069559586142],[-84.48632672638836,42.71069679249777],[-84.48637806575398,42.71069364270003],[-84.48642851649203,42.71068951971098],[-84.48647627286364,42.71068484398487],[-84.48652141710859,42.71068014943478],[-84.48656773412495,42.71067506673955],[-84.4866131200902,42.71067388125442],[-84.48665425509733,42.71067071550783],[-84.48669946191586,42.71066176475687],[-84.48674298099593,42.71065532445076],[-84.48679055734287,42.71064788289714],[-84.48683665483605,42.71063740366015],[-84.48687316515915,42.71061660116305],[-84.48690878742039,42.71059393325728],[-84.48696505663887,42.71056575866613],[-84.4870010725176,42.71054313238968],[-84.48704289132554,42.71051925088225],[-84.48708347580894,42.71049749603537],[-84.48712520908441,42.71047335228094],[-84.48715899302843,42.71044792202856],[-84.48718887210318,42.71041982555867],[-84.48722396961152,42.71039784431044],[-84.48726328424766,42.71037660487782],[-84.48730864510438,42.71035069624779],[-84.4873466807774,42.71032176604616],[-84.48739134650585,42.7103016892251],[-84.48743417368178,42.7102788586411],[-84.48747030010577,42.71025635641709],[-84.4875230888183,42.71022964667951],[-84.48755489179285,42.71020482439747],[-84.48759062003825,42.71017816313564],[-84.48761444590885,42.71014688842448],[-84.48763722307916,42.71012512954488],[-84.48764937938297,42.71009671299225],[-84.4876730061981,42.71006950851503],[-84.48769172332014,42.71002727995388],[-84.48771621709162,42.70998164180129],[-84.48774829946132,42.70992776392968],[-84.48778660875237,42.70989091190182],[-84.48782793436187,42.70985393656886],[-84.48787103855369,42.70982677363288],[-84.48791844741291,42.709801313631],[-84.48795188019228,42.70978535321849],[-84.4879880782974,42.70976242718696],[-84.48804186246099,42.70975394767473],[-84.48810052777594,42.70975573086387],[-84.48815091542562,42.70976342199532],[-84.48821027296171,42.7097750176597],[-84.48827738230558,42.70978993899378],[-84.4883402497985,42.70980447665513],[-84.48842172612225,42.70981429855636],[-84.48847518837792,42.70982326239091],[-84.48852876263959,42.70983621086665],[-84.4885873772707,42.70984589539269],[-84.48864282848525,42.70985545963399],[-84.48869813309297,42.70986480563477],[-84.48874932883908,42.70987134214125],[-84.48879995698643,42.70987980085628],[-84.48885028392108,42.70989143561636],[-84.48889658087032,42.70990178494005],[-84.48894154578471,42.70990939750153],[-84.48898927357519,42.70991787937205],[-84.48904196155124,42.70993155388505],[-84.4890946905656,42.70993950429925],[-84.48914138814042,42.70994654821843],[-84.48919512164632,42.70995213653593],[-84.48924591858874,42.70996399993432],[-84.48929641030055,42.70997365251183],[-84.4893524441672,42.7099841398251],[-84.4894210602945,42.70998994708059],[-84.48946735247486,42.71000506305902],[-84.48952179604805,42.71001471349328],[-84.48957658055014,42.71002237848457],[-84.4896304824786,42.710031398286],[-84.48968072096314,42.71003772318353],[-84.48973995864856,42.71004685392803],[-84.48978859795682,42.71005479271265],[-84.48982042904022,42.71006421589033],[-84.48986438622588,42.71007131449345],[-84.48989859087607,42.71007946997712],[-84.48994498654113,42.71008925245888],[-84.48999035481083,42.7100954943426],[-84.4900338447092,42.71010532286132],[-84.49008044708455,42.71011944311234],[-84.49012773415647,42.71013550875523],[-84.49017230601581,42.71015195038054],[-84.49022013440639,42.71017067979162],[-84.49027275992813,42.71017935692971],[-84.49032812076224,42.71018388593914],[-84.49037544012364,42.71018277864847],[-84.49042082178906,42.71018603749198],[-84.4904777828101,42.7101883331911],[-84.49053257057028,42.71018944568478],[-84.49058134611853,42.71019712770194],[-84.49063372745258,42.71020493247159],[-84.49068922454244,42.71021391051808],[-84.49074391269508,42.71021972338462],[-84.49080456055418,42.71022749799075],[-84.49086743604666,42.71023640704342],[-84.49092892334178,42.71024501358066],[-84.49099360562657,42.7102545663776],[-84.49104879438221,42.71026564647713],[-84.49110625925465,42.71027279264415],[-84.49116270260453,42.71028276570441],[-84.49122164532685,42.71029276747046],[-84.49127235125711,42.71029831498863],[-84.49132109366246,42.71031712524768],[-84.49135910660208,42.71033025273002],[-84.4914313650731,42.71034166967753],[-84.49149436747368,42.71035478234774],[-84.49155589623514,42.71037085832259],[-84.49161414997724,42.71038698097694],[-84.4916718838664,42.71040369256747],[-84.49172921105689,42.71041525931592],[-84.49177866152387,42.71042961527646],[-84.49183660885544,42.71044852594555],[-84.4918827561802,42.71047062790989],[-84.49192971280966,42.71049419487037],[-84.49197512639965,42.71051634559805],[-84.49201467130457,42.71054127647763],[-84.49201467130457,42.71054127647763],[-84.49205464700898,42.71057311695324],[-84.4920980337756,42.71060437109119],[-84.49213792476857,42.71063287163759],[-84.49217655715894,42.71066169346902],[-84.49221449392155,42.71069259633575],[-84.49224473944285,42.71071051297621],[-84.49227675567909,42.71073190232308],[-84.49231668393331,42.7107433182777],[-84.49236263934232,42.71073198016281],[-84.49241751730573,42.71071989892157],[-84.49244939398933,42.71069423457212],[-84.49249041364371,42.71067683442722],[-84.49253017473774,42.71065165092324],[-84.4925561868227,42.71062776338707],[-84.49256509079474,42.71059799989096],[-84.49256581202805,42.71056720806725],[-84.49256370669542,42.71053277780275],[-84.492552158508,42.71049459571483],[-84.49253501958833,42.7104584317602],[-84.49250792447852,42.7104143204714],[-84.49248582810438,42.71037482516027],[-84.49246324207483,42.71034083180918],[-84.49243974912046,42.71030778237899],[-84.49240628358021,42.71028237756315],[-84.49237062554978,42.71025597445613],[-84.49233716645887,42.71022579955376],[-84.49230212901134,42.71019733801081],[-84.49225265178251,42.71015494145119],[-84.49220809192823,42.7101174224242],[-84.49217348805946,42.71008043484755],[-84.49213766815988,42.71004427403611],[-84.49210604564068,42.710009114732],[-84.49207576685765,42.70997452770601],[-84.49204420513317,42.70993827477272],[-84.49201285585424,42.7099085385362],[-84.4919835739503,42.70987965184761],[-84.49194931863619,42.7098432818317],[-84.49191759092527,42.70980469113292],[-84.49188843666518,42.70976894533524],[-84.49185615522663,42.70973175993119],[-84.49182461465863,42.70969442597903],[-84.49178902832024,42.70965933852672],[-84.49174991367283,42.70962117620552],[-84.49171199557769,42.70958532635481],[-84.49167384632557,42.70955210394483],[-84.49163436588427,42.70951853544855],[-84.49160133213188,42.70948539202018],[-84.49156301262862,42.70945091318126],[-84.49152341200441,42.70942019525984],[-84.4914844096941,42.7093897238172],[-84.49144435498732,42.70935931255548],[-84.49140893647629,42.70932938097775],[-84.49137175399652,42.70930455317152],[-84.49133635811847,42.70927588282215],[-84.49130031794991,42.70924758565255],[-84.4912589306635,42.70921963723356],[-84.49121934577515,42.70919272860012],[-84.49117921512403,42.70916365310105],[-84.49113790387221,42.70913572880354],[-84.49109730952759,42.70910557924988],[-84.491052709974,42.70907351010645],[-84.49101305210048,42.70904432443525],[-84.49097094055644,42.7090112422188],[-84.49092811886277,42.70898095835877],[-84.49088626102863,42.70895052427762],[-84.49084499790695,42.7089194543342],[-84.49080893756094,42.70889157108387],[-84.4907604606807,42.70885462004064],[-84.49071025630762,42.70882371360062],[-84.49066628942849,42.708794662272],[-84.49061831948669,42.70875621592536],[-84.4905716169208,42.70871904874573],[-84.49053329109609,42.70868019070657],[-84.49049159732137,42.70864160368467],[-84.49045306336143,42.70860478472821],[-84.49040849915829,42.7085607396079],[-84.49037164550086,42.70852054637751],[-84.49033501031835,42.70848212273384],[-84.49029153053746,42.70845238468809],[-84.49025888160384,42.70842581867608],[-84.49021888013975,42.70839557942893],[-84.49017499435968,42.70836153270751],[-84.49014597884944,42.70832691817102],[-84.49011552500376,42.70828953066869],[-84.49008032463203,42.70825585935059],[-84.49004284139473,42.70821909757159],[-84.49000844892721,42.70818576336403],[-84.48998689877403,42.70814795103854],[-84.48996150769783,42.70811052566465],[-84.48992688837603,42.70807342491217],[-84.48989320248718,42.70804109238021],[-84.48987523431526,42.70800607874012],[-84.48985173037875,42.70796900329744],[-84.48982110930555,42.70792989970447],[-84.48978811557602,42.70788756447729],[-84.4897579441324,42.70784760681523],[-84.48972956672516,42.70780798584135],[-84.48969925335848,42.7077670004345],[-84.48967620937981,42.7077263553053],[-84.4896439969478,42.70769091257709],[-84.4896189509894,42.70764459283328],[-84.48959791414848,42.70760121914414],[-84.48957084526019,42.7075562765659],[-84.48954257453356,42.70751231537329],[-84.48950348521814,42.70747420653534],[-84.48948202574442,42.70743557246767],[-84.48944461190524,42.70739176568843],[-84.48942376508737,42.70734964269678],[-84.48939124105392,42.70730306017521],[-84.48935616253881,42.70725895356337],[-84.4893397747158,42.70722133906597],[-84.4893324008068,42.70717710353583],[-84.48931889282638,42.70714649992782],[-84.48931737051099,42.70711220978767],[-84.48930684441555,42.70707407170806],[-84.4893062482888,42.70702406716754],[-84.48929779484709,42.70697324803466],[-84.48928772118586,42.70693382236188],[-84.48927222074938,42.70689193129351],[-84.48925169138411,42.70684846991016],[-84.48924267154514,42.70681815959909],[-84.48922502423352,42.70677944118688],[-84.48920096344757,42.70674291566567],[-84.4891674612184,42.70670074112895],[-84.48913509589732,42.70667118319417],[-84.48910062192468,42.70664429878401],[-84.48906102633197,42.70660688905814],[-84.48903112495087,42.70657056212531],[-84.48900560317938,42.70653291881104],[-84.48898531342347,42.7064949319712],[-84.48896395047623,42.70645145067044],[-84.4889413944196,42.70640981629504],[-84.48892347877135,42.7063692083493],[-84.48889979104021,42.70633153397352],[-84.48887260742568,42.70628783130468],[-84.48885197747919,42.70624382789272],[-84.48883557026028,42.70619927408536],[-84.48881620448697,42.70615499753969],[-84.48879934004255,42.7061100386159],[-84.48878704010188,42.70606418202379],[-84.48876658688658,42.70602602483817],[-84.48875091058216,42.70598306685365],[-84.48873385221678,42.7059371783812],[-84.48872372190961,42.70589778664937],[-84.48871033440015,42.70585754398007],[-84.48869726474862,42.70581700409504],[-84.48868264286736,42.70577677408932],[-84.48866692367864,42.70573744712497],[-84.48865045790616,42.70568798987592],[-84.4886364569192,42.70564585412214],[-84.48862295461211,42.705607847711],[-84.48860856826863,42.70556627819683],[-84.48859942373988,42.70552853617436],[-84.48858849925632,42.70548633946515],[-84.48857053954582,42.70544718985928],[-84.48855723499844,42.70540436539301],[-84.48854512619803,42.70536422057133],[-84.48852988440619,42.70532505822359],[-84.48851058058848,42.70528458746754],[-84.48849114299232,42.70524412835067],[-84.48846897440521,42.70520409566762],[-84.48843963645473,42.7051729799147],[-84.48840606694226,42.70514207043021],[-84.48836543033937,42.70511451149343],[-84.48831781611706,42.70509248221147],[-84.48826796325407,42.70507349258453],[-84.48820904413708,42.7050639188595],[-84.48815645096059,42.70505851495908],[-84.48809439680532,42.70505788390278],[-84.4880322685386,42.70505534382873],[-84.48797512986366,42.70505486628039],[-84.48792357750072,42.70505309950543],[-84.48787388704226,42.70505164419184],[-84.48781563737808,42.7050581480979],[-84.48775687643533,42.70506713426541],[-84.4877012424519,42.705070397744],[-84.4876385389905,42.70507319587347],[-84.48757951092323,42.70507688497899],[-84.48752028892179,42.70508381947507],[-84.4874629704379,42.70508820085167],[-84.48741047575493,42.70509124567636],[-84.48735673956756,42.70509783828368],[-84.48731058057025,42.70510308227752],[-84.48725992525861,42.70511157225606],[-84.48721201643066,42.70512077850319],[-84.4871708263544,42.70513733379207],[-84.48712422188018,42.70515669088671],[-84.48709467089176,42.70518074802649],[-84.4870563598619,42.70521082154333],[-84.48702699530044,42.70524108625471],[-84.48700632009304,42.70528059313501],[-84.48698588889093,42.70531668485635],[-84.48696637046281,42.70535269491354],[-84.4869573617112,42.70538734716833],[-84.48695904614917,42.70542380735174],[-84.48695918664417,42.70546525784554],[-84.48696784300033,42.70551131143057],[-84.48696884534363,42.70555454072819],[-84.48696635447268,42.7055982367345],[-84.486969124615,42.70563814997401],[-84.48697179095723,42.70568647540547],[-84.48696544146485,42.705732977733],[-84.4869619154705,42.70578035744301],[-84.48695941279689,42.70582712198983],[-84.48695606836803,42.70586655600499],[-84.48694834391287,42.70590267154547],[-84.48693972845722,42.70594216165846],[-84.48693561099991,42.70598392723556],[-84.48693376517383,42.70603308169122],[-84.48693104142592,42.70607301885108],[-84.48692668778763,42.70611606755272],[-84.4869248720038,42.70615925190099],[-84.4869219221596,42.70620281410218],[-84.48691802429862,42.70624770106397],[-84.48691582895462,42.70629015556724],[-84.48691088900458,42.7063314300061],[-84.48690960866507,42.70636898926446],[-84.48690733405624,42.70640710684296],[-84.48690548299408,42.70644714795797],[-84.48690383345235,42.70648268667171],[-84.48690008708704,42.70652974938623],[-84.48689520485324,42.70657116926976],[-84.48689085547514,42.70661782873098],[-84.48688942510465,42.70665690685352],[-84.48689250184617,42.70670180079725],[-84.48689961973145,42.70674466800068],[-84.48690819949275,42.70678202552037],[-84.48692905461296,42.70681585234168],[-84.48695296828909,42.70685524911834],[-84.48697642367915,42.70690085946435],[-84.48700291245767,42.70694154981774],[-84.48702379024219,42.70698395014106],[-84.48704852640586,42.70702262527754],[-84.48706989583789,42.70705614549119],[-84.48709361532073,42.7070944156938],[-84.48712509773884,42.70713321185181],[-84.48714723004333,42.70717227324702],[-84.48717409745603,42.70721347660243],[-84.48719910880493,42.70725569348506],[-84.48721651206341,42.70729982641356],[-84.48723205016438,42.70733864468269],[-84.48725245584649,42.70738316651818],[-84.48726700170758,42.70742565470083],[-84.48727908509466,42.70747264738485],[-84.48729651154731,42.70751602685682],[-84.48731441496967,42.7075602497213],[-84.48732530872773,42.707604726993],[-84.4873277194906,42.7076520245974],[-84.48732808343885,42.70769788451398],[-84.48732904376251,42.70774379736344],[-84.48734096824799,42.70779087134115],[-84.48734348424682,42.70783425865997],[-84.4873430278639,42.70787410829085],[-84.48734178597759,42.70791467811539],[-84.48734341055902,42.7079521804326],[-84.48734325712556,42.70799271225558],[-84.48734173548128,42.7080300838299],[-84.48734075828006,42.70806910080069],[-84.48734318758345,42.70811113169476],[-84.48734086074873,42.7081531042826],[-84.4873349370644,42.70819467901647],[-84.48733592035812,42.70823724029982],[-84.48733280178531,42.70827928867325],[-84.48732635895371,42.70832483914235],[-84.48733095278796,42.70836662901616],[-84.48733383770046,42.70840843202888],[-84.48733323644225,42.70845260229736],[-84.48733120955245,42.70849672457906],[-84.48732963072193,42.70854212887223],[-84.48732935973806,42.70858935937878],[-84.48732010500082,42.70863122970215],[-84.48731002928632,42.70867751820069],[-84.48730413604378,42.7087202620412],[-84.48728545586489,42.70876619055674],[-84.48726761733401,42.70880919975379],[-84.48724285303862,42.70884924775124],[-84.48721597652278,42.70888802460124],[-84.487185173776,42.70892374109025],[-84.48715328897809,42.70896303184391],[-84.48711759381229,42.7090030475489],[-84.48707946081879,42.70903415300249],[-84.48704445320163,42.70906447778557],[-84.48700693160916,42.70909991899447],[-84.48697481665671,42.70912890975307],[-84.48694034041736,42.7091624728244],[-84.4869062226149,42.70919138518408],[-84.48687297603558,42.70922422756858],[-84.48684275219199,42.70925380542088],[-84.48680674748218,42.70928709457925],[-84.4867650646592,42.70931408973591],[-84.4867223771631,42.70933668987208],[-84.48667244749615,42.70935158613162],[-84.48662036320351,42.70935328778616],[-84.48656872375864,42.70934883146432],[-84.48651804117304,42.7093455490014],[-84.48646666248197,42.70934001424005],[-84.48641613574458,42.70932659159171],[-84.48636801826692,42.7093114761265],[-84.48632698870118,42.70928592398689],[-84.48629798324542,42.70925683939104],[-84.48626253797642,42.70922844091969],[-84.48622715133793,42.70919428660923],[-84.48620458188037,42.70915455811663],[-84.48620458188037,42.70915455811663],[-84.48618874041294,42.70910961326305],[-84.48616254916213,42.70906693620516],[-84.48614593744705,42.70902957693426],[-84.48613085973574,42.70898820860934],[-84.48611718222999,42.70894627844197],[-84.4860998902153,42.70890329841644],[-84.48607781526741,42.70886543666007],[-84.4860638738197,42.70881860770774],[-84.48604981315253,42.70877931343333],[-84.48603786175289,42.70873308044202],[-84.486025322976,42.70868818458194],[-84.48600913399693,42.708646168276],[-84.485999139232,42.70859861949883],[-84.48600502538036,42.70854941183784],[-84.4860014521796,42.70850386060408],[-84.48599789964418,42.70845651800943],[-84.48599680752909,42.70841142914224],[-84.48599323124132,42.7083686155361],[-84.48599746994044,42.70832580181435],[-84.48599953740683,42.70827695582601],[-84.48600278013994,42.70823586086788],[-84.48600105150908,42.70819226152224],[-84.48600348839389,42.70815374893274],[-84.48600447730396,42.70811274111599],[-84.48600179482457,42.70806989755884],[-84.4860037529234,42.70802553974035],[-84.48600799114863,42.70797788432876],[-84.48601214196009,42.70793059792494],[-84.48601662066498,42.70788620971683],[-84.48602110878896,42.70784445613761],[-84.48602063234003,42.70779968999169],[-84.4860226589113,42.70775014979628],[-84.48602232733874,42.70770882753703],[-84.48602283128308,42.70767165967447],[-84.48602747254904,42.70762834691138],[-84.48602592326218,42.70758265996349],[-84.48602540212445,42.70753348212418],[-84.48602368007997,42.70747925187442],[-84.48603047658716,42.70743372767654],[-84.48603936261539,42.70739116209945],[-84.48604142492816,42.70734538343761],[-84.48604389289298,42.70729994079247],[-84.48604811897282,42.70725541370854],[-84.48605133872641,42.70720902673215],[-84.48606232737228,42.70716678132669],[-84.48606915378188,42.70712370856337],[-84.48607687810731,42.70708073876281],[-84.48608330059781,42.70703674346274],[-84.48608950314951,42.70699425198632],[-84.48609919390748,42.7069581728659],[-84.48609621148356,42.70691841870168],[-84.48610254335269,42.70687104827368],[-84.48610541676669,42.70682933364383],[-84.486111168065,42.70678285080096],[-84.4861207012755,42.7067444419046],[-84.48612189251354,42.70669897750913],[-84.48612649081737,42.70665805319533],[-84.48613372262292,42.70661229861921],[-84.48614026060962,42.70656691730152],[-84.48614676291406,42.70652562050129],[-84.4861463908866,42.70648240305955],[-84.48615083677265,42.70643964044086],[-84.48616041744089,42.70639665791835],[-84.48616913050324,42.70635307181118],[-84.48617289505087,42.70630115746908],[-84.48617673022923,42.70626058434721],[-84.48617533911697,42.70622163797415],[-84.48617855866902,42.70617601850614],[-84.48618541746335,42.70613361751913],[-84.48618623276,42.70608662352833],[-84.486187342162,42.70603793814674],[-84.48618364146569,42.70599097447447],[-84.48618502340491,42.70594648887492],[-84.48619102890481,42.70589578751938],[-84.48618183656234,42.70584869348154],[-84.48617620758452,42.70580500478796],[-84.48616580355669,42.70576600991267],[-84.4861542950363,42.70572570752183],[-84.48614083488145,42.70569228854244],[-84.48613219119856,42.70565815169624],[-84.48611684102116,42.70562023465536],[-84.48610527475749,42.7055950435209],[-84.48608769422171,42.70557757140242],[-84.48605704814032,42.70555233071956],[-84.48601390076054,42.70553694151631],[-84.48595926298249,42.70552968391313],[-84.48591578178143,42.70552327656531],[-84.4858621775523,42.70552319936214],[-84.48581578377568,42.70553262526639],[-84.48576731979429,42.70555024636917],[-84.4857076027359,42.7055747279285],[-84.4856588527234,42.70559889444249],[-84.48562808740978,42.70561909631583],[-84.48560141779387,42.70564261652675],[-84.4855698385141,42.70567188762082],[-84.48554730866798,42.70571074674114],[-84.48551789567567,42.70575237066782],[-84.48548560037442,42.70579089578598],[-84.4854501280149,42.70583010100569],[-84.48541595605654,42.70586694626788],[-84.48538198681857,42.70590755464779],[-84.48534761900885,42.70594707677186],[-84.48531855877351,42.70598525953296],[-84.48529031866622,42.70602429335596],[-84.4852596763671,42.70606096170033],[-84.48522816481307,42.70610243251428],[-84.48519789781162,42.70614109452816],[-84.48515787244942,42.70617960967767],[-84.4851126300925,42.70621662861241],[-84.48507668489258,42.70624554190777],[-84.48504629950243,42.70627174950449],[-84.48501461568748,42.70629728667254],[-84.48498410552419,42.7063310320187],[-84.48495465865274,42.70636298154736],[-84.48492557136582,42.7063972750409],[-84.48489946532429,42.70643058982326],[-84.48487715973327,42.70646508824321],[-84.48485778245558,42.70650129196615],[-84.48483668980836,42.70654193119592],[-84.48482340790791,42.70658234644194],[-84.48481154786099,42.70662613895982],[-84.48480416243235,42.70667277998642],[-84.48479569256956,42.70671601223432],[-84.48479012276907,42.70676280684869],[-84.48478252980462,42.70680137586499],[-84.48478172853187,42.7068403528131],[-84.48477739711942,42.70688377975517],[-84.48478003835238,42.70692001203687],[-84.4847858275369,42.7069581755435],[-84.48479094040778,42.7069953558296],[-84.48479070627131,42.70703702251593],[-84.48479410978585,42.70707982234449],[-84.484793207398,42.70712141159026],[-84.48479304213545,42.70716477208713],[-84.48479430734884,42.70720716761937],[-84.4848005629957,42.7072530224384],[-84.48480240916459,42.70729905703199],[-84.48480597659142,42.70733939179243],[-84.48479868500985,42.70738564988497],[-84.48480467582621,42.70743218159662],[-84.48480585255363,42.7074756999572],[-84.48480711373574,42.70751933523179],[-84.48481164177619,42.70756114245038],[-84.48481300341044,42.70760453429901],[-84.48481462819905,42.70764681566846],[-84.48482049188074,42.70769045135514],[-84.48482135691675,42.70773200372179],[-84.48482600912314,42.70777272312702],[-84.48483122153873,42.70781317446799],[-84.48484435627012,42.70785339974572],[-84.48486775809393,42.70789101270112],[-84.48489163199284,42.70791954108007],[-84.48492821466584,42.70795136564502],[-84.48497495664195,42.70798501025572],[-84.485021724111,42.7080086266097],[-84.48507712271481,42.70804378869866],[-84.4851213024501,42.70807794552465],[-84.48516654021832,42.70810729718092],[-84.48521173024908,42.70813806685518],[-84.48526028122978,42.70816808468756],[-84.48530710183483,42.70819577652986],[-84.48535683754216,42.7082240308158],[-84.48539607580142,42.70825678731445],[-84.48542728287563,42.70828739785555],[-84.48546201649481,42.70832365809572],[-84.48548606027327,42.70835991419799],[-84.48551020662853,42.70839764504524],[-84.48552860103916,42.70843622793149],[-84.48554853310645,42.70848023170181],[-84.48556355260745,42.7085220304435],[-84.48557648335284,42.70856053904266],[-84.4855769884242,42.70860431220893],[-84.48556404914441,42.70864939698517],[-84.48554260724022,42.70868929361033],[-84.48551844963512,42.70873075181994],[-84.4854918213129,42.70877195850343],[-84.48547029814263,42.70880794471665],[-84.48544726900502,42.70884846256143],[-84.48542993155654,42.70887104468324],[-84.48541631702996,42.70889324124144],[-84.48539100933397,42.70891927366454],[-84.48537061338457,42.70894216106729],[-84.48535313646695,42.70896602700021],[-84.48533587097404,42.70899386468759],[-84.48532187858991,42.70901911588194],[-84.4853079268577,42.70904897333444],[-84.48530091111651,42.70907425500793],[-84.48529891971418,42.7090943673818],[-84.48529217515186,42.70912676350333],[-84.4852681646053,42.70915798486102],[-84.48524389498898,42.7091950658172],[-84.48522576141431,42.70922843414873],[-84.48521048129328,42.70926178053375],[-84.48519338691331,42.70929923286359],[-84.48517167969598,42.70933062660934],[-84.48515351255354,42.70936807929382],[-84.48513428806118,42.70939793914714],[-84.48511605561461,42.70942979639468],[-84.48509988108486,42.70946334554797],[-84.48508518477604,42.70949381145273],[-84.48506774087734,42.70952756393952],[-84.4850504404307,42.70955779922758],[-84.48503613974904,42.70958474309665],[-84.48502114290703,42.70960843829102],[-84.48500043498838,42.70963346121419],[-84.48498157914096,42.70966135903341],[-84.48496915029301,42.70969251464302],[-84.48494845879566,42.70972143268948],[-84.48493252705882,42.70975644818659],[-84.48491889269951,42.70978640835825],[-84.48490782304876,42.70981528794072],[-84.48489813056327,42.70983960446765],[-84.48488443811443,42.70986261058972],[-84.48486855251174,42.70987823606174],[-84.48484399713087,42.70989873107896],[-84.48481297881516,42.70990346369726],[-84.48478006836223,42.70991804372456],[-84.48475994729976,42.7099344043175],[-84.48474760697847,42.7099644840189],[-84.4847472437699,42.7099941580962],[-84.48474606079486,42.71002507998802],[-84.48475970116174,42.71005830914074],[-84.4847797186436,42.71005564699964],[-84.48481748184767,42.71007312228667],[-84.48483998026394,42.71008101778826],[-84.48487922545165,42.71009898797204],[-84.48492601634794,42.71012763878086],[-84.48497001139886,42.71015639639424],[-84.48500885868265,42.71017814661835],[-84.48505132295215,42.71019830447565],[-84.48509611583931,42.71022435060057],[-84.48514178033335,42.71026314050493],[-84.48518840670565,42.7102935289774],[-84.48523396535069,42.71031597203169],[-84.48528050322045,42.71033996814969],[-84.48533558902393,42.71036631220449],[-84.48539281065335,42.71039120238806],[-84.4854464481639,42.71041745404358],[-84.48550229222803,42.7104439537625],[-84.48555466150877,42.71047398827352],[-84.4856048444219,42.710509354134],[-84.48566251027252,42.71054196106135],[-84.48571925259989,42.71057091859976],[-84.48578195544737,42.71059217027568],[-84.48583217235347,42.71061196129146],[-84.48588154153298,42.71063337233927],[-84.48593501525981,42.71065160387073],[-84.48599160910464,42.71066349095089],[-84.48604705983338,42.71067244126903],[-84.48611088568767,42.71067634899031],[-84.48616841656234,42.71067501067468],[-84.48621775269687,42.71067569005957],[-84.48627058432412,42.71067390947643],[-84.48632469728557,42.71067535078583],[-84.48636563764114,42.71067609824192],[-84.48641671988577,42.71067885867356],[-84.48646109668417,42.71067259778794],[-84.48651288907398,42.71066782454712],[-84.48655886980838,42.71067006423352],[-84.48660267866845,42.71066636693536],[-84.48665180445407,42.71065970629896],[-84.48669949305355,42.71065683343018],[-84.4867476148039,42.71064420425156],[-84.48679330461209,42.71063227020775],[-84.48684373798403,42.71061649734443],[-84.48688406138818,42.71060046838083],[-84.4869243426497,42.7105804282318],[-84.4869761070558,42.71055002615189],[-84.487015470239,42.71052548832218],[-84.48705271018993,42.71050730335949],[-84.48709421156236,42.71048805715701],[-84.48713678950666,42.71046529082474],[-84.48717909841957,42.71044016708887],[-84.4872266306856,42.71040222586445],[-84.48726235610272,42.71038105850297],[-84.48729952862995,42.71035531940252],[-84.48733950342937,42.71032825502838],[-84.48738669971192,42.71030197055673],[-84.4874277602658,42.71027942385362],[-84.48746763264161,42.71025938124536],[-84.4875126744945,42.71023124185803],[-84.4875540305453,42.71020975561435],[-84.48759842909897,42.71018584827276],[-84.48762742501525,42.71015807227783],[-84.48765678115362,42.7101356536247],[-84.4876826810273,42.7101009091757],[-84.48769431433205,42.71007114934936],[-84.48770628014924,42.71004397871992],[-84.48772019063671,42.71001340305975],[-84.48774719323393,42.7099785664799],[-84.48777580710777,42.70993656006137],[-84.48781248042322,42.70989895220228],[-84.48785622111303,42.70986491179436],[-84.48789822858726,42.70983119517793],[-84.48793948682722,42.70980560271319],[-84.48798804602362,42.70978430665975],[-84.48803329984925,42.7097697254123],[-84.48808784376472,42.70975363618953],[-84.48813749236058,42.70975591885949],[-84.48818603494155,42.70976759874143],[-84.48825217157152,42.70977742222451],[-84.48831913320929,42.70978953748842],[-84.4883842516041,42.7098042638704],[-84.48844485800417,42.70981522903974],[-84.48850301448577,42.70982444128032],[-84.48855604963694,42.70983621563161],[-84.48861053683851,42.70984803181133],[-84.48866005548003,42.70985777736196],[-84.48872262891578,42.70986600654184],[-84.48877474499032,42.70987442249388],[-84.48882422741708,42.70988443234156],[-84.48888017680386,42.70989028201228],[-84.48892875140612,42.70989311846697],[-84.48898502975268,42.70990257165513],[-84.48903406324683,42.70991298006241],[-84.48908241578954,42.70992225127613],[-84.4891342349862,42.70993383853292],[-84.48918314655585,42.70994432656011],[-84.48923116058171,42.70995602085381],[-84.48928932754932,42.70996694707186],[-84.48934951611332,42.70997712885679],[-84.48940046579958,42.70998802601653],[-84.48945640758033,42.71000061888613],[-84.48951134135864,42.71000761731322],[-84.48956008346603,42.71002270764361],[-84.48961826850946,42.71003198568873],[-84.48967261201636,42.7100428006734],[-84.48972880119857,42.71005336424989],[-84.4897868610559,42.71006597512343],[-84.48984738459437,42.71007648089319],[-84.48990332317418,42.71008692670919],[-84.48995598422805,42.71010041328687],[-84.49000797666258,42.71011335802876],[-84.49005501061906,42.71012189778262],[-84.49009212521989,42.71013361187416],[-84.49014026792933,42.71014037015958],[-84.49018319942353,42.71015476653629],[-84.49022691347952,42.71017144292109],[-84.49027416633432,42.7101813067716],[-84.49032289732175,42.71018858055617],[-84.49037152456548,42.71019164117177],[-84.49042405558002,42.71019610463352],[-84.49047398963414,42.71019442366273],[-84.49052792949773,42.71019926242573],[-84.49058608959969,42.71020348852603],[-84.49064179106163,42.71020822342189],[-84.49069578090806,42.71021619287433],[-84.4907474168768,42.71022032499148],[-84.49080483249224,42.71022410453045],[-84.490862495796,42.71023302695185],[-84.49092198181668,42.71024326783284],[-84.49097815856649,42.71025135359835],[-84.49103596698724,42.71026146825319],[-84.4910949037371,42.71027370444919],[-84.49115802869952,42.71028451276969],[-84.49121653884467,42.71029740610525],[-84.49126438568018,42.71030516000516],[-84.49131463593208,42.71031673004736],[-84.49136308295304,42.71032796252067],[-84.49143509938446,42.71034168708321],[-84.49149894563627,42.71035927230974],[-84.49155882353917,42.71037541583299],[-84.49161574613491,42.71039066311014],[-84.49167357390016,42.7104080571038],[-84.49172969752405,42.71042290446811],[-84.49178092372208,42.71043836675191],[-84.49184023833512,42.71045482724841],[-84.4918919364313,42.71047565941394],[-84.49195092990767,42.71050228327876],[-84.49199745531315,42.71052849140351],[-84.49203765071815,42.71055587167246],[-84.49203765071815,42.71055587167246],[-84.49207877366959,42.71058671795787],[-84.49211449452746,42.71062070269404],[-84.49213962582118,42.71065046810787],[-84.49217481668896,42.71066868219523],[-84.49220050909977,42.71069437194078],[-84.49223638158122,42.71071512445171],[-84.4922791102612,42.71072750917656],[-84.49233411299676,42.7107400150448],[-84.49237859112016,42.71074823756887],[-84.49241226527167,42.71073573530941],[-84.49245522282477,42.71072158598597],[-84.49251066371394,42.71069645751366],[-84.49254922728755,42.71066397119811],[-84.49258047538191,42.71063075019324],[-84.49259647599251,42.71060006339335],[-84.49260029797692,42.71055831951183],[-84.49258817102816,42.71052523293925],[-84.49256821044193,42.71047765261039],[-84.49254892387248,42.71043744949492],[-84.4925209811704,42.71040849561629],[-84.49250077291012,42.71036523473631],[-84.49247653828384,42.71033232442804],[-84.49245220159239,42.71029604342214],[-84.49240310803856,42.7102653271796],[-84.492352856741,42.71023582006834],[-84.49231385500669,42.71021371712598],[-84.49228077701909,42.71018768107808],[-84.49224694675232,42.71015489581657],[-84.49221289199117,42.71011458937607],[-84.49217808225812,42.71007508665313],[-84.49214023098145,42.7100427649201],[-84.49210242266285,42.71000600478462],[-84.49207231979686,42.70997602866558],[-84.49204106765472,42.70994342524919],[-84.49201594065472,42.70991366058739],[-84.49198238256773,42.70987737567759],[-84.49194529376389,42.70984280517057],[-84.49191340028291,42.70980794081211],[-84.49187874501563,42.70976907233577],[-84.49184425874844,42.70973048900907],[-84.49180861372278,42.70968685200222],[-84.49177124638912,42.7096465787607],[-84.49173126432758,42.70960696014829],[-84.49168983682777,42.70957591154362],[-84.49165060754888,42.70954222636898],[-84.4916136895734,42.70951078119631],[-84.49157528522335,42.7094792204273],[-84.49153449031671,42.70944463071309],[-84.4914898875106,42.70941358865296],[-84.49145208093515,42.70938179928228],[-84.49140562314143,42.7093509252131],[-84.49136353333203,42.7093209339568],[-84.49132269403272,42.70929233002838],[-84.49128066108507,42.70926282559321],[-84.49123712461693,42.7092333301509],[-84.49119024511006,42.7092020531224],[-84.49115310935386,42.70917115406798],[-84.49110990248789,42.70913993573233],[-84.49106878117526,42.70910999806058],[-84.49102457313424,42.70908030258338],[-84.4909796844433,42.70904928506768],[-84.49093551534641,42.709018184931],[-84.49089922910922,42.70898727222054],[-84.49085563834429,42.7089545350851],[-84.49081623397477,42.70892520309401],[-84.49077274197988,42.70888990493474],[-84.4907302759048,42.70886300258055],[-84.49069227275733,42.70883123958487],[-84.49065252837066,42.7087966762146],[-84.49061050569489,42.70876298112799],[-84.49056817168332,42.7087336599569],[-84.4905219596886,42.70869922391712],[-84.49048240323944,42.70866645985208],[-84.49044281227732,42.70863291475266],[-84.49040803654886,42.70859784195509],[-84.4903745137966,42.70856130998842],[-84.49034123188213,42.70852759496779],[-84.49031754405493,42.70849751713403],[-84.49028522073719,42.70846750100988],[-84.49024890263811,42.70843498615508],[-84.4902131078465,42.70840288850961],[-84.49016803796155,42.70837239139507],[-84.49012481801577,42.70833906487803],[-84.49009103719771,42.70830492629979],[-84.49005267720027,42.70826758228697],[-84.49000640813915,42.70822753372041],[-84.48999028256931,42.70819184005482],[-84.48995530269765,42.7081505488606],[-84.48992661783271,42.70810736388922],[-84.48989599837581,42.70806667292185],[-84.48986455623009,42.70803263213323],[-84.48983778686578,42.70799532531057],[-84.4898162858581,42.7079519495152],[-84.4897909970248,42.70790815987769],[-84.48976709027889,42.70786819980604],[-84.48973719077762,42.70782885670479],[-84.48971597830035,42.70778848662628],[-84.48968163131237,42.70775021673695],[-84.48966621488312,42.70770118975442],[-84.48962829689968,42.7076678634854],[-84.48960542189494,42.70762192834814],[-84.48958478252759,42.70758189209433],[-84.48955489540378,42.70753899098212],[-84.48953576732379,42.7074919641023],[-84.48949566900606,42.70744861894627],[-84.48946933837577,42.70740619399444],[-84.4894417148245,42.70736666011724],[-84.4894189756334,42.70732403036666],[-84.48939095502067,42.70728166672916],[-84.48936927470153,42.70724689052094],[-84.48935648068368,42.70720183669973],[-84.4893503922212,42.70717189016034],[-84.48933691649765,42.70713279546017],[-84.48932729057665,42.70709962164028],[-84.48932902076551,42.70705668824457],[-84.48931002656407,42.70700971052123],[-84.4892973908112,42.70696587943225],[-84.48928221957203,42.70692414675087],[-84.4892736608148,42.70688193500433],[-84.48926407417706,42.70684229919127],[-84.48923596649551,42.70680484733268],[-84.48921392480797,42.70676470811404],[-84.48917978561043,42.70672810644416],[-84.48914417488871,42.70669070405931],[-84.48911523425946,42.70665835741414],[-84.48907481857267,42.70662728625075],[-84.48903834381329,42.70659984321005],[-84.48901699129568,42.706560746737],[-84.48899476036162,42.70652150204688],[-84.48896873443296,42.70648178257158],[-84.48893999926392,42.70644349201109],[-84.48891670562249,42.70640032899694],[-84.48889584436216,42.70635460560746],[-84.4888723555187,42.70630789464185],[-84.48884802688308,42.70626158834332],[-84.48883061661054,42.70621377270845],[-84.48881299975416,42.7061632541651],[-84.48879469342691,42.70611783911224],[-84.48877896760652,42.7060756090441],[-84.48876645612675,42.70603541810787],[-84.48874837664377,42.70598789970644],[-84.48873423880127,42.70594607109148],[-84.48871629366805,42.70590339567783],[-84.48870323400378,42.70585428886086],[-84.48868818400628,42.70581201637229],[-84.48866948632647,42.70576652530982],[-84.4886580777315,42.70572224941375],[-84.48864280915424,42.70568041314186],[-84.48863048678848,42.70563534112594],[-84.4886198476102,42.70559336370234],[-84.48860931850112,42.70555503671454],[-84.48859588307113,42.70551979432627],[-84.4885761223456,42.70547810166527],[-84.48856404286978,42.70544038572363],[-84.4885527177736,42.70539968249062],[-84.48853515408813,42.70535970136731],[-84.48851791544216,42.70531922340737],[-84.48850068355692,42.70527997413843],[-84.48848174012318,42.70523888109484],[-84.48846148736223,42.70519745461569],[-84.48843443271728,42.70516376807733],[-84.48839693409367,42.70513634664441],[-84.48835752863187,42.70511593003626],[-84.48831625978887,42.70509651596503],[-84.48826121655691,42.70508266150876],[-84.48820836023756,42.70507240814744],[-84.48814161346446,42.7050640069081],[-84.48808151636305,42.70506059446937],[-84.48802632767442,42.70506042556892],[-84.48797446658828,42.70505881065885],[-84.48791872468064,42.70505987801022],[-84.48787087375983,42.70506672940731],[-84.48782200736359,42.70507885398423],[-84.48775908231195,42.70507655939657],[-84.48769249189274,42.70507644487819],[-84.4876375970646,42.7050784682862],[-84.48757578444895,42.70508071718007],[-84.48751709002465,42.70508727801883],[-84.48746059761584,42.70509369854974],[-84.4874003020867,42.70510032425346],[-84.48734380363989,42.70510657739675],[-84.48729030133606,42.70511345751045],[-84.48724105623218,42.70511968756836],[-84.48719273389666,42.70513106180113],[-84.487149744682,42.70514546875356],[-84.48711198475077,42.70516835654873],[-84.48707987276052,42.70518760725477],[-84.48704256563849,42.70522252894272],[-84.48700959544769,42.70525095432472],[-84.48699009649965,42.70528531167155],[-84.48698161924368,42.7053228703266],[-84.48697016303176,42.70536275634065],[-84.48696501797818,42.70539807759806],[-84.4869631698774,42.7054348905197],[-84.4869663683006,42.70547554146476],[-84.48697303710857,42.70551446324442],[-84.48697912623552,42.70555530080163],[-84.48698193424464,42.70559730481575],[-84.48698680534524,42.70564472603682],[-84.4869820947214,42.70568699007796],[-84.48697642656342,42.7057357399076],[-84.48697831702485,42.70577816400444],[-84.48697232378356,42.70582019604043],[-84.4869660867817,42.70586158579592],[-84.4869601542046,42.7059053359661],[-84.48695593673528,42.7059526672065],[-84.48695161653717,42.70600047275639],[-84.48694716209644,42.70605104541124],[-84.48694075799415,42.70610215592042],[-84.48693678357851,42.70615176802038],[-84.48693539314561,42.70619818821537],[-84.48693256845597,42.70624216712512],[-84.48693192895382,42.70628899063822],[-84.48692744322955,42.70633490054123],[-84.48692591217937,42.70637827431891],[-84.48692519596307,42.70642246512499],[-84.48692959519057,42.70646437871942],[-84.48692282808483,42.70650866754797],[-84.48691836034044,42.7065532391892],[-84.48691495998446,42.70660115556969],[-84.48691811431824,42.70664580736366],[-84.4869137933615,42.70669005300632],[-84.48691839925303,42.70673036245176],[-84.48693382366571,42.7067690557475],[-84.48694816074294,42.70680797136203],[-84.48696332810236,42.70684678331966],[-84.48698196409603,42.70689851074518],[-84.48700996644678,42.7069423833461],[-84.48703366047226,42.70698049512382],[-84.48705859927337,42.7070247435929],[-84.48708018952138,42.70706194608248],[-84.48709517753416,42.70709948414537],[-84.48711612412136,42.70713903242427],[-84.4871419243643,42.70717600938995],[-84.48717153099201,42.70721389591199],[-84.48720809810905,42.70723545940106],[-84.4872599840203,42.7072465901605],[-84.48731495097073,42.70725902911562],[-84.48735108947862,42.70725581981954],[-84.48739138559277,42.70724326895018],[-84.48743157613407,42.70721954736733],[-84.48746854184029,42.70719954884014],[-84.48750325719134,42.70717225682704],[-84.48753831533496,42.70714429693368],[-84.48759143679689,42.70711590308571],[-84.48763892576953,42.70708741244639],[-84.48768146971821,42.70705914131865],[-84.48772103099208,42.70703260074551],[-84.48775549437636,42.70700748335069],[-84.48779388335164,42.70697659101319],[-84.48783123893179,42.70695678222051],[-84.48788044094715,42.70692523990619],[-84.48792070285212,42.70690323853335],[-84.48795764919538,42.70687534569706],[-84.48799945936169,42.7068448913591],[-84.4880357141314,42.70681728935507],[-84.48807135310493,42.70679583250288],[-84.48810792038813,42.70677314473427],[-84.48813547337215,42.7067462813521],[-84.4881782559617,42.7067209205151],[-84.48821440555734,42.70669986355845],[-84.48825720435379,42.7066744466482],[-84.48829488332375,42.70665013007102],[-84.48833844503686,42.70662653706175],[-84.48838331455771,42.70660252941835],[-84.48842563254465,42.7065816950881],[-84.48847763847144,42.70655631813054],[-84.48852807222465,42.70653446040825],[-84.48857983631882,42.70651652261624],[-84.48863095000092,42.706514513538],[-84.48868218615316,42.70651744821409],[-84.4887209250226,42.70653068568432],[-84.48875907392853,42.70655194616847],[-84.48878593938173,42.70658203126786],[-84.48879322493961,42.70661871959183],[-84.48878857248363,42.70666804803631],[-84.48877129421477,42.7067140094819],[-84.4887579418309,42.70675376889054],[-84.48873488155422,42.706800075496],[-84.4887121932132,42.70684676611353],[-84.48869604932207,42.70690277915628],[-84.48868124072558,42.70694958004494],[-84.48866376977698,42.70698259655497],[-84.48865342594088,42.70702119743007],[-84.48864233265476,42.70706636771477],[-84.48863496233135,42.7071090315546],[-84.48862666059416,42.70715582783184],[-84.48862394307673,42.70719689262098],[-84.4886161036898,42.70724159554124],[-84.48861560502272,42.70727730316545],[-84.48861631483938,42.70732033218678],[-84.48861937368187,42.70737017143399],[-84.48862775584841,42.70741639329674],[-84.48864008084637,42.70746462563668],[-84.48865602590018,42.70750281684184],[-84.48868164857923,42.70754139431853],[-84.48869923885947,42.70758045588205],[-84.48871821649547,42.70762567528149],[-84.48873428803435,42.70766602549788],[-84.48875042144768,42.70770766685281],[-84.48877270941014,42.7077447434354],[-84.488789772068,42.70778304741835],[-84.48880585723195,42.70782593526744],[-84.48882410968248,42.70786865509025],[-84.48884351731012,42.70790981491015],[-84.48886343898906,42.70795039192957],[-84.48888192903186,42.70799108675638],[-84.48891017946896,42.70803561147888],[-84.48893169421751,42.70807210338592],[-84.48895557245288,42.7081125070076],[-84.48898694415314,42.70815002996284],[-84.48901672251071,42.70818413291837],[-84.48905312756455,42.7082118718363],[-84.48909431748424,42.70823497251889],[-84.48914567075698,42.7082632211483],[-84.48919814126366,42.70828548351885],[-84.48925003651709,42.70829012739505],[-84.48929722126864,42.70830047468841],[-84.48933238838002,42.708305983566],[-84.4893710485066,42.7083227744391],[-84.48940679528191,42.70836138700043],[-84.48944925005124,42.70840153741293],[-84.48947761569903,42.70844176496959],[-84.4894993662382,42.70849170577991],[-84.48951222766155,42.70854434700659],[-84.48951431752913,42.70859339671065],[-84.48950347152339,42.70863120148102],[-84.48948946281284,42.70867233265633],[-84.48945073033725,42.70870933954195],[-84.48942133154422,42.70874880413979],[-84.48937778008815,42.70878112821194],[-84.48932859338858,42.70881005933236],[-84.48927995736483,42.70883242183906],[-84.48923178412261,42.70885522632923],[-84.48917772653023,42.70888506628044],[-84.48912543360903,42.70891588402918],[-84.48907616820982,42.70894081543135],[-84.4890263199274,42.70896281473948],[-84.48897994201855,42.70898306047503],[-84.48892571007688,42.70900608655963],[-84.4888718183073,42.70902957187617],[-84.48881866630734,42.70905534195887],[-84.48876775916547,42.70908820667991],[-84.48872503678069,42.70912129643032],[-84.48869117158749,42.70915848284528],[-84.48866094747102,42.70919778886968],[-84.48862674271284,42.70923660189932],[-84.4885948934017,42.70927328984588],[-84.48856798265143,42.70931007549878],[-84.48854983457854,42.70934195384141],[-84.48853182901496,42.70937565570794],[-84.48852557459098,42.70941327991241],[-84.48852890962289,42.70944806885254],[-84.48855758251679,42.70947686622443],[-84.48859501643035,42.70949756416095],[-84.48863134498339,42.70951836880874],[-84.48868025919572,42.70953618575897],[-84.48873202322928,42.709556700735],[-84.48878203034977,42.70957379938014],[-84.48883312373952,42.70959590714268],[-84.48889311613317,42.70961198757148],[-84.48894609169088,42.70963092534763],[-84.48900092286054,42.7096539114949],[-84.48905712214717,42.70967679076315],[-84.48911460176751,42.70969475532311],[-84.48916317496156,42.70971327665418],[-84.48921115540516,42.70973351408857],[-84.48925968141253,42.7097562401265],[-84.4893130237137,42.70977982334425],[-84.4893685280994,42.70980497085701],[-84.4894142371177,42.70983015297502],[-84.4894671017851,42.70985305230491],[-84.48951549918773,42.70987358737594],[-84.48956690946778,42.70989464084677],[-84.48961729299589,42.70991669920265],[-84.48966530811481,42.70993497105269],[-84.48971053679003,42.70995735992269],[-84.4897473296993,42.70996645512393],[-84.48978793552526,42.70998608589801],[-84.4898217998498,42.71001131791254],[-84.48985827068681,42.71004153175905],[-84.48987351153876,42.71007362005068],[-84.48988676074464,42.71010920660017],[-84.48988882359899,42.71014272966463],[-84.489891889584,42.71017561181543],[-84.48989653215148,42.71020273881386],[-84.48989625957147,42.71023207230143],[-84.48991408390313,42.71025517786505],[-84.48994422184175,42.71027687478851],[-84.48997989618599,42.71029555158917],[-84.49002016089702,42.71031366291632],[-84.49005865705892,42.71033703616256],[-84.49009731045604,42.71035984927155],[-84.49012883211047,42.71038196002363],[-84.49016294955867,42.71041585229855],[-84.49019550173188,42.71045690316701],[-84.49023292301784,42.71048375289141],[-84.4902748139133,42.71051395131156],[-84.49032091654693,42.71054278083548],[-84.49036244886624,42.71056794791303],[-84.49040676203833,42.71059360304059],[-84.4904468751776,42.71062656678816],[-84.49048654318719,42.71066122807001],[-84.49051491016456,42.71069508260545],[-84.49054030393546,42.71073243973066],[-84.49055047587588,42.71077059711511],[-84.49057199067457,42.71080257308355],[-84.49058871047741,42.7108542389159],[-84.49060125617738,42.7109017695858],[-84.49061986334743,42.71094691204731],[-84.490639365158,42.71098947948496],[-84.49065786592647,42.71103816816756],[-84.49068380558451,42.71108363802092],[-84.49070775648136,42.71112276644874],[-84.49074378289771,42.71116118984386],[-84.49078049381029,42.71119903853576],[-84.4908201214286,42.71123055406449],[-84.49085887625313,42.71125533567697],[-84.49090281694868,42.7112910835332],[-84.49094677390588,42.71131548108055],[-84.49099143591768,42.71134024796664],[-84.49103938212181,42.71137030287366],[-84.49108856612823,42.71139375187173],[-84.49114074783414,42.71141503389017],[-84.49119696224197,42.71143434029833],[-84.49125172558517,42.71144795457224],[-84.49131195535159,42.71145968823368],[-84.49137067784442,42.71146357389171],[-84.49142965964394,42.71146873665545],[-84.49148030010076,42.71147740012519],[-84.49153051172748,42.71148655677596],[-84.49158159583878,42.71149609454877],[-84.49164372713011,42.71148409050553],[-84.49170374333484,42.71148299624572],[-84.49176098225114,42.71147262346667],[-84.49182471409985,42.71145661412983],[-84.4918809481025,42.71144222803112],[-84.49193192948026,42.71142054479527],[-84.49197746457847,42.71140110472123],[-84.4920205069182,42.71138452046212],[-84.4920745905672,42.71136635301484],[-84.49211309608846,42.71134749165785],[-84.49215725859057,42.71133229276438],[-84.49221263755344,42.71130296584973],[-84.49226519029388,42.71126161573253],[-84.4923079420054,42.71123003635536],[-84.49235544719261,42.71119623615014],[-84.49239531634343,42.71115975856606],[-84.49242030216858,42.71113037391986],[-84.49243873331683,42.71109909330883],[-84.4924651132052,42.71106534983306],[-84.49250152938845,42.71101876325061],[-84.49252957463223,42.71097945640206],[-84.49255524798909,42.71094771816141],[-84.49257191702954,42.71091359158611],[-84.4925932305816,42.71087939301974],[-84.49260557045288,42.7108481553692],[-84.49263424518963,42.71081628901315],[-84.49265913691556,42.71077993136635],[-84.49267732754828,42.71074504481],[-84.4927001213955,42.71070784426507],[-84.4927272800418,42.71066498823755],[-84.49274445388227,42.71062138989634],[-84.4927511377428,42.71058432310706],[-84.49274426464567,42.7105383317601],[-84.49273558946916,42.71049189156076],[-84.49271570249789,42.71045173800645],[-84.49270452108651,42.71040956068427],[-84.49269044725912,42.71036735223871],[-84.49266848650423,42.71032409546945],[-84.4926466952905,42.7102827849594],[-84.49263606860761,42.7102418307665],[-84.49262304666411,42.71019836442038],[-84.49260482635862,42.71015388934193],[-84.4925965574724,42.71011580416252],[-84.49258725568042,42.71006991880416],[-84.49256272731603,42.71002579173876],[-84.4925454266467,42.70998796662035],[-84.49253510861388,42.70994257941273],[-84.49251914557234,42.70990125285525],[-84.49250717448083,42.7098568904619],[-84.49249389896886,42.70981820453469],[-84.49247942295311,42.70977951997872],[-84.49246395535236,42.70973312727239],[-84.4924448301427,42.70969661740569]]}}
