{"type":"Feature","properties":{"name":"NJCAA-5k","legacyMeetId":"5225","distance":"5k"},"geometry":{"type":"LineString","coordinates":[[-84.15870494660408,30.42843731800306],[-84.15522239478783,30.42744952292396],[-84.15387382073783,30.42704509597701],[-84.15345476823023,30.42687133244511],[-84.15300531060123,30.42672654227618],[-84.15268835117134,30.42664999714573],[-84.15237064726016,30.4266499714268],[-84.15217253214531,30.42667882992433],[-84.15188686305764,30.42679154471626],[-84.15172012210252,30.42694305106342],[-84.15165165032101,30.42707640660715],[-84.15160884977531,30.42732301872795],[-84.15156780947585,30.427576261165],[-84.15153917007845,30.42795686238011],[-84.15148899958517,30.42812296552873],[-84.15133343959505,30.42821083324663],[-84.1510314463797,30.42827204000366],[-84.15069021472014,30.42830719750111],[-84.15033383561507,30.42831942058816],[-84.14995915506967,30.42831942674594],[-84.14959922966156,30.42834392270442],[-84.1496702848108,30.42852989427932],[-84.14967877524583,30.42887522470549],[-84.14966696314217,30.42918065820353],[-84.14964833756335,30.42937189912762],[-84.14993112412009,30.42952508510718],[-84.15021880805011,30.4296809250158],[-84.15045630097076,30.42983948969288],[-84.15065993636998,30.42995656064078],[-84.15084685673307,30.4299712966486],[-84.1508558629473,30.4298249518328],[-84.15074310657425,30.42953912511191],[-84.15065755273423,30.429316815774],[-84.15057408511854,30.4290999289655],[-84.15060149722983,30.42886216695322],[-84.15076902183135,30.42871830796194],[-84.15093865485062,30.42862531139044],[-84.15124514516832,30.42861006544344],[-84.15157414856844,30.42866033239365],[-84.15184352305657,30.42869791403568],[-84.15209037272075,30.42868011569458],[-84.15237169880618,30.42859378856344],[-84.15271680030374,30.42852294312263],[-84.15299333744849,30.42846278424295],[-84.15360266698306,30.42838983849642],[-84.15390778440944,30.4284371355674],[-84.15413870197624,30.42854261940055],[-84.15440919674054,30.42874175044623],[-84.1546472782901,30.42895858487147],[-84.1548369757856,30.42917835494243],[-84.15496830684762,30.42934477697256],[-84.15515719261788,30.4294680898579],[-84.15538260494328,30.42957116909767],[-84.15563662857527,30.4297182755963],[-84.15591410424369,30.42989147195057],[-84.15623839892433,30.43003616888945],[-84.15668644186397,30.43004948101461],[-84.15712536419235,30.4300649463571],[-84.15741661275999,30.4301492006887],[-84.1577319801419,30.43025373535713],[-84.15820380184742,30.43031361511927],[-84.15850790357334,30.43029790738416],[-84.15872949994424,30.43011166629404],[-84.15896461157675,30.42980917554252],[-84.1590791328581,30.42960144071164],[-84.15910100793988,30.4293097674312],[-84.15910648041081,30.42904185128907],[-84.15910085415031,30.42878762245029],[-84.1591244396904,30.4283294077457],[-84.15913419363275,30.4281181307122],[-84.15909306618457,30.42791585371509],[-84.1589708635647,30.42788139390927],[-84.15884017529929,30.42787390314672],[-84.15860614441245,30.42782605122596],[-84.15833915831402,30.42777829583589],[-84.15807263214535,30.42773073617941],[-84.15773995403893,30.42769274820961],[-84.15731641784451,30.42762504582419],[-84.15701260834844,30.42759044896009],[-84.15664804293957,30.42754654781179],[-84.15635824474116,30.42749757356499],[-84.1560115657736,30.42745206511373],[-84.15566789203288,30.4274231046702],[-84.15541074584158,30.42738595574461],[-84.15519649213591,30.42736063414747],[-84.15489539213027,30.4273190627328],[-84.15432376169572,30.42715851447969],[-84.15363161130838,30.4269185875251],[-84.15314200442029,30.42676604406895],[-84.15283312947456,30.42666601802648],[-84.15251530394053,30.42663626619399],[-84.15224197415955,30.42663626687586],[-84.15201709619534,30.42670587250587],[-84.15177354134575,30.42684702571884],[-84.15160066583697,30.42723303131895],[-84.15156535393034,30.4274608965311],[-84.15154673313266,30.42779813363681],[-84.15151065251135,30.42803100513976],[-84.15139699276176,30.42814996024381],[-84.15120719420325,30.42822216154482],[-84.15081164334057,30.42830719588567],[-84.15043081615273,30.42834390837538],[-84.15013031005975,30.42843019127855],[-84.15006334528152,30.428618089383],[-84.15013836607683,30.42882317251016],[-84.15032641096467,30.42894070730309],[-84.15045852650069,30.4289670418529],[-84.1505742148072,30.42896703984237],[-84.15073016880308,30.42875232783987],[-84.15088082488285,30.42866813076113],[-84.15104549067017,30.42862683666923],[-84.15130209566188,30.42862911548696],[-84.15148407998893,30.42865604207737],[-84.15166748292552,30.42869510904492],[-84.15196709680097,30.42869440387116],[-84.15226882286169,30.42862623874973],[-84.1525711994332,30.42855098822141],[-84.1528809699806,30.42848206012334],[-84.15319311961316,30.42843228931767],[-84.15358079197033,30.42838813154978],[-84.15382125887142,30.42841755555136],[-84.15402377641516,30.42847680471039],[-84.1542653619277,30.42862264501078],[-84.15454202114314,30.4288663358734],[-84.15477084702448,30.42908451115653],[-84.15487106017287,30.42924351267997],[-84.15497433666677,30.42935110413799],[-84.15507447463608,30.42942489374286],[-84.15532450670057,30.42954669386532],[-84.1555223368128,30.42966069281805],[-84.15580581015232,30.42982622593854],[-84.15603298664097,30.42996283371767],[-84.15646407229002,30.43005881634363],[-84.15685941934028,30.43004546920116],[-84.15722858387868,30.43009349383256],[-84.15754644628515,30.43019675125888],[-84.15785909950392,30.4302817573375],[-84.15813791947454,30.43031469321899],[-84.15853358825319,30.43028149023234],[-84.15868030608256,30.43016993179208],[-84.1588220833255,30.43001197629759],[-84.15890474245779,30.42989298429064],[-84.15890678849358,30.42977474502294],[-84.15882704919093,30.42969489379381],[-84.15870805416927,30.42958065387104],[-84.15856456985014,30.42944027307594],[-84.15847994570582,30.42934081603295],[-84.15837707231834,30.42922085944714],[-84.15831836123209,30.42912369455062],[-84.15809895856935,30.42903405687762],[-84.15789234777812,30.4289391119037],[-84.15744042546498,30.42869727827554],[-84.15706706605403,30.4285410391011],[-84.15655361043416,30.42833090974811],[-84.15613004845684,30.42811991923553],[-84.1555943898397,30.42786434282229],[-84.15540997950045,30.42777717092758],[-84.15519679234706,30.42769552489885],[-84.15494934257897,30.42761911395199],[-84.15475273647327,30.42755256220578],[-84.15449557386741,30.42747189832543],[-84.15424936035893,30.42739908803769]]}}
