{"type":"Feature","properties":{"name":"NotreDame-5k","legacyMeetId":"0","distance":"5k"},"geometry":{"type":"LineString","coordinates":[[-86.24458294752053,41.69469076636296],[-86.24544834243767,41.69471023631514],[-86.24624409982796,41.69468791331742],[-86.24674398866883,41.69473337906143],[-86.2471960248729,41.69495641543976],[-86.24761428636982,41.69516450029232],[-86.24809020771336,41.69544175255844],[-86.24837083186648,41.69587679544674],[-86.24848320053226,41.69614044709485],[-86.24834933925409,41.69664205974584],[-86.24809595666568,41.69720686374102],[-86.24803585687046,41.69767064719231],[-86.24803507973088,41.69794448370722],[-86.24826151695899,41.698217566236],[-86.24870818653359,41.69851057546525],[-86.2490745253715,41.69853969710549],[-86.24947554780601,41.69843273971814],[-86.24973217008477,41.69810043334338],[-86.24978679798426,41.69766540179142],[-86.24983876137361,41.69725153296431],[-86.2499588495496,41.69633232961651],[-86.250075997073,41.69585889673274],[-86.25023270781548,41.6953592603798],[-86.25034588995686,41.6949083748487],[-86.25037252472251,41.69461305229062],[-86.2502570716791,41.69438863458041],[-86.24992700043467,41.69438499061931],[-86.24942628975597,41.69451582725636],[-86.24912332346179,41.69451678600176],[-86.24873819247428,41.69439450183804],[-86.24849771333056,41.69435488018682],[-86.2481057662156,41.69438184357973],[-86.24778096768877,41.69454686078883],[-86.24713588198814,41.69511671066464],[-86.24651596284569,41.69568988814196],[-86.24630303530213,41.69613935625108],[-86.24610228594506,41.69679621101723],[-86.24587500562139,41.69792797268044],[-86.24582426544175,41.69882754058055],[-86.24580098746021,41.69902345596815],[-86.24541118577189,41.69911001392704],[-86.24507738666931,41.69903264475156],[-86.24433960754357,41.69872691159112],[-86.24377207665762,41.69849216362316],[-86.2436212385869,41.69840180475384],[-86.2437565429112,41.69810666662601],[-86.24403117132066,41.69790960773015],[-86.24416716127568,41.69763489735265],[-86.24413033413495,41.69744265768767],[-86.2440748621155,41.69713822030664],[-86.24411465459853,41.69678736093564],[-86.24436111330365,41.69640395151637],[-86.24453190689184,41.69617484644739],[-86.24462219547438,41.69578657672499],[-86.24461331209065,41.69550763492965],[-86.24463655267819,41.69534170888217],[-86.24476531193913,41.6952823957869],[-86.24540637689769,41.69503176479805],[-86.24616097915904,41.69483470870855],[-86.24644012875711,41.69483470937048],[-86.24683574116204,41.69488146616453],[-86.24711159125339,41.69498251272756],[-86.24754513920061,41.69516399696433],[-86.24792721604555,41.69532655987653],[-86.24821611315701,41.6956275986019],[-86.24844961675976,41.69601793218839],[-86.24844560509783,41.69640769010809],[-86.24822545441467,41.69691774660444],[-86.24805012472135,41.69749147154202],[-86.24798701585406,41.69777571956227],[-86.24816478947763,41.69811507361529],[-86.24858323366674,41.69840707357696],[-86.24889751835121,41.69858173455252],[-86.24932523690255,41.69844761429189],[-86.24963836222304,41.69826252939249],[-86.24979319743194,41.69786877644925],[-86.24984639365348,41.69751513422423],[-86.24998376933307,41.69625398800689],[-86.25012530738591,41.6957468160804],[-86.25025327001475,41.69527106629791],[-86.25035273834668,41.69482758677557],[-86.25033826715885,41.69452623564899],[-86.25013678011071,41.69436189254127],[-86.24965044243179,41.69446007416216],[-86.24927601997352,41.6945212626774],[-86.24892424676877,41.69449427549596],[-86.24859153153265,41.69440950408065],[-86.24829951192187,41.69435358197109],[-86.2478177455723,41.69435760518859],[-86.24711554679446,41.69432612270383],[-86.24569760646826,41.69431698554183],[-86.24485629609244,41.69437971255216],[-86.24451932757698,41.69456327006804],[-86.24454893697904,41.69500725811875],[-86.24456275824035,41.6954402331502],[-86.24459763634351,41.69591575553466],[-86.24447172942801,41.69631065539664],[-86.24417100119062,41.69668406948517],[-86.24404125505995,41.69702049974867],[-86.2440812954563,41.69728963774808],[-86.24414197333913,41.69755099738567],[-86.2441653358195,41.69767787537772],[-86.2439945868587,41.69790398045436],[-86.24371422946835,41.69819097862508],[-86.24369668939588,41.6984591049579],[-86.24398662669098,41.69857998859484],[-86.24463533579284,41.69883330274784],[-86.24525050683935,41.69908090084882],[-86.24567395806109,41.69905758408873],[-86.24592026570551,41.69888027217134],[-86.24602790708315,41.69842693283756],[-86.24623451888671,41.69768178829063]]}}
