{"type":"Feature","properties":{"name":"NotreDameNew-5k","legacyMeetId":"8158","distance":"5k"},"geometry":{"type":"LineString","coordinates":[[-86.2447395395404,41.69478760633943],[-86.24552189376598,41.6947605206113],[-86.24645954466723,41.69478513340668],[-86.24692221890821,41.6948953974626],[-86.24737896601859,41.69504845600381],[-86.24788889390689,41.69518856330443],[-86.24790571597063,41.69519405334444],[-86.24847124487087,41.69534237715517],[-86.24874990974645,41.69557713806322],[-86.24934763480594,41.6962924779471],[-86.24947461981765,41.69656806028611],[-86.24953150891803,41.69696291220683],[-86.249536830057,41.69697940758498],[-86.24940238793927,41.69854384188941],[-86.24923166462314,41.69869068239334],[-86.24877214850643,41.69867354241381],[-86.24846476414469,41.69856058950543],[-86.24826816911094,41.69827715345021],[-86.24824303624291,41.69782868327585],[-86.24837254620954,41.6973884368059],[-86.24865002686916,41.69686511288305],[-86.24889353324737,41.69646322503856],[-86.24898485394779,41.69620772421602],[-86.2489268049588,41.6960429187146],[-86.24876894334021,41.69591344101292],[-86.24852923111658,41.69591998950314],[-86.24845319194287,41.6960227496369],[-86.24819503902701,41.69670643919834],[-86.24803253600513,41.69764144582911],[-86.24781935093607,41.69834128851142],[-86.24755378609235,41.69887676314588],[-86.24755031071203,41.69888859531463],[-86.24725845932089,41.69915516867472],[-86.24658370703301,41.69909351735216],[-86.24579810557766,41.69913044340004],[-86.24530701455377,41.69896612151428],[-86.24508255341202,41.69846086125064],[-86.24508483373961,41.6981511219487],[-86.24517958450721,41.697897586354],[-86.24547924148987,41.69754337750553],[-86.24563195962806,41.69707117180882],[-86.2455897096438,41.69670645660553],[-86.24547286488628,41.69645215523692],[-86.2453238338402,41.69611771458318],[-86.2450195739113,41.69522163392756],[-86.24502386671614,41.69502208984428],[-86.24513791180802,41.69489540314688],[-86.24514137856418,41.69489286108087],[-86.24524265188758,41.69484739161374],[-86.24582826030401,41.69477526978191],[-86.24634291171672,41.69476542860265],[-86.24676485775625,41.69484487705175],[-86.24729782533512,41.69501682746571],[-86.24770761422549,41.6951422046835],[-86.24820050967965,41.69526892397845],[-86.24861352040703,41.69545220450303],[-86.248949156394,41.69577822404178],[-86.24932874936334,41.6962675912488],[-86.2494400036735,41.69646322166998],[-86.24952827514528,41.69675347938558],[-86.24951822405039,41.69724248756352],[-86.24943252557246,41.69835743915132],[-86.24934608233694,41.69863942100414],[-86.24913864838791,41.69870213655521],[-86.24892160875832,41.69869068137653],[-86.24864140714583,41.69863375171205],[-86.2483671506041,41.69846633009991],[-86.2482260605602,41.69810456823125],[-86.24831430813538,41.69757584592828],[-86.24846053375563,41.69724685124932],[-86.24871369738092,41.69671815409711],[-86.24895965761499,41.69634627761119],[-86.24896184710835,41.69612798614195],[-86.24887192341406,41.69597271964623],[-86.24866725787909,41.69590690522984],[-86.24848047463047,41.69597603997393],[-86.24842518717702,41.69611426817347],[-86.24821256175991,41.69660227727221],[-86.24816041284666,41.69701673477614],[-86.24801473716605,41.69774143048632],[-86.2477536209982,41.69849389039449],[-86.2474919680153,41.69896010014334],[-86.24720543194564,41.69914278622426],[-86.24675191232008,41.69903249776181],[-86.24665952905691,41.69888268214395],[-86.24677410236941,41.69854942454422],[-86.24705227282735,41.69829845344241],[-86.24734964576135,41.69802283383114],[-86.24751650697932,41.69785318287578],[-86.24756307610497,41.69751567705353],[-86.24773780697501,41.69688532969351],[-86.24780822915187,41.69644107452478],[-86.24792246856276,41.69612455920065],[-86.24804809169066,41.69592983169409],[-86.24808903236672,41.69563492930067],[-86.2480761332406,41.69550528773174],[-86.2479202610798,41.69539114775805],[-86.24775405266762,41.69536525850496],[-86.24773145767624,41.69536525868474],[-86.24755556212486,41.6953998177807],[-86.24731656844337,41.69549639916104],[-86.24716410813106,41.6956997506221],[-86.24705656990746,41.69592655660367],[-86.24698903925486,41.69627470356422],[-86.24680826635105,41.69658705076607],[-86.24656332147877,41.69685303917368],[-86.24645721287895,41.69707959152417],[-86.24649926253583,41.69743352363992],[-86.24656211864398,41.69787286886936],[-86.24657097411793,41.69819803556719],[-86.24652225063066,41.69858300914786],[-86.24632940939242,41.69900827125622],[-86.24601923368006,41.69917380308691],[-86.24557596552854,41.69912427770964],[-86.24517022207405,41.69880629902351],[-86.2450888644097,41.69826126225519],[-86.24512081073934,41.69799756500909],[-86.24533354830783,41.69772225777253],[-86.24553015486816,41.6973839706541],[-86.2456487126324,41.69695882014983],[-86.2455448047523,41.69658325849148],[-86.24544641224743,41.69635713738098],[-86.24541802777159,41.69619029096784],[-86.2456250805085,41.69594959150371],[-86.24623572001703,41.69572471350057],[-86.24710591571663,41.69544928802042]]}}
