{"type":"Feature","properties":{"name":"NXN-5k","legacyMeetId":"8271","distance":"5k"},"geometry":{"type":"LineString","coordinates":[[-122.5221847893875,45.52991094886305],[-122.5243861879421,45.52985162831405],[-122.5261251775223,45.52992003507798],[-122.5266853047287,45.52990633153828],[-122.5268806954971,45.52986069912933],[-122.526997925339,45.52977400511535],[-122.5270304823657,45.52965993796608],[-122.5270239470786,45.52936792927046],[-122.5270043896922,45.52912611016757],[-122.5269457199803,45.52836871428949],[-122.5269456957749,45.52799457721068],[-122.5269847540586,45.52768431502454],[-122.5269456638546,45.527474433893],[-122.5266330271713,45.52712312046256],[-122.5263464572329,45.52699993875541],[-122.5260273309836,45.52700907514714],[-122.5257472836497,45.52705927348248],[-122.5253565220452,45.5271870389279],[-122.5250489446029,45.52731547510258],[-122.5248639461178,45.52740805440156],[-122.5247242526409,45.52746624730391],[-122.5244939448304,45.52749799102826],[-122.5242623871424,45.52751557101922],[-122.5231747573136,45.52750645424575],[-122.5229793748397,45.52746539081951],[-122.5226863017925,45.5273285113138],[-122.5224400397968,45.52727052790665],[-122.5221719742324,45.52723349579669],[-122.5219114589704,45.52722820351472],[-122.5216849221606,45.52728110198345],[-122.5216094084091,45.527357807374],[-122.5216182089459,45.52752925883254],[-122.521681139917,45.52758263686977],[-122.5218246122976,45.52763553907435],[-122.5221493149367,45.52766463689672],[-122.5226276857218,45.52769808465688],[-122.5233115276471,45.52793077832463],[-122.5241451710355,45.52822277950184],[-122.5245229211861,45.52844178001064],[-122.5248485730915,45.52870640628415],[-122.5248979755291,45.52880991959846],[-122.5248225292658,45.52894366253302],[-122.5245685312643,45.52914898389795],[-122.5241972960383,45.5292493659459],[-122.5237218515968,45.52926762060422],[-122.5229533250485,45.52925849813617],[-122.5217614576012,45.52923111673969],[-122.5209904712357,45.52959702047409],[-122.5208960716333,45.5297292713974],[-122.5208771867554,45.52989061929713],[-122.5208960441188,45.53042227570636],[-122.5207909667676,45.53066833018717],[-122.5207583794576,45.53113372071241],[-122.5206736987062,45.53131166365294],[-122.5205173750687,45.53141204035964],[-122.5203350017865,45.53143941347194],[-122.5200484178259,45.53142115770839],[-122.5198530221097,45.53137096438122],[-122.5196771729974,45.53122951733303],[-122.5195925143855,45.53103332010022],[-122.519475296921,45.53074130635096],[-122.5193515631208,45.53049948215488],[-122.5191887415113,45.53038541129629],[-122.5190310563197,45.53038340284517],[-122.5189442085581,45.53043365575297],[-122.5189177732967,45.53049449094938],[-122.5189253209337,45.53055003723222],[-122.5189970419503,45.53083041482212],[-122.5191027451103,45.53111608358062],[-122.5191895762703,45.53130388496928],[-122.5192688559958,45.53149433119319],[-122.5194010071743,45.53156575133396],[-122.5195822474563,45.5316054317252],[-122.5199824902981,45.53161866629257],[-122.5205224391328,45.53162661223328],[-122.5207338893529,45.53157635997018],[-122.5208773768785,45.53144675510107],[-122.5209453477098,45.53129598879512],[-122.5210970911949,45.53050407944742],[-122.521142693065,45.53023032215386],[-122.5212208534445,45.53012994537243],[-122.5214292751494,45.53001131978601],[-122.5219698593839,45.52992463523704],[-122.5223606409467,45.52990638707151],[-122.5243015189036,45.52986075448734],[-122.5261642548515,45.52989722088933],[-122.5265941212674,45.52991089696039],[-122.5267960257099,45.52987438967556],[-122.526939310616,45.52981963345604],[-122.5270044348908,45.52972837848014],[-122.5270304770934,45.5295914983806],[-122.5270239416269,45.52929492706221],[-122.5269978710696,45.52904854557459],[-122.526958743558,45.52832765004035],[-122.5269522115582,45.5280402035073],[-122.5269847565938,45.52772537894666],[-122.5269717183692,45.52752005955738],[-122.5266786187673,45.52715505743708],[-122.5265327249494,45.52706680394768],[-122.5263779229371,45.5270006829357],[-122.5261325116488,45.52699804536253],[-122.5258040416154,45.52704566506333],[-122.5254281614448,45.52715509844278],[-122.5249983251527,45.52734217769087],[-122.5247959870984,45.52743450581698],[-122.5245945375326,45.52748819002824],[-122.5243535657751,45.52751100703213],[-122.5241451575842,45.52752013506906],[-122.5232854740398,45.52751101662763],[-122.5230445022935,45.52747451602012],[-122.5227970181489,45.52738326327189],[-122.5225951236628,45.52729657251957],[-122.522334614836,45.52725094470988],[-122.5220360534341,45.52722555960925],[-122.521807083558,45.52724637718227],[-122.5216584924848,45.52729961697927],[-122.5215986729237,45.52740606732546],[-122.5215986717978,45.52746538160593],[-122.5216377466058,45.527561197559],[-122.5217354373501,45.52760682521036],[-122.5218774708626,45.52764611969686],[-122.5220545624002,45.52765701757445],[-122.5225430198245,45.52768439650913],[-122.5226797878297,45.52770721012385],[-122.5232203483397,45.5278805898405],[-122.5240865549008,45.52818627925594],[-122.524770416351,45.52864253106723],[-122.5249332452329,45.52883415793431],[-122.5252002992754,45.52942729259421],[-122.5253761568564,45.52957329281548],[-122.5258646514766,45.52987897784612],[-122.5260535329988,45.52991091165396],[-122.5263987278802,45.52991546516247],[-122.5264964251161,45.52992002503609],[-122.5267359232282,45.52989187929948],[-122.5268378666515,45.52986278056668],[-122.5269096041473,45.52983632782156],[-122.5269624619703,45.52979665040894],[-122.526992664907,45.52975432870257],[-122.5270115393766,45.52969878217722],[-122.5270190855381,45.52962472072915],[-122.5270303964582,45.52940518188494],[-122.52702283985,45.52933376603811],[-122.5270077235613,45.52914861368086],[-122.5270001677219,45.52908513296038],[-122.526958582807,45.52829691023165],[-122.5269556630585,45.52807190585877],[-122.5269594293445,45.52795023358945],[-122.5269896192782,45.52774920915304],[-122.526970726342,45.5275508315522],[-122.52692918701,45.52744503130874],[-122.5267026329707,45.52717788996242],[-122.5266157901543,45.52710912183974],[-122.5263099600683,45.52695307435055],[-122.5257813764894,45.52679967733635],[-122.5253245345909,45.52670975717128],[-122.5248752482348,45.52668860582249],[-122.5219076885923,45.52688434794185]]}}
