{"type":"Feature","properties":{"name":"Parkside-6k","legacyMeetId":"8153","distance":"6k"},"geometry":{"type":"LineString","coordinates":[[-87.86255036673418,42.643545930177815],[-87.8625663154613,42.64352791433306],[-87.86272252548325,42.64351582500729],[-87.86289436100792,42.64348542812945],[-87.86305602773632,42.643462529268554],[-87.86320916223254,42.64344255635123],[-87.86336370200173,42.643427263977486],[-87.86352758241449,42.6434064338424],[-87.86371656641306,42.64337635947231],[-87.86390230385857,42.64335330893915],[-87.86415054039423,42.64332098541618],[-87.86431446013046,42.643299966575],[-87.86448667156021,42.64327775514071],[-87.86463713294394,42.643258426353476],[-87.86478101699497,42.64324134211513],[-87.86497339889895,42.643216583666465],[-87.86512648605219,42.64319309510165],[-87.86527412371888,42.643171060731646],[-87.86543456046454,42.64314855570929],[-87.86563000897286,42.64312278983036],[-87.86585019897049,42.643094148573105],[-87.86604359271357,42.64306623558501],[-87.86621628071661,42.64304140071896],[-87.86638341088032,42.643020231565586],[-87.8665613196449,42.64299745326343],[-87.86672218603785,42.642979028470094],[-87.86686911645229,42.64296448102826],[-87.86702660575358,42.64295163626241],[-87.86716655822036,42.64294148563117],[-87.86729711296051,42.64292848061762],[-87.86742352524183,42.64292393157122],[-87.87355911506073,42.6431077502775],[-87.87371089128611,42.64310533811672],[-87.87383520564184,42.643096508922575],[-87.87417865892989,42.643084595342074],[-87.87431871022481,42.64307413420234],[-87.87444296657726,42.64306063008708],[-87.87462750763864,42.64303409804419],[-87.87478342842286,42.643024680068805],[-87.87491592499934,42.6430170652692],[-87.87504141258377,42.643013174313694],[-87.87516245458484,42.64293946408571],[-87.87526867934837,42.64287911305618],[-87.87566489949157,42.64266947393937],[-87.87582993491442,42.64264516115297],[-87.87596360084197,42.64273028736161],[-87.87596174117999,42.642861783139175],[-87.87595266554254,42.642955873153674],[-87.8759482695846,42.643055599990205],[-87.87593900805017,42.64316116132143],[-87.87619624822536,42.64328127038428],[-87.87618990884218,42.64338730743296],[-87.8761841491969,42.64348364727753],[-87.87617765426408,42.64358810784019],[-87.87617160969184,42.64368473900009],[-87.87616421920032,42.643802886596866],[-87.87615639552192,42.643927959593114],[-87.87614838779078,42.64405115876675],[-87.87614074816605,42.64416649431209],[-87.87613583954983,42.64427221436711],[-87.87613200594387,42.64438822378936],[-87.87612818345555,42.64450389662011],[-87.87612427785598,42.64462198527292],[-87.87612141134335,42.644750721502845],[-87.87611845700991,42.64488340184506],[-87.87611906760493,42.64500113226195],[-87.876121135917,42.64510741921912],[-87.87612334412722,42.64522089493677],[-87.87612580808732,42.645325615730926],[-87.87612899400189,42.64544400297832],[-87.876132190064,42.64556276743815],[-87.87613439299255,42.64566491853522],[-87.87613620671155,42.64578308366418],[-87.87538530098317,42.64596607395807],[-87.87526346422636,42.6459712493171],[-87.87512186088662,42.64600821606299],[-87.87498107162683,42.646006284260736],[-87.87482774795892,42.64598533909496],[-87.87470041239534,42.64593047735022],[-87.87463289274899,42.64582686887567],[-87.87461359107232,42.64570742147964],[-87.87460690689802,42.64561513584605],[-87.8746066749731,42.64552115260127],[-87.87461090504091,42.64542197457934],[-87.87468459111139,42.64532408323369],[-87.87477047399878,42.64523720528095],[-87.87488846243504,42.6451568435176],[-87.87499073958736,42.64506100775503],[-87.8750764723181,42.644979674976604],[-87.87514680813517,42.64489802422262],[-87.8751601183074,42.64478125749686],[-87.87516749526378,42.6446681478374],[-87.87510659423353,42.64457546687417],[-87.87497604884581,42.64457246358314],[-87.8748275242214,42.64458999859189],[-87.87470415572548,42.64458256489312],[-87.87454841414703,42.64457550161182],[-87.8744096085087,42.644543256635046],[-87.87430506150473,42.64448594048314],[-87.8742479642849,42.64438729269305],[-87.87428529185797,42.64428316486305],[-87.87440165155853,42.6442276435394],[-87.87452074798252,42.64419941523703],[-87.87466034760924,42.64413413624183],[-87.87478207118936,42.644067661064376],[-87.87488057413941,42.64398494158053],[-87.87491321718723,42.64386016914782],[-87.87488119403139,42.64377078899656],[-87.87484713462558,42.6436822397039],[-87.87480120029383,42.643590055114245],[-87.87473772199264,42.643497655058496],[-87.87466628610616,42.643410722963296],[-87.87463459658971,42.64328569006102],[-87.8746383228286,42.64316678463272],[-87.87474575456206,42.64311089416166],[-87.87486851126936,42.64307285800525],[-87.8749951186418,42.64304782863679],[-87.87511701381892,42.64300953995624],[-87.87523936394783,42.642957726986175],[-87.87536071982835,42.64288549739094],[-87.87546783697971,42.64280738998302],[-87.87557409237527,42.642736788581416],[-87.87568831691084,42.64266611592923],[-87.8757959727349,42.64259007301473],[-87.87590563420714,42.642465295492286],[-87.87598420399203,42.64236283643311],[-87.87601475024589,42.642256375917846],[-87.87600649355944,42.64215005739413],[-87.87600191940528,42.642037577210594],[-87.87600724601819,42.64193500588708],[-87.87601523018729,42.641801675707555],[-87.87601806888267,42.641698409770726],[-87.87602293109855,42.64159073103587],[-87.8759938775275,42.64148280002636],[-87.87597546215756,42.64139206150411],[-87.87599810035128,42.64129730839225],[-87.87602450911388,42.641179010097495],[-87.87605312014591,42.64107173852056],[-87.87608227888019,42.640951214306696],[-87.87607400694806,42.64084511008073],[-87.87609131028329,42.64073668707155],[-87.87606644784834,42.64059505319952],[-87.87600623663413,42.64051148040406],[-87.87589420766011,42.64043770509956],[-87.87583989747634,42.640324009064805],[-87.87574862528653,42.64025354537285],[-87.87565814616207,42.64017694162486],[-87.87556805502162,42.6400994997522],[-87.87545215488609,42.64004494636277],[-87.87534400719281,42.639987033280505],[-87.87522401919155,42.639938347015104],[-87.87510510996731,42.639688618569586],[-87.87495925841846,42.6396873883792],[-87.87482507749183,42.63968625662427],[-87.8746898429757,42.63968502884412],[-87.87454266755522,42.63968361633942],[-87.87440152227794,42.639682261705815],[-87.87427525037127,42.639681049820794],[-87.874143186396,42.639679782342625],[-87.87400791227202,42.63967848406089],[-87.87387521709317,42.63967721052707],[-87.87373968938088,42.63967590981017],[-87.87359632023386,42.639674533856365],[-87.87314991785826,42.64031835182203],[-87.87304903870267,42.64042510541932],[-87.87293104194612,42.640533947405196],[-87.87281620148568,42.640629277763786],[-87.87272055597121,42.64071257045862],[-87.87261943069075,42.64078921407905],[-87.87252946783461,42.64086233860447],[-87.87241061425865,42.640950204527144],[-87.87229742330851,42.64102303955135],[-87.87220058033613,42.64108400079065],[-87.8720990692165,42.64116143674953],[-87.8719742873625,42.64122307665581],[-87.87189615584634,42.64130637953816],[-87.87191980170202,42.64140921270435],[-87.87204623087969,42.641504642117226],[-87.87215121443481,42.641580562710715],[-87.87225592937473,42.64167724438446],[-87.87226300651118,42.64178725552725],[-87.87223953074361,42.64188233853427],[-87.87222379589173,42.641997304066166],[-87.87219726905109,42.64212317455396],[-87.8720430554197,42.642189772898604],[-87.87190279919619,42.64218829724063],[-87.87168919767792,42.642188382804385],[-87.87150121070441,42.64217036618674],[-87.87133446408606,42.64218320344972],[-87.87117669061227,42.64218734504159],[-87.87103784631502,42.64219725181429],[-87.87088294626095,42.64221067231794],[-87.87075589484226,42.64220166281689],[-87.87058821271812,42.642178998511405],[-87.87040736661257,42.64218485492144],[-87.8702653267637,42.642185649440044],[-87.87010375606164,42.64217353085115],[-87.86993118692195,42.6421672881581],[-87.86975912030987,42.642168030181665],[-87.86958802378334,42.64216165152635],[-87.86938930385463,42.64215494981694],[-87.86920729092228,42.64214956479798],[-87.86903539643849,42.64215088654145],[-87.86885429579986,42.642147581562234],[-87.8686768976666,42.64214402854121],[-87.86849648324838,42.64214585374465],[-87.86832626077398,42.642147139656636],[-87.86816568998567,42.6421399469086],[-87.86800719182267,42.64213479828407],[-87.86784872104498,42.642130664430226],[-87.86767861971565,42.64213652006997],[-87.86751432384982,42.64213863678304],[-87.86735152449742,42.6421397288483],[-87.86719068418412,42.64213477637726],[-87.86703378772472,42.6421299504957],[-87.8668787844249,42.642135752419016],[-87.86674114878646,42.642141702335714],[-87.86661399678523,42.64216465885286],[-87.8664793063891,42.642219056055154],[-87.86636194560991,42.64229430744556],[-87.86623705591052,42.64237443375227],[-87.86612279948167,42.64245041324494],[-87.86600088187217,42.6425189970109],[-87.86587606170053,42.64258522757388],[-87.86575544929345,42.64266698811992],[-87.8656383794119,42.64272497179958],[-87.86549493749922,42.64276242892085],[-87.86536039282038,42.642766689240894],[-87.86520326653225,42.642762370025174],[-87.86503889557517,42.642758696526656],[-87.86487888483083,42.642762258166464],[-87.86470151913443,42.6427693590884],[-87.86453289159303,42.642781377601295],[-87.86436534044725,42.642798525320025],[-87.86421126323697,42.64282381368358],[-87.86405626435382,42.64285317222186],[-87.86389983038028,42.6428909778538],[-87.8637503931866,42.642943623168215],[-87.86360819175282,42.64301001464738],[-87.86348687608698,42.643089160584395],[-87.86339668419923,42.64316964364423],[-87.8633030192229,42.643235668170085],[-87.8631534100603,42.6432526156009],[-87.86302479200118,42.643247225179245],[-87.86286359194622,42.64326405025737],[-87.8627039843467,42.643281810000474],[-87.86254118625045,42.64329170493679],[-87.8623724002371,42.64330376891997],[-87.86222065417098,42.64332532784678],[-87.86207342277052,42.6433569157185],[-87.86193203834787,42.64339375906625],[-87.86178756473326,42.643431539336284],[-87.8616426693253,42.643469802822274],[-87.86149588405712,42.64349837185943],[-87.8613493176109,42.6435148697207],[-87.86120535465332,42.64352278517091],[-87.8610681132547,42.64351381171061],[-87.86094568703693,42.643476784360814],[-87.86086160441577,42.64339555114532],[-87.8608514049357,42.64329270127201],[-87.86085036334126,42.64315887772893],[-87.8608497436037,42.64304656311167],[-87.86085107246589,42.64293776304942],[-87.8608585504979,42.642842977259455],[-87.86091284444781,42.642759725898124],[-87.8610341913359,42.64270383068874],[-87.86116755240984,42.642654585947504],[-87.86131020434038,42.64262240438929],[-87.8614582374586,42.6426012689214],[-87.86159873390316,42.642581471786954],[-87.8617235023613,42.642555111959325],[-87.86186371356982,42.64252230466827],[-87.86198060809065,42.642475780422174],[-87.86212092076487,42.642427705568004],[-87.86228433845093,42.64237948379035],[-87.86244689161542,42.64233777252765],[-87.8625973801635,42.64228839109469],[-87.86270017532601,42.642188808951545],[-87.86276442100433,42.64210126915334],[-87.86283828918845,42.642015039991314],[-87.86291135910224,42.64192279989296],[-87.86297133822866,42.641823495614446],[-87.86301621631121,42.64171972496881],[-87.86303398074102,42.64162455123291],[-87.86304411392945,42.641489958865634],[-87.86304888760576,42.64138703342177],[-87.86305311928294,42.64127543162239],[-87.86305464875734,42.641157245483484],[-87.8630612505472,42.6410418532075],[-87.86306907010182,42.64091641012893],[-87.86307402234914,42.64078707400715],[-87.86309355759813,42.64066191836928],[-87.86311355536944,42.64054125069726],[-87.86313204744401,42.64042896948935],[-87.86313123748582,42.64031304802682],[-87.86309138136808,42.640204032390294],[-87.86301503948177,42.64012039683827],[-87.86291974847813,42.64004917228816],[-87.8627932471753,42.640012904526024],[-87.86265820700265,42.64001095343929],[-87.86252754580867,42.640016138078686],[-87.862395652854,42.64001285411374],[-87.86226096922313,42.63999128662862],[-87.86209587089219,42.63994889866654],[-87.86191070107412,42.63994386615942],[-87.86178627851852,42.63998259571587],[-87.86165447899873,42.64004734816872],[-87.86151882703643,42.6401108035608],[-87.86136093800762,42.640205565353604],[-87.86124250018808,42.64024694237514],[-87.86122249474327,42.640444854246844],[-87.86119839247814,42.640644033298265],[-87.8612279769329,42.64074334449212],[-87.86121343055045,42.64085223650134],[-87.86113638380432,42.64095925229871],[-87.86104129072518,42.64104085706374],[-87.86093797799836,42.641121812125085],[-87.86084925709669,42.64121572087831],[-87.86073671431501,42.641306949336474],[-87.86059579106663,42.64137147004562],[-87.86044229970892,42.6414257364184],[-87.8603004238777,42.64147150129865],[-87.86014304894435,42.64154545685096],[-87.86000912957769,42.64158917995219],[-87.85986211610181,42.64164536883179],[-87.85970553081175,42.641704150183784],[-87.85957509398246,42.64173705688481],[-87.85943107971559,42.64175698185562],[-87.85929018041688,42.64172475288304],[-87.85916883067777,42.64163649101933],[-87.85905591835225,42.64154384114715],[-87.85893719987158,42.64143823329267],[-87.85881805641363,42.641348624122834],[-87.85872385568909,42.64127126352123],[-87.85859541810952,42.64117484115308],[-87.85850881344143,42.641106767894726],[-87.85840346685806,42.64104486526826],[-87.85823809912033,42.641031966538996],[-87.858090133112,42.640952740725425],[-87.85797568732474,42.640899738478765],[-87.8578572351863,42.64082861038272],[-87.85772162470462,42.64075656467543],[-87.8575785313227,42.64067129404703],[-87.8574327976697,42.64060773308144],[-87.85729106536107,42.64055848371925],[-87.85716040436886,42.64050798952033],[-87.85702122235116,42.64045579509648],[-87.85688780995747,42.64038965266354],[-87.85678161442743,42.64033665972055],[-87.85668196138442,42.6402622928526],[-87.85660598028024,42.640181435958446],[-87.85655841549298,42.64009410626409],[-87.85649628853668,42.63997162008998],[-87.85644206657638,42.63987833350731],[-87.85638237071663,42.639799811532875],[-87.85628176617914,42.6397264650604],[-87.85609445260329,42.63971931563697],[-87.85597132986277,42.639793574140704],[-87.8558571516574,42.63990016349276],[-87.8558453477259,42.640013196228416],[-87.85587188439911,42.64011461001206],[-87.85602783217666,42.64022083550491],[-87.85612978393885,42.640296242666984],[-87.8559705927504,42.64052947810428],[-87.85606941788278,42.64061849867792],[-87.8561756077137,42.64071069475952],[-87.85629056580558,42.640797623706234],[-87.85637838670779,42.640880113608915],[-87.85652068011522,42.640996716967194],[-87.85663837634854,42.64109529216225],[-87.85677042004649,42.64120360099165],[-87.85687830014861,42.64129141243243],[-87.85698801895491,42.641379517605934],[-87.85708324298291,42.64145598330144],[-87.85719143228835,42.64154286037198],[-87.85728433831788,42.641617464813386],[-87.85736743856073,42.64168352021257],[-87.85769782300129,42.64152565186654],[-87.85747455599005,42.64176806960922],[-87.85759759036456,42.641865182405105],[-87.85770819978711,42.641952455720585],[-87.85780623547726,42.64202978258042],[-87.85790151418719,42.64210561308703],[-87.85800500417626,42.642188290742645],[-87.8581024137874,42.64226847224972],[-87.85819377167897,42.642345701651706],[-87.85829182655738,42.64243166609877],[-87.85838173215512,42.642517560644194],[-87.8584768469768,42.64260843054685],[-87.85856677647293,42.64270194389676],[-87.85866298779541,42.64280109043276],[-87.85874742565764,42.642893599446616],[-87.85883808597879,42.64299443951383],[-87.85892720930119,42.643093569902696],[-87.85901905920049,42.6431957330822],[-87.85911413909608,42.643301488914176],[-87.85921813628373,42.64341869157713],[-87.85931177827497,42.64352438889762],[-87.85941099738571,42.643632479790654],[-87.85951190231714,42.64373920271469],[-87.85962131548696,42.6438471982197],[-87.85977125263648,42.64395388337483],[-87.85987546658997,42.64400610612663],[-87.86003151401904,42.64405414791906],[-87.86018072453557,42.64408726966209],[-87.86031172829463,42.64411129777224],[-87.86046854666904,42.6441375603348],[-87.86062664187563,42.64416335312356],[-87.8607869692403,42.64418687458743],[-87.86092310928647,42.64420905013972],[-87.86105485896013,42.64423480245363],[-87.86119567967725,42.64426264013198],[-87.86132701356078,42.64428948916979],[-87.86146498775395,42.64431839300701],[-87.86159998827598,42.64434667393994],[-87.86276460907773,42.64399908941984],[-87.86294003272222,42.644033945273],[-87.86307186180049,42.64406382043198],[-87.86320243871882,42.64409261929779],[-87.86337171907377,42.64413478235507],[-87.86341574958995,42.644144706420064]]}}
