{"type":"Feature","properties":{"name":"Parkside-10k","legacyMeetId":"8153","distance":"10k"},"geometry":{"type":"LineString","coordinates":[[-87.86262884560438,42.64366257704009],[-87.86265650831417,42.64365084051755],[-87.86280913176248,42.643619921873544],[-87.86295719100399,42.643600492484126],[-87.86312214974409,42.643576952289536],[-87.8632999021561,42.64354939875689],[-87.86348515389454,42.643519041865865],[-87.86367320189898,42.643490511094534],[-87.86387357661643,42.643462605556785],[-87.86407953211896,42.64343653825337],[-87.86428833286229,42.643405489195814],[-87.86449376741614,42.643372602980534],[-87.86470356269662,42.6433375158256],[-87.86490883586693,42.6433002511951],[-87.86511928927318,42.64326190882141],[-87.86532857225173,42.643224355808655],[-87.86553876998822,42.64318830927476],[-87.86574312952098,42.64315136449916],[-87.86594274081062,42.64311447711559],[-87.86614344973704,42.64308051388931],[-87.8663482686541,42.64304572477434],[-87.86654854966973,42.643013325920855],[-87.86675560280838,42.6429916428782],[-87.8669481821078,42.64297466281331],[-87.86712061528642,42.64296262916719],[-87.86728294783924,42.64294951750888],[-87.8674167848213,42.64294182154203],[-87.86755970862507,42.642934041896446],[-87.86772793458896,42.64291396893506],[-87.86790764496594,42.642900216227304],[-87.86810096936912,42.64288254864163],[-87.86830002167872,42.64288214292498],[-87.86849711257103,42.64289117495413],[-87.86869956371946,42.64290217460092],[-87.86889964131275,42.64290418987611],[-87.86908295159853,42.64290827531875],[-87.86921151359925,42.642893677442004],[-87.8694232457126,42.64291772647232],[-87.86965003907616,42.64292747644063],[-87.86986914833152,42.64293060327109],[-87.87008057978605,42.64294298540083],[-87.87030068790635,42.642957156283536],[-87.87052501337944,42.64295975619794],[-87.87072470117164,42.64297278617255],[-87.87090030461215,42.64297658455426],[-87.87107515503365,42.642978079239214],[-87.87124695366947,42.64298002616826],[-87.871402603079,42.64298569789045],[-87.87155927091639,42.64298977485762],[-87.8717567137362,42.64299355448447],[-87.87193907738664,42.643011383215466],[-87.87211616849444,42.64302727213044],[-87.8723087295405,42.6430360527791],[-87.8725192983535,42.64304649487181],[-87.872722243496,42.64305102715433],[-87.8729398667215,42.64306370013064],[-87.8731729914702,42.643086190508974],[-87.87330033616796,42.64309631215818],[-87.87352991393004,42.64311196347518],[-87.87365832503981,42.643109132777006],[-87.8737822429554,42.643108109255515],[-87.87390638172573,42.6431076929035],[-87.87413762652292,42.64310204608865],[-87.87436005856156,42.643092731077324],[-87.8745695685337,42.6430748880929],[-87.87476353181323,42.6430601179279],[-87.87496937508297,42.64304066771554],[-87.87515764599019,42.6430019698125],[-87.87532114464345,42.64292824677485],[-87.8754660130119,42.64283689141392],[-87.87559696438808,42.642750645244526],[-87.87570304945119,42.642678332850814],[-87.8758238888849,42.6426550982802],[-87.87594224515543,42.6426810784932],[-87.87599808082533,42.64277767194828],[-87.87598226246196,42.6428839840938],[-87.87597281734801,42.642999103716875],[-87.87620980191942,42.64306527556132],[-87.87620156306193,42.64319459562864],[-87.87619328923374,42.64333075994633],[-87.8761867411656,42.64344028752437],[-87.87617975191563,42.643554569355615],[-87.87617208482186,42.643677138907606],[-87.87616369313729,42.643811292124965],[-87.8761551308086,42.64394817323684],[-87.87614655842873,42.644078772257394],[-87.87613842902357,42.64420415928931],[-87.876134011148,42.64432753518199],[-87.87612968893868,42.64445833037485],[-87.87612522334271,42.6445934645533],[-87.87612193518692,42.64472718268353],[-87.87611902058322,42.644858079008365],[-87.87611865280267,42.64497983082846],[-87.87612113045212,42.645107152392924],[-87.87612356621088,42.64523232117746],[-87.87612649785397,42.645351256939705],[-87.87612988600202,42.645477159151866],[-87.87613340592223,42.64560795793434],[-87.8761350433215,42.64570730544067],[-87.87613686919256,42.64582626304399],[-87.87526063474193,42.64623176887604],[-87.87512511336752,42.64622907195018],[-87.87496212284645,42.646198567530476],[-87.8748250294793,42.646166630478305],[-87.87466566064678,42.64611590595135],[-87.87453476389511,42.646059744744555],[-87.87442373871771,42.64600815599597],[-87.87434769548119,42.64592973877816],[-87.87462570329345,42.64539784018195],[-87.87470655030343,42.64531186927314],[-87.87480955559943,42.64522729928681],[-87.87492983228266,42.64514059040184],[-87.87504064089593,42.64504937064425],[-87.8751300869627,42.644958010079186],[-87.87518732059948,42.64485890530703],[-87.87519736344451,42.64475218647801],[-87.87519701405434,42.64465466599994],[-87.87514225821353,42.64456282343871],[-87.87495507393267,42.644552092848265],[-87.87480639497939,42.64455941990863],[-87.87467462448559,42.64455776266664],[-87.87455143378527,42.64455440716791],[-87.87441527293984,42.644616258554244],[-87.8743268934059,42.6447281412137],[-87.87425212138284,42.64482165289334],[-87.87420462777428,42.644911669073274],[-87.87410401756405,42.64502071837782],[-87.87397592163788,42.64505512104585],[-87.87383022780794,42.645043014295354],[-87.87366904133314,42.645017689509274],[-87.8734870665157,42.64501549840019],[-87.87333498026535,42.64503553615334],[-87.8731900887375,42.64504823312025],[-87.87306036445594,42.64501861910947],[-87.87296856538175,42.64494386729004],[-87.87292144205432,42.644843661853564],[-87.87290438503987,42.64473179286078],[-87.8729152074028,42.64461904351458],[-87.87297278631804,42.64452413011256],[-87.8730131607832,42.644431267146096],[-87.87302825915167,42.64432891686654],[-87.87310554432175,42.644252720593535],[-87.87321921103589,42.64415157697482],[-87.873235341896,42.64405109153077],[-87.87325753762315,42.64394073900891],[-87.87328155845147,42.643826756461394],[-87.87331236921372,42.64371223915043],[-87.87334188213168,42.64359009903798],[-87.87335839387067,42.64346415967402],[-87.87336934145289,42.64334500897754],[-87.87337683535307,42.643245821637656],[-87.87339039647566,42.64315610369756],[-87.8735395988881,42.64309333217586],[-87.87369876062075,42.6430980769409],[-87.87387450637503,42.64309231388987],[-87.8740607749812,42.643086657037095],[-87.87425247413385,42.64307843084603],[-87.87444477315502,42.643065544259734],[-87.8746321771227,42.64305069059955],[-87.87481868065004,42.64303709877331],[-87.87499670318091,42.64302112401461],[-87.87515960853663,42.642981765522926],[-87.87530475599173,42.64291244814549],[-87.87544268315364,42.64282881387263],[-87.87556464813693,42.64275283242719],[-87.87568506383155,42.64266698407236],[-87.87581503190073,42.64258060453362],[-87.87591813579328,42.64248603957002],[-87.87600934615584,42.64238096129783],[-87.87605600377867,42.64226286521267],[-87.8760545358522,42.642143875278855],[-87.87604218114551,42.642012710522124],[-87.87604632468529,42.641881575510055],[-87.8760583940523,42.64175073848477],[-87.87607206975719,42.64161975149946],[-87.87607599110885,42.64149489108493],[-87.87605938382538,42.64136925260722],[-87.87608205239334,42.64124121827565],[-87.87611460421853,42.641114614896836],[-87.87614226759253,42.64097581891121],[-87.87616566402991,42.64084469278386],[-87.8761582841017,42.640712630258996],[-87.8761105043973,42.640591610867666],[-87.87601358870323,42.64049935576281],[-87.8759285185644,42.64037702111659],[-87.8757969398837,42.640273542289094],[-87.87569791327141,42.640175864485364],[-87.87555784744663,42.640089282518694],[-87.8754293642569,42.64001753716201],[-87.87531344857756,42.639952341310206],[-87.87513703878038,42.63993594500848],[-87.87495530185612,42.639940024023616],[-87.87482782751293,42.63993182940756],[-87.8746685736484,42.63994062091731],[-87.87452166339925,42.63997340678121],[-87.87434888821076,42.6399803855415],[-87.87417081688064,42.639969169287205],[-87.8739956690102,42.639972188749],[-87.87382918330307,42.64001050882728],[-87.87367307916548,42.640046933719276],[-87.87351648307995,42.640068929347244],[-87.87338024022964,42.640130438753864],[-87.8732606638443,42.64021942742724],[-87.87313597235304,42.640326638392125],[-87.87302391419225,42.6404408372519],[-87.8729068636265,42.640548312509054],[-87.87278407548543,42.64064352588577],[-87.8726541179637,42.640737122408794],[-87.87252304691067,42.6408391854382],[-87.87238483073587,42.64094216210497],[-87.87224248804843,42.64104402839355],[-87.8720980522312,42.64114175381591],[-87.87196627647212,42.64122348698427],[-87.87190037323948,42.64131826091762],[-87.87194470088333,42.64144519446554],[-87.87204190341923,42.641509823308134],[-87.87214087304929,42.64157364266614],[-87.87221806336659,42.64164400964137],[-87.87224545981285,42.641742747445896],[-87.87224556499322,42.641859865394686],[-87.87223962194558,42.641982434924735],[-87.87219968510091,42.642085541345814],[-87.87211893267141,42.64216738805014],[-87.87194061314591,42.642181172583236],[-87.87178525922134,42.64218285873198],[-87.87160032437649,42.642183164193106],[-87.8714185553346,42.64219504413517],[-87.87127385368504,42.64219842786759],[-87.87112433699326,42.642197650079694],[-87.87097754684045,42.642192842619814],[-87.87082121998506,42.64218985841803],[-87.87065102247644,42.64220132420864],[-87.87048519417276,42.64219861761701],[-87.87031856607592,42.64219492335161],[-87.8701522313134,42.6421907906257],[-87.86996629865625,42.6421789635706],[-87.8697703677195,42.642177832933825],[-87.86956766235853,42.64216359920102],[-87.86937022481092,42.642164651462686],[-87.8691802182136,42.6421666386025],[-87.86898672590908,42.64215944164873],[-87.86880011208065,42.6421462014783],[-87.86861073982097,42.64216314150597],[-87.86841566760008,42.642156028084024],[-87.8682261397784,42.64215217199724],[-87.86803377565208,42.64214871839148],[-87.86784666673861,42.642148157791276],[-87.86766823508201,42.64214983614411],[-87.86748402645767,42.64214993898001],[-87.8672976230683,42.64215602693352],[-87.86712092754141,42.64215570811073],[-87.86696248044244,42.642150336533874],[-87.86682502218358,42.64214745784425],[-87.86667866418513,42.64216139677954],[-87.86653929409991,42.64218775054967],[-87.86641542275477,42.642256766228634],[-87.86629071140757,42.64234616252933],[-87.86616370089776,42.64243239133834],[-87.8660351170175,42.64250638919562],[-87.86590143962006,42.64258353580803],[-87.86577463355994,42.64266772798228],[-87.86564117858379,42.64272795622155],[-87.86549522888642,42.6427629262088],[-87.86533902243478,42.6427606055694],[-87.86516932452277,42.642760299284205],[-87.86498805472884,42.64276184465134],[-87.86479366536649,42.642766168405856],[-87.86460333008942,42.6427728860397],[-87.86441248678362,42.64279035631209],[-87.86422121797843,42.64281778818783],[-87.8640416954445,42.642849679958346],[-87.86387849424717,42.64289284037023],[-87.8637120998289,42.64295759832658],[-87.86356398631109,42.643038329199335],[-87.86343949557197,42.64313031432362],[-87.8633381969112,42.64321968127877],[-87.86320993669585,42.643254744150894],[-87.86305581970313,42.6432630330344],[-87.86289563935892,42.64328544316253],[-87.86272624502814,42.64329800696707],[-87.86254077549273,42.64330957599759],[-87.86234248091391,42.64332998733819],[-87.86215029293517,42.64336133760238],[-87.8619627944864,42.64340674547013],[-87.86178998493288,42.643448940818075],[-87.86161154871348,42.64349670892972],[-87.86143404262762,42.64352145492234],[-87.86125966090486,42.64353286730742],[-87.86110963885636,42.6435327058563],[-87.86098470226125,42.643501932701234],[-87.86087383862457,42.6434244417465],[-87.86084454323453,42.64331372136336],[-87.86084653530607,42.643220554906506],[-87.8608474610502,42.64310494043533],[-87.86084269854516,42.642983914476304],[-87.86083895796455,42.64288007112834],[-87.86088713580529,42.64278754258859],[-87.8610008831715,42.64271726779871],[-87.86113549744519,42.64266043569783],[-87.86129681890392,42.64262087413585],[-87.8614714151355,42.642596296765234],[-87.86163215012881,42.64257216784628],[-87.861787013125,42.642539086525964],[-87.86193335899718,42.64249298409834],[-87.86207846307026,42.64243724821156],[-87.86223262806824,42.642387577502],[-87.86238675485812,42.6423472129678],[-87.86253164646156,42.64231998690797],[-87.86264489561923,42.64226127123512],[-87.86272434338856,42.642172111234466],[-87.86280048231554,42.64206473284219],[-87.86289634223475,42.641953189116784],[-87.86296333552853,42.64185478862189],[-87.86300806319717,42.64174871251669],[-87.86304373205142,42.64163611409142],[-87.8630545411382,42.64149960093023],[-87.86305512819418,42.641390341689686],[-87.86306431567608,42.64126995626711],[-87.86307497151313,42.64113342064557],[-87.86308046778875,42.64099804513715],[-87.86308576310498,42.640847090053676],[-87.86310212714471,42.64069375551077],[-87.8631199270282,42.64056292620401],[-87.86313374890516,42.640442158010224],[-87.86314459026426,42.640327629096454],[-87.86313054140747,42.640221585301795],[-87.86304454105897,42.640111788121494],[-87.86293159284406,42.64003648953684],[-87.86279343303474,42.64000858680267],[-87.86263879033766,42.64002557040587],[-87.8624956889755,42.640028100829824],[-87.86235504774045,42.640012917195996],[-87.86221662796733,42.639976340158945],[-87.86207292352456,42.639937824074075],[-87.86193573277748,42.63993885924015],[-87.86178562072972,42.63998862247551],[-87.86164812713513,42.64005391882096],[-87.86151031278516,42.64012320894985],[-87.86137391075296,42.64020392774003],[-87.86126190736626,42.64027047941735],[-87.86117350973323,42.64037188722117],[-87.86115035564006,42.640492118726975],[-87.86119320514946,42.64061498564405],[-87.86123596810951,42.64072503817146],[-87.86123128111697,42.640839945988056],[-87.86115333735499,42.6409515966636],[-87.86103634062168,42.6410475666992],[-87.86092378883862,42.64113773646045],[-87.86081159603002,42.64122392532072],[-87.86070639246469,42.64130239624227],[-87.86058938000156,42.641348217224674],[-87.86044819391289,42.64140577088137],[-87.86031419940917,42.64147204489323],[-87.8601491073732,42.64152507279675],[-87.86001955938981,42.64158114158819],[-87.8598720346623,42.64162124121143],[-87.85975850409952,42.64166022760622],[-87.85959882603771,42.64171576182378],[-87.85945702818681,42.641729550849824],[-87.85933340955316,42.64172652773728],[-87.85920304455526,42.64165621811993],[-87.85909141856061,42.64156986726238],[-87.85898848306921,42.64147085953449],[-87.85889989824001,42.64140215965205],[-87.85879951489669,42.64132626851188],[-87.85868188763109,42.641239568329546],[-87.85860689464413,42.6411673844474],[-87.85853255892401,42.64109468970619],[-87.85843356048672,42.641036552461046],[-87.85833051076705,42.64098821223449],[-87.85821246971035,42.64101363655072],[-87.85813342537385,42.641084358977004],[-87.85803593697466,42.641148958350435],[-87.8579731856411,42.64126746712914],[-87.85796242856051,42.6413902832861],[-87.85797885457643,42.64150128285393],[-87.85798541423972,42.64161383349809],[-87.85800563653864,42.64171579052775],[-87.85809886633709,42.64182770978988],[-87.8582626605813,42.641922604021985],[-87.8583645656912,42.64200536861858],[-87.85840667509088,42.64211600128784],[-87.85844751255824,42.64222909162443],[-87.85831249511179,42.642451412580414],[-87.85840907471467,42.64254368342814],[-87.85851531413469,42.64264897831223],[-87.85862262946146,42.64275950163182],[-87.85870890166964,42.642850751940344],[-87.85880143798988,42.64295367940861],[-87.85889661125057,42.64305953986987],[-87.85899669268102,42.64317085861813],[-87.85908325229731,42.643267133914854],[-87.85917918356787,42.64337472399967],[-87.85929497248232,42.643505419465484],[-87.85942159799684,42.64364369157982],[-87.8595301357673,42.64375848733059],[-87.85966888774809,42.64388533317125],[-87.85976092498885,42.6439477512995],[-87.85990380493631,42.64401589247139],[-87.86006076389658,42.64406185210996],[-87.8602055859471,42.644092065848724],[-87.86036213607773,42.64411994845667],[-87.86056090527833,42.64415262836346],[-87.86074783598824,42.644181162880585],[-87.86089391689299,42.64420411917053],[-87.86105170889894,42.64423417972466],[-87.86120351136312,42.64426418831887],[-87.86134880247508,42.6442940536592],[-87.8615008882504,42.64432591369653],[-87.86165423415201,42.64435809701184],[-87.86272922783682,42.64391527734222],[-87.86285458543152,42.64388025427732],[-87.86302324857053,42.64383404546292],[-87.86322923861859,42.64378870698036],[-87.86342880325986,42.64373404519848],[-87.86363708336849,42.64368296188837],[-87.86385685324039,42.6436447434259],[-87.86408092403931,42.643596957036905],[-87.86429633786486,42.64355263363277],[-87.86451674812878,42.64350455277741],[-87.86471751091459,42.643453824622846],[-87.8649304141989,42.643410364995255],[-87.8651523166232,42.64335974442972],[-87.86536828432885,42.643316036171505],[-87.86558933863735,42.64326512986335],[-87.86580947933068,42.64321173496476],[-87.86602181134819,42.64317124872133],[-87.86623554598596,42.64312815324875],[-87.86645472604772,42.643086043243585],[-87.8666642356471,42.64305292090593],[-87.86686905624872,42.643032438532096],[-87.86705083641037,42.64302632681527],[-87.86720559122395,42.643014886591175],[-87.86735569039516,42.64299781821462],[-87.86748810780564,42.64298732685858],[-87.86764119136822,42.642980132324816],[-87.86782427838021,42.64296323575341],[-87.86801729786663,42.64295173207167],[-87.86823323934308,42.642941070599065],[-87.8684577329133,42.64294321992916],[-87.86866327687015,42.64294656854566],[-87.86886827635738,42.64294966895612],[-87.86907253031612,42.64295277802852],[-87.86926887232674,42.642960104715726],[-87.86947656075313,42.64296621124508],[-87.86969237293056,42.642975080755],[-87.86990144941127,42.64298470736715],[-87.87010600838525,42.642988706661036],[-87.87032359671555,42.64299366805277],[-87.87053652255221,42.64300132623488],[-87.87073794921177,42.643007775193404],[-87.87093322430984,42.64301549150459],[-87.87112160410813,42.643025119683415],[-87.87129748969004,42.643032083584075],[-87.87145840611846,42.643040076535534],[-87.87163203957103,42.64303786718235],[-87.87183481924323,42.643047078265866],[-87.87203217279298,42.64305978587322],[-87.87222340546546,42.64305968420604],[-87.87243779843806,42.643068092324626],[-87.87263271677516,42.643078873527294],[-87.87284730232132,42.643088769977396],[-87.87307622525674,42.64310310371459],[-87.87330744371594,42.643120747280584],[-87.8735099376238,42.643121294241574],[-87.87371935553014,42.643117755793426],[-87.87391718915907,42.64311772173097],[-87.87411515006909,42.64311549404637],[-87.87431051270084,42.64310323143978],[-87.87449707004943,42.643089743300536],[-87.87468670904863,42.64307724700637],[-87.87488111468014,42.64305783902787],[-87.87507398091817,42.643036242378905],[-87.87522889404724,42.64296915454839],[-87.87537457417639,42.64287939881758],[-87.87550189217646,42.642790225444834],[-87.87560895735287,42.64271629995112],[-87.87572315357967,42.64265825748043],[-87.87585302780487,42.64264847621924],[-87.87596023240019,42.64271514683269],[-87.87598052912834,42.64281899559284],[-87.87596593149931,42.64294144551716],[-87.875951699406,42.64306609132253],[-87.87620485170507,42.64314297528041],[-87.87619648622339,42.64327728474907],[-87.87618901844104,42.64340219611094],[-87.87618230292703,42.643513787695014],[-87.87617480241937,42.64363369411678],[-87.8761670347469,42.64375787155023],[-87.87615865161905,42.64389188794698],[-87.87614987885993,42.644028643617375],[-87.8761411050224,42.644161102466754],[-87.87613520240221,42.644291486250154],[-87.87589126886853,42.64442273010599],[-87.8759047513664,42.6445590769547],[-87.87591517237732,42.64470043328272],[-87.87591847218773,42.644849947262166],[-87.87592267347789,42.64499387933644],[-87.87591229873071,42.64512538730441],[-87.8759114767843,42.64524319148882],[-87.87589686624636,42.64535704587192],[-87.8758741171461,42.64547290432459],[-87.87583466780168,42.64558600661383],[-87.8757744905673,42.64569058831837],[-87.87565936636511,42.64577258925702],[-87.87556020379691,42.64585499829115],[-87.87545669239599,42.64594795622188],[-87.87534117809784,42.64600839895316],[-87.87519151043095,42.64603154301576],[-87.87503528542958,42.64602414014255],[-87.87490528538774,42.64601282771341],[-87.87474834182257,42.64598006757609],[-87.87462321309017,42.645886392159845],[-87.87459899837434,42.64575967622939],[-87.8746002584593,42.64565528969484],[-87.87460644471943,42.645544170819136],[-87.87461086950795,42.64539668047444],[-87.87464589234293,42.64526438809861],[-87.87470870186695,42.64513889008122],[-87.87481669758847,42.64504234328447],[-87.87488529457073,42.644938042012136],[-87.87490941847878,42.64484527073018],[-87.87488987716287,42.64473361871543],[-87.87485021103831,42.64462934371819],[-87.87475839916759,42.64455348414941],[-87.8746340171443,42.64456135006827],[-87.87450470152878,42.64455876397301],[-87.8743748188689,42.64464087718836],[-87.8742995581237,42.644740665582866],[-87.87422816301401,42.64485574828203],[-87.8741727826395,42.64495416973174],[-87.87408898004323,42.6450314988659],[-87.87394730730253,42.64508020915894],[-87.87380465168299,42.64503973700258],[-87.87362127403419,42.64501688680681],[-87.87345982202638,42.64501566045447],[-87.8733104262692,42.64503367714762],[-87.87314110450329,42.6450445134582],[-87.87300898930553,42.64500684206786],[-87.87293743272323,42.64491273499646],[-87.87291717208332,42.64479449336982],[-87.87290667780515,42.64466299164487],[-87.87296429634048,42.64456705268999],[-87.87299765673525,42.64447126654892],[-87.87302906293667,42.64436547736735],[-87.87304879230544,42.64424561940899],[-87.87306470341417,42.644127690222085],[-87.87308939898806,42.64401064282352],[-87.87309999171164,42.643913388606656],[-87.87308009373994,42.64382160472249],[-87.87301776863045,42.643717493289216],[-87.8729600343343,42.64361895097592],[-87.87286735446398,42.64350894435012],[-87.87275654692772,42.643435758469856],[-87.87263722388529,42.6433937100445],[-87.872486649549,42.64336190990327],[-87.87235335857045,42.64337078343949],[-87.87222386693573,42.643411396739914],[-87.87213654575272,42.64348146588113],[-87.87207214099794,42.64362675492845],[-87.87199939579946,42.64371630072192],[-87.87186265597224,42.64376252306093],[-87.87173389856397,42.64381451159949],[-87.87159411042514,42.64382946247556],[-87.8714572825197,42.64380842244104],[-87.87132639562775,42.64381406485763],[-87.87118701130294,42.64384195709298],[-87.87101524223394,42.64389876854305],[-87.87083541534113,42.643930169817736],[-87.87070757087979,42.64397334735529],[-87.8705695078236,42.644029997436064],[-87.87045853615423,42.644073767545194],[-87.87030626551267,42.64411352142154],[-87.87018292542237,42.644143453891054],[-87.8700335097434,42.64418037174004],[-87.86986416307289,42.644207712712344],[-87.86969856281542,42.64423797073943],[-87.86953736303154,42.64426936723181],[-87.8693831498838,42.644294631479966],[-87.86925172557106,42.64432138364077],[-87.86912616029964,42.64434877874288],[-87.86899955156382,42.64436063385329],[-87.86884206874277,42.64436355066272],[-87.86867914475599,42.6443688274518],[-87.86847372944212,42.64438564188605],[-87.86827283535933,42.64442050503379],[-87.86807845232987,42.644448832891726],[-87.8679048283327,42.644669487199536],[-87.86774586171262,42.64467234025579],[-87.8675493272628,42.64467874457844],[-87.86735104478178,42.64469321532166],[-87.86715449370014,42.64471802436531],[-87.86696533927729,42.644749689007256],[-87.86676038558853,42.644787363724376],[-87.86658130658189,42.64480536846816],[-87.8663553718745,42.64485010542336],[-87.86616167171401,42.64490412531946],[-87.86598018676607,42.644922481211474],[-87.86578461316668,42.6449628973128],[-87.86559385753034,42.64495953016666],[-87.86537861181925,42.6449667540901],[-87.86517026794256,42.64495743314204],[-87.86499240455561,42.644932423799936],[-87.86480479125943,42.64492751143356],[-87.86461596510073,42.64490700806876],[-87.86446053167205,42.64487195757419],[-87.86426449330494,42.644843650672826],[-87.8640725603101,42.64482874541059],[-87.86387910364256,42.64479191434711],[-87.86367786731608,42.644748977884916],[-87.86344823980018,42.64469862295447],[-87.86325054175147,42.64465503615723],[-87.86311902469872,42.64462604038647],[-87.8629133375296,42.644580692186004],[-87.86271706717476,42.64453742007123],[-87.86252301158684,42.64449457753412],[-87.86235618367333,42.64445774927297],[-87.86220539741808,42.6444082784514],[-87.86204045021123,42.64438149366556],[-87.86187284160567,42.64434679786684],[-87.86167359915423,42.644310222300575],[-87.86145880666007,42.64426516591033],[-87.86124020261457,42.644219721641946],[-87.86105188015362,42.64418249374553],[-87.86084292672219,42.64414425544188],[-87.86065778396079,42.64411726864247],[-87.86048142448159,42.64408849610617],[-87.86036187894152,42.644068612434644],[-87.86023397805931,42.644045905786804],[-87.86010499123968,42.64402045772909],[-87.85993600786931,42.64397185637101],[-87.85977846861246,42.64389457779567],[-87.85962174849695,42.64376694839785],[-87.85950292234283,42.64364241916335],[-87.85938083922416,42.643511068961054],[-87.85926866494356,42.64338445352289],[-87.85916809281692,42.6432711589399],[-87.85907971144827,42.64317285379554],[-87.85899044323901,42.64307356227011],[-87.8589219752431,42.64299740642212],[-87.8588508671895,42.642918314034645],[-87.85875310206906,42.642809571575526],[-87.8586646991687,42.642717068404465],[-87.85854830127039,42.64259726945803],[-87.85843633147539,42.64248801755779],[-87.8583549771063,42.64240797838904],[-87.85826623563409,42.64233189553828],[-87.85814179541684,42.64222581211213],[-87.85803587049567,42.64213933744523],[-87.85792319447212,42.64204932110046],[-87.85780778828826,42.64195789724148],[-87.8576955855067,42.64186939398485],[-87.85758947848969,42.641785642159384],[-87.85796468798202,42.641274575739],[-87.8580131481168,42.64117137770097],[-87.85811313915113,42.64107118495067],[-87.85822097741841,42.64100941701559],[-87.85836322873898,42.64101595609916],[-87.85847284091106,42.64106463554367],[-87.85856152402663,42.64112725961415],[-87.85864164582831,42.64120328034139],[-87.8587480395151,42.6413050379002],[-87.85888055073099,42.641413124928775],[-87.85900490753649,42.641508072373],[-87.85911126909,42.641584653584225],[-87.85924872300573,42.641658240135364],[-87.85942505444173,42.641668496857015],[-87.85959510125069,42.641644059051686],[-87.85975742652998,42.641589763229796],[-87.85995719977637,42.64154018104621],[-87.86014704591128,42.64147413559913],[-87.8603308539326,42.64141160479699],[-87.86047062304894,42.64136377394307],[-87.86060337730004,42.64134520758275],[-87.86073636862938,42.641419483611315],[-87.86074993361892,42.64153617395246],[-87.86079219744927,42.64166103218185],[-87.86083832717682,42.641800274292535],[-87.86084943967145,42.641946157019234],[-87.86084771319692,42.64208275508707],[-87.86085092885706,42.64220909119492],[-87.86085867475205,42.64234294812714],[-87.86086313198865,42.64246261364709],[-87.86087196682058,42.64260132965562],[-87.86086357447535,42.64275218562542],[-87.86085688112223,42.64288844574041],[-87.86085903354093,42.64302719158767],[-87.8608515905839,42.64316241436224],[-87.86085444674592,42.64327624926741],[-87.86086650495584,42.64338256971893],[-87.86094507364791,42.643461644553376],[-87.86107651551914,42.64351744681456],[-87.86127146849353,42.64357332524027],[-87.86146320175945,42.64362221346343],[-87.86164746738882,42.64369369960002],[-87.86181638125385,42.64374372902785],[-87.86198645172738,42.64379488636594],[-87.86215591190147,42.643847257512085],[-87.86233068228323,42.643901580319714],[-87.86249747058399,42.64393707854334],[-87.86265891086974,42.643977726692334],[-87.8628264331425,42.64402120075822],[-87.86298757666138,42.64406150887817],[-87.86314249253037,42.64409163621027],[-87.86328539092463,42.6441271259619],[-87.86341222526872,42.64416031284034],[-87.86346291773228,42.64417193816472]]}}
