{"type":"Feature","properties":{"name":"PennState-8k","legacyMeetId":"8097","distance":"8k"},"geometry":{"type":"LineString","coordinates":[[-77.87318767454853,40.79468433022891],[-77.87500108026029,40.79296494357583],[-77.87507908394124,40.79288798373517],[-77.8751322125165,40.79276836605079],[-77.87513198531965,40.79263984949223],[-77.87511774997246,40.79255699067915],[-77.87513541787487,40.79223498026695],[-77.87519075761435,40.79171104725136],[-77.87524756261094,40.79143622634708],[-77.87537319216507,40.79111524556279],[-77.87548786385615,40.79086413746291],[-77.87560282686186,40.7906000190287],[-77.87566305437213,40.79042906722384],[-77.87576779989436,40.78994903906183],[-77.87580951311757,40.78971853350648],[-77.87588830347124,40.78957334054192],[-77.8758954196572,40.78949858087083],[-77.87588965018996,40.78939442560499],[-77.87590213128435,40.78928808558771],[-77.87598000086973,40.78911478750063],[-77.87638739956002,40.7882945466325],[-77.87645470258612,40.78815842995846],[-77.87657933637213,40.78802272410904],[-77.87661812911324,40.78785835675507],[-77.87663986373391,40.78769298744587],[-77.87673336794786,40.78659989600494],[-77.87675476817739,40.78649546497628],[-77.87672605926257,40.78639586266321],[-77.87663916292595,40.7863515037108],[-77.87643991125731,40.78626126384255],[-77.87623012788124,40.78618419366797],[-77.87614641567282,40.78609761893776],[-77.87613905428852,40.78598721841233],[-77.87617745634184,40.78582082085208],[-77.87623131253073,40.78562966178306],[-77.87631760648466,40.78550113685689],[-77.87642702259912,40.78543518774842],[-77.87652999725498,40.78545872723647],[-77.87674503538534,40.7855588566629],[-77.87689088865162,40.785666771306],[-77.87704624680823,40.7857430670821],[-77.87720929994606,40.78572362402729],[-77.8773122311467,40.78566030835152],[-77.87770417688638,40.7854265216901],[-77.87796567227683,40.78527145674182],[-77.87811006959934,40.78517710263489],[-77.87824881568089,40.78514122979094],[-77.87836585823612,40.78517631403616],[-77.87858008645253,40.78528921415406],[-77.87883729639752,40.78546981194484],[-77.8790554062679,40.78561793348305],[-77.87943011077856,40.78587502695509],[-77.87979958133269,40.7861545730102],[-77.88004161662941,40.786378304846],[-77.88029017805518,40.78649751464263],[-77.88064388502298,40.7866201966183],[-77.8809156869032,40.78663801005608],[-77.88103651129789,40.78665116034824],[-77.88139219589529,40.78675996259609],[-77.88172169626775,40.78684140607307],[-77.88189785436344,40.78692293979879],[-77.88240197625844,40.78716105426913],[-77.88278444466573,40.7874003180858],[-77.8831553049063,40.78769628698812],[-77.88329766327769,40.78784165478575],[-77.88354878106132,40.7879750703294],[-77.88375145447047,40.78794492574724],[-77.88396163496324,40.78777996450547],[-77.88404219897745,40.78761217007821],[-77.88405409218427,40.78742452318586],[-77.8839949994302,40.7871984548775],[-77.88390342690114,40.7870219516413],[-77.8836572165624,40.78679466160077],[-77.8833681671792,40.78650907661591],[-77.88329769118472,40.78636691693095],[-77.8831305445977,40.78621768159879],[-77.88239207824907,40.78544938067485],[-77.88224518261762,40.78538744424763],[-77.88202420482519,40.78517134284259],[-77.88179258459769,40.78491154265281],[-77.88163454480986,40.78464749296515],[-77.88151766394549,40.78435319794182],[-77.8814468428714,40.78406316138143],[-77.88140061211192,40.78389093848029],[-77.88121861776088,40.7832795017536],[-77.88119168689428,40.78315068214509],[-77.88122968948272,40.78307473219124],[-77.88121161339615,40.78292091913703],[-77.88109966230269,40.78279263929816],[-77.88065523519278,40.78233129227009],[-77.88053701498366,40.78230574304835],[-77.88045987816537,40.78233155732102],[-77.88033090497548,40.7823922184549],[-77.88014055582356,40.78253557481964],[-77.87685405169347,40.78478278601544],[-77.87663065971151,40.78500849859333],[-77.87638947700397,40.78529157249336],[-77.87638647043833,40.78539277754276],[-77.876480786249,40.78545673315289],[-77.87655513125424,40.78548320478399],[-77.87665536605945,40.7855209474036],[-77.87700916433455,40.78572924610314],[-77.87713330472673,40.78573178655962],[-77.87724425207415,40.78569909833615],[-77.87736665032352,40.78563195079592],[-77.87784375450354,40.7853418496949],[-77.87810925642201,40.78516894996556],[-77.8782683558934,40.78515115610958],[-77.87833457525309,40.78517019826012],[-77.8784276879981,40.78521141719364],[-77.87860688685184,40.78530708461312],[-77.87898693230838,40.78557581562256],[-77.87940487607355,40.78586214541485],[-77.87977390671237,40.78614678272179],[-77.88001490701319,40.78636632397717],[-77.8801438072992,40.7864432382727],[-77.88060271799424,40.78662531700354],[-77.88086010524121,40.78663997156178],[-77.8810068230818,40.78665327754322],[-77.8813610756667,40.78675210169039],[-77.88169657059144,40.78683679250519],[-77.88188098375872,40.78691735641622],[-77.88237914673803,40.78715821385793],[-77.88276272035324,40.78739271790354],[-77.88312992254085,40.78768569424318],[-77.88335153436468,40.78787372842898],[-77.88350935206736,40.78795741343897],[-77.88360096865466,40.78798058525612],[-77.88369783182648,40.78797073500075],[-77.88378281823535,40.78793129142933],[-77.88393132535533,40.7878138824204],[-77.88399872411462,40.78771578316965],[-77.88404798529513,40.78753570856457],[-77.88402911988788,40.78731206754156],[-77.88394216446143,40.78710335922687],[-77.88383276906272,40.78699135964558],[-77.88356862585263,40.78670858301121],[-77.88342109771483,40.78657366972134],[-77.88331547905584,40.78642965025445],[-77.8832562419104,40.78636425005973],[-77.88310142409877,40.78618616287363],[-77.88243399325914,40.78549275477688],[-77.88240915233067,40.78547985063994],[-77.88219494932939,40.78535428415282],[-77.8819771794227,40.78512479900228],[-77.88175503759686,40.78486112436956],[-77.88160653016203,40.78458773053988],[-77.88149398712255,40.78427869318575],[-77.8814166863348,40.78397963135147],[-77.88125261432481,40.78338547067413],[-77.88120323445612,40.78321178467271],[-77.88122242441315,40.78312219102344],[-77.88122134324551,40.78301161190851],[-77.88116820251,40.78286626113351],[-77.88102389103729,40.7826966492326],[-77.88070698178109,40.7823687585341],[-77.88059540339613,40.78231003161294],[-77.88049593627653,40.78231612752966],[-77.88040133893051,40.78236654968032],[-77.87950007613445,40.78298430981046],[-77.8768977183855,40.7847635058102],[-77.8766250878066,40.78502311049441],[-77.87639665642796,40.7853001815701],[-77.87638742702097,40.78535062961171],[-77.87644647449319,40.7854204396638],[-77.87659531612631,40.78549701300309],[-77.87685632186658,40.7856231575493],[-77.87722665937817,40.78587055143396],[-77.87732210013436,40.78598530104902],[-77.8774787202003,40.78628434578131],[-77.87753904016625,40.78644824459156],[-77.87763963061967,40.78659998856693],[-77.87772320213384,40.78670263325664],[-77.87789562881683,40.78688196777843],[-77.87821438784296,40.78718339393298],[-77.87841028120866,40.78732598799157],[-77.87872096873821,40.78743801619935],[-77.879098893908,40.78758133035299],[-77.87953196851696,40.78767748275556],[-77.880020762332,40.78779699129933],[-77.88053441649195,40.78795245947222],[-77.88085280432155,40.78805463514799],[-77.88120478741234,40.78818119277235],[-77.88139140491309,40.78831330477618],[-77.88154636385522,40.78842648204735],[-77.88158468291324,40.78855483571063],[-77.8815479604981,40.78862406013523],[-77.8814353709327,40.78871243415533],[-77.88127809586072,40.78881521293956],[-77.88114842655,40.78884688640628],[-77.88099762570067,40.78879930459115],[-77.88081006667436,40.78869147170951],[-77.88036146311902,40.78845966104903],[-77.88004740494476,40.78834092179101],[-77.87992436557752,40.78831016763765],[-77.87972302640019,40.78825282746457],[-77.87950791278938,40.7881973406881],[-77.87926221160626,40.7881607156848],[-77.87910151619049,40.78817194114489],[-77.87897716393609,40.78823645646293],[-77.87878813713371,40.78832602892297],[-77.87866126233673,40.7883508730605],[-77.87854453831416,40.78825649707602],[-77.87832329622306,40.78807813864093],[-77.87815095981445,40.78788675407317],[-77.87798496382467,40.78768477135731],[-77.87782927996183,40.78746438932469],[-77.87767178450264,40.78730624538703],[-77.87748186942821,40.78726246159552],[-77.87730028896242,40.78737199908985],[-77.8771211517877,40.78752368427791],[-77.87697687405917,40.78779423703965],[-77.87672968741798,40.78788341075412],[-77.87630156395336,40.78808669710992],[-77.87582094573621,40.78830207727984],[-77.87552251857012,40.78849660121001],[-77.87535054095287,40.78870296076837],[-77.87508918514368,40.78896124611142],[-77.87498602470453,40.78911456299302],[-77.8749152044191,40.78924060200469],[-77.87491595543358,40.7893682393557],[-77.87503095631014,40.7895414585449],[-77.87516053471164,40.78969613856777],[-77.87518348108874,40.78981940658298],[-77.87501312760031,40.78994655422348],[-77.87475925264368,40.79019861890398],[-77.87441311708368,40.79050869083243],[-77.87415559492209,40.79077538102693],[-77.87363378613549,40.79124019673893],[-77.87334857771545,40.79151465123459],[-77.87314841851342,40.79171957209429],[-77.87297574502556,40.7918990419982],[-77.8727731566628,40.79205304171766],[-77.87267432040115,40.79215437130333],[-77.87264924738875,40.7922486514287],[-77.87276243684816,40.7922723716302],[-77.87296489803866,40.79218946338873],[-77.87313722302851,40.79201726305954],[-77.87341951200898,40.79179335633426],[-77.8738600550009,40.79138576012319],[-77.87437278546261,40.79106605737525],[-77.87464418605445,40.79087479257363],[-77.87492510698206,40.79081596205829],[-77.87511980454562,40.79077939318259],[-77.8753389683339,40.79071392286067],[-77.87550655599046,40.79061089492614],[-77.87561075623475,40.79047970939933],[-77.87580723996354,40.79034632161184],[-77.87598632141419,40.79035895484693],[-77.87608250939552,40.79045332870317],[-77.87620645379205,40.79055097013554],[-77.87632939359946,40.79068642700559],[-77.87630574116945,40.79080621226743],[-77.87608221654693,40.79101552804981],[-77.87592907751649,40.79116772624164],[-77.87571219743248,40.79142835156907],[-77.87561257624859,40.79161240084112],[-77.87551426379875,40.79180840088573],[-77.8754385645034,40.79198421093427],[-77.8754334097185,40.79208656768748],[-77.87528565277405,40.79226950955319],[-77.8751920896788,40.79236457783922],[-77.87505950346903,40.79250398901693],[-77.87475410352486,40.79274119793415],[-77.87455838993793,40.79292122433174],[-77.87435560423835,40.79314673200493],[-77.87421353275899,40.79332721241224],[-77.87406015081604,40.79361405137054],[-77.87393463624616,40.79386519793743],[-77.87383369900775,40.79400535393003],[-77.87356085396554,40.79421026739387],[-77.87321843230957,40.79452954791834],[-77.87296205917627,40.79477886166543],[-77.87272089515359,40.79496779389002],[-77.87256558443298,40.79506751758164],[-77.87245751015045,40.7950885007965],[-77.87244842409213,40.79509060966007],[-77.87226020449492,40.79502062467523],[-77.87207677017018,40.79500316887248],[-77.87190953369947,40.79504702934699],[-77.87159023423146,40.79512328370815],[-77.87123214403897,40.79519478849183],[-77.87104228458239,40.79521554846936],[-77.87079031244798,40.79517969179568],[-77.87065873931815,40.79513460667717],[-77.87052709167868,40.79503498532609],[-77.87049974488099,40.79483022961564],[-77.8707198637625,40.79471837061809],[-77.87106466732669,40.79459941633849],[-77.87164215423967,40.79421543866776],[-77.87270256117029,40.79343710042165],[-77.87342196110856,40.79287421490968]]}}
