{"type":"Feature","properties":{"name":"Portage-3k","legacyMeetId":"8160","distance":"3k"},"geometry":{"type":"LineString","coordinates":[[-85.62584170424817,42.21107779050915],[-85.62550776754392,42.21368898142329],[-85.62547776232678,42.21374398161334],[-85.62542967836012,42.21378090260232],[-85.62527106047328,42.21388787057314],[-85.62503287706792,42.21400876204692],[-85.62472111920783,42.21425037031931],[-85.62448853867586,42.214465398475],[-85.6243685302639,42.21455615165791],[-85.62428068903054,42.21463063741356],[-85.62420380052949,42.21470650933178],[-85.62406596373025,42.2148189517708],[-85.62391650784787,42.21503462463416],[-85.62387561480068,42.21513202334731],[-85.62387806286732,42.21519313289662],[-85.62389672379257,42.2152439378149],[-85.6239369427573,42.21535966788818],[-85.62401551356993,42.21539234556184],[-85.62407182834546,42.2154251160557],[-85.62418399030038,42.21543310022338],[-85.6243635156358,42.21544570961954],[-85.62448390704829,42.21541518442702],[-85.62465058529587,42.21536116775892],[-85.62475302641684,42.21530612764164],[-85.62493380349542,42.21525053858227],[-85.62507580441343,42.21522735906289],[-85.62518029768636,42.21522624199393],[-85.62527308604867,42.21522679144692],[-85.62537409433037,42.21521607526309],[-85.62545514861017,42.21519800652754],[-85.62557039654251,42.21516170087142],[-85.6256483177717,42.21513738629624],[-85.62572716030522,42.2151062845701],[-85.6257877327193,42.21509114815313],[-85.62584883885829,42.21505929319698],[-85.62599649285126,42.21501442126868],[-85.62614860508488,42.21495351944613],[-85.62626639866637,42.21490840024436],[-85.62635658179035,42.21486016781847],[-85.62639320858534,42.21481963389191],[-85.62640591076347,42.21476164617275],[-85.6263749483986,42.21472417382196],[-85.62633817796849,42.21467062987637],[-85.62631701211784,42.21460194961843],[-85.62630811254171,42.21449912202517],[-85.62629864357332,42.21438528444084],[-85.62630989084448,42.21427415025905],[-85.62632324817076,42.21413997446682],[-85.62632869289418,42.21404058462642],[-85.62634640752691,42.2139144051623],[-85.62638751151393,42.21381120579294],[-85.62644656397778,42.21377379195214],[-85.62659484809907,42.21373567272251],[-85.62679926655343,42.21372747558348],[-85.62693162382507,42.21373234019354],[-85.62700269416561,42.21374880368402],[-85.62711183929063,42.213810557426],[-85.62719194436805,42.21386816971867],[-85.6272828527671,42.21395731399115],[-85.62735686933192,42.2140594619783],[-85.62743103741042,42.21416997513317],[-85.62750325791961,42.21428369120964],[-85.62757874081447,42.21439388065465],[-85.62761068958086,42.21445393822534],[-85.62761468751535,42.21452496144613],[-85.62759267248303,42.21457208438063],[-85.62756155925692,42.21461766015579],[-85.62749177034894,42.21465933697323],[-85.62743504728711,42.2147155180017],[-85.62733695234363,42.21478443732936],[-85.62730208970798,42.21482534212439],[-85.62719234632789,42.21485382405444],[-85.6270557778597,42.21488938614779],[-85.62698288260331,42.21490617469944],[-85.62686941587165,42.21493858267215],[-85.62675291060044,42.21494820888934],[-85.62661434850322,42.21498082526234],[-85.62649041477623,42.21500810181667],[-85.62636729140118,42.21505533340138],[-85.62626817412425,42.21510274760669],[-85.62621557395924,42.21514048808106],[-85.62617608015519,42.21521759038691],[-85.62614636756939,42.21532214446976],[-85.62611259170264,42.21537598503491],[-85.62603882117538,42.21546078561666],[-85.62593055660815,42.21550812993778],[-85.6258325864683,42.2155253963118],[-85.62573123656759,42.21552518344392],[-85.62560615311494,42.21553189632225],[-85.62549770410129,42.21553630784186],[-85.6253900131786,42.21554419960372],[-85.62517503829231,42.21555995313879],[-85.6250496185799,42.21555615029661],[-85.62489863035242,42.2155418894105],[-85.62479910225802,42.21553819615383],[-85.62475565480241,42.21551624013175],[-85.62463277356213,42.21551943238911],[-85.62455988164335,42.2155296053365],[-85.62435650667867,42.2155440660181],[-85.62420211157267,42.21555172555084],[-85.62405642876426,42.2155651260036],[-85.62395874318759,42.21555112086403],[-85.62388556682278,42.21553040396542],[-85.62383252067103,42.21549003569624],[-85.62379546987471,42.21542096429648],[-85.62373071042575,42.21528774133926],[-85.62373803859457,42.21523149022524],[-85.62375233702885,42.21510806046837],[-85.6237784128835,42.21503536258679],[-85.62379667909799,42.21497388951146],[-85.62381448553056,42.21489790726239],[-85.62386242118987,42.21483375759249],[-85.62391726814921,42.21472783257384],[-85.62396032034506,42.21463610284446],[-85.62400227330745,42.21454341685445],[-85.62403856152092,42.2144373604112],[-85.62407989849636,42.21435602224186],[-85.62408347303213,42.21422066183539],[-85.62408140420247,42.21413657313425],[-85.62407263709123,42.21398093981404],[-85.624059803066,42.21384061202716],[-85.62405480663216,42.21373947726112],[-85.62405154274762,42.21367341252989],[-85.62407690818335,42.2136152526322],[-85.62413583323507,42.21356385515593],[-85.62414268896595,42.21355431851455],[-85.62422033048995,42.21350509780885],[-85.62431860794653,42.21345336011368],[-85.62436314981399,42.21341156262208],[-85.62440204332472,42.21335643748353],[-85.62441793712475,42.21331124000513],[-85.62442469603924,42.21324769683108],[-85.62443022555352,42.21316564413051],[-85.62442724854873,42.21308261069289],[-85.62440882617328,42.21300163616189],[-85.6243739211149,42.21294134271065],[-85.62430845748524,42.21290643917568],[-85.62411382744979,42.21282998896412],[-85.62400855287731,42.21278310907178],[-85.62393162673672,42.21274708356945],[-85.62385829047433,42.21270188232471],[-85.62380674762302,42.21260483907447],[-85.6237917900875,42.21253153713336],[-85.62377737237581,42.21239955997299],[-85.62377161241423,42.21209955903856],[-85.62378694606002,42.21196384464436],[-85.62379362365019,42.21115687699177],[-85.62379511896548,42.21086827496041],[-85.6237953389842,42.21072921801736],[-85.62376998738054,42.21061264920206],[-85.62374317723709,42.21046828551243],[-85.62373211117631,42.21032529427091],[-85.62372984446979,42.2100639984132],[-85.62373684103905,42.20992388898402],[-85.6237435393854,42.20973566889654],[-85.62374071239539,42.20963277308553],[-85.62374171752461,42.20953607346236],[-85.62374447149425,42.20945765333805],[-85.62382203357987,42.20941442799527],[-85.62393319583573,42.20937679281856],[-85.62413856718001,42.20937832716086],[-85.62440961144736,42.20938112579114],[-85.62472155048386,42.20937451501669],[-85.62495412995669,42.20936686392976],[-85.62512264929529,42.20937666580858],[-85.62518008477727,42.20939593004169],[-85.6252170772035,42.20943320018403],[-85.62525477079531,42.20947639073714],[-85.62527493850885,42.20951646615021],[-85.62526541368509,42.20955908041191],[-85.62525358561297,42.2096509693539],[-85.62525181784012,42.20966184197554],[-85.62525234442515,42.20974345204242],[-85.62524080257062,42.20980852390596],[-85.62525153333817,42.20998273244605],[-85.62525824746423,42.2101245442035],[-85.62524430980102,42.21020818699113],[-85.62521031555421,42.21032599115063],[-85.62520351114726,42.2105980806942],[-85.62517730503059,42.21077472092891],[-85.62514410671024,42.21103064505964],[-85.62505685002982,42.21207005089507]]}}
