{"type":"Feature","properties":{"name":"Portage-5k","legacyMeetId":"8160","distance":"5k"},"geometry":{"type":"LineString","coordinates":[[-85.62584170424817,42.21107779050915],[-85.62550776754392,42.21368898142329],[-85.62547776232678,42.21374398161334],[-85.62542967836012,42.21378090260232],[-85.62527106047328,42.21388787057314],[-85.62503287706792,42.21400876204692],[-85.62472111920783,42.21425037031931],[-85.62448853867586,42.214465398475],[-85.6243685302639,42.21455615165791],[-85.62428068903054,42.21463063741356],[-85.62420380052949,42.21470650933178],[-85.62406596373025,42.2148189517708],[-85.62391650784787,42.21503462463416],[-85.62387561480068,42.21513202334731],[-85.62387806286732,42.21519313289662],[-85.62389672379257,42.2152439378149],[-85.6239369427573,42.21535966788818],[-85.62401551356993,42.21539234556184],[-85.62407182834546,42.2154251160557],[-85.62418399030038,42.21543310022338],[-85.6243635156358,42.21544570961954],[-85.62448390704829,42.21541518442702],[-85.62465058529587,42.21536116775892],[-85.62475302641684,42.21530612764164],[-85.62493380349542,42.21525053858227],[-85.62507580441343,42.21522735906289],[-85.62518029768636,42.21522624199393],[-85.62527308604867,42.21522679144692],[-85.62537409433037,42.21521607526309],[-85.62545514861017,42.21519800652754],[-85.62557039654251,42.21516170087142],[-85.6256483177717,42.21513738629624],[-85.62572716030522,42.2151062845701],[-85.6257877327193,42.21509114815313],[-85.62584883885829,42.21505929319698],[-85.62599649285126,42.21501442126868],[-85.62614860508488,42.21495351944613],[-85.62626639866637,42.21490840024436],[-85.62635658179035,42.21486016781847],[-85.62639320858534,42.21481963389191],[-85.62640591076347,42.21476164617275],[-85.6263749483986,42.21472417382196],[-85.62633817796849,42.21467062987637],[-85.62631701211784,42.21460194961843],[-85.62630811254171,42.21449912202517],[-85.62629864357332,42.21438528444084],[-85.62630989084448,42.21427415025905],[-85.62632324817076,42.21413997446682],[-85.62632869289418,42.21404058462642],[-85.62634640752691,42.2139144051623],[-85.62638751151393,42.21381120579294],[-85.62644656397778,42.21377379195214],[-85.62659484809907,42.21373567272251],[-85.62679926655343,42.21372747558348],[-85.62693162382507,42.21373234019354],[-85.62700269416561,42.21374880368402],[-85.62711183929063,42.213810557426],[-85.62719194436805,42.21386816971867],[-85.6272828527671,42.21395731399115],[-85.62735686933192,42.2140594619783],[-85.62743103741042,42.21416997513317],[-85.62750325791961,42.21428369120964],[-85.62757874081447,42.21439388065465],[-85.62761068958086,42.21445393822534],[-85.62761468751535,42.21452496144613],[-85.62759267248303,42.21457208438063],[-85.62756155925692,42.21461766015579],[-85.62749177034894,42.21465933697323],[-85.62743504728711,42.2147155180017],[-85.62733695234363,42.21478443732936],[-85.62730208970798,42.21482534212439],[-85.62719234632789,42.21485382405444],[-85.6270557778597,42.21488938614779],[-85.62698288260331,42.21490617469944],[-85.62686941587165,42.21493858267215],[-85.62675291060044,42.21494820888934],[-85.62661434850322,42.21498082526234],[-85.62649041477623,42.21500810181667],[-85.62636729140118,42.21505533340138],[-85.62626817412425,42.21510274760669],[-85.62621557395924,42.21514048808106],[-85.62617608015519,42.21521759038691],[-85.62614636756939,42.21532214446976],[-85.62611259170264,42.21537598503491],[-85.62603882117538,42.21546078561666],[-85.62593055660815,42.21550812993778],[-85.6258325864683,42.2155253963118],[-85.62573123656759,42.21552518344392],[-85.62560615311494,42.21553189632225],[-85.62549770410129,42.21553630784186],[-85.6253900131786,42.21554419960372],[-85.62517503829231,42.21555995313879],[-85.6250496185799,42.21555615029661],[-85.62489863035242,42.2155418894105],[-85.62479910225802,42.21553819615383],[-85.62475565480241,42.21551624013175],[-85.62463277356213,42.21551943238911],[-85.62455988164335,42.2155296053365],[-85.62435650667867,42.2155440660181],[-85.62420211157267,42.21555172555084],[-85.62405642876426,42.2155651260036],[-85.62395874318759,42.21555112086403],[-85.62388556682278,42.21553040396542],[-85.62383252067103,42.21549003569624],[-85.62378116658384,42.21542038295953],[-85.62375230176323,42.21537166954],[-85.62373071042575,42.21528774133926],[-85.62373803859457,42.21523149022524],[-85.62375233702885,42.21510806046837],[-85.6237784128835,42.21503536258679],[-85.62379667909799,42.21497388951146],[-85.62381448553056,42.21489790726239],[-85.62386242118987,42.21483375759249],[-85.62391726814921,42.21472783257384],[-85.62396032034506,42.21463610284446],[-85.62400227330745,42.21454341685445],[-85.62403856152092,42.2144373604112],[-85.62407989849636,42.21435602224186],[-85.62408347303213,42.21422066183539],[-85.62408140420247,42.21413657313425],[-85.62407263709123,42.21398093981404],[-85.624059803066,42.21384061202716],[-85.62405480663216,42.21373947726112],[-85.62405154274762,42.21367341252989],[-85.62407690818335,42.2136152526322],[-85.62413583323507,42.21356385515593],[-85.62414268896595,42.21355431851455],[-85.62422033048995,42.21350509780885],[-85.62431860794653,42.21345336011368],[-85.62436314981399,42.21341156262208],[-85.62440204332472,42.21335643748353],[-85.62441793712475,42.21331124000513],[-85.62442469603924,42.21324769683108],[-85.62443022555352,42.21316564413051],[-85.62442724854873,42.21308261069289],[-85.62440882617328,42.21300163616189],[-85.6243739211149,42.21294134271065],[-85.62430845748524,42.21290643917568],[-85.62411382744979,42.21282998896412],[-85.62400855287731,42.21278310907178],[-85.62393162673672,42.21274708356945],[-85.62385829047433,42.21270188232471],[-85.62380674762302,42.21260483907447],[-85.6237917900875,42.21253153713336],[-85.62377737237581,42.21239955997299],[-85.62377161241423,42.21209955903856],[-85.62378694606002,42.21196384464436],[-85.62379362365019,42.21115687699177],[-85.62379511896548,42.21086827496041],[-85.6237953389842,42.21072921801736],[-85.62376998738054,42.21061264920206],[-85.62374317723709,42.21046828551243],[-85.6237270339858,42.21031027298683],[-85.62372984446979,42.2100639984132],[-85.62373684103905,42.20992388898402],[-85.62373964818195,42.20973287297635],[-85.62374071239539,42.20963277308553],[-85.62374171752461,42.20953607346236],[-85.62374447149425,42.20945765333805],[-85.62382203357987,42.20941442799527],[-85.62393319583573,42.20937679281856],[-85.62413856718001,42.20937832716086],[-85.62440961144736,42.20938112579114],[-85.62472155048386,42.20937451501669],[-85.62495412995669,42.20936686392976],[-85.62512264929529,42.20937666580858],[-85.62518008477727,42.20939593004169],[-85.6252170772035,42.20943320018403],[-85.62525477079531,42.20947639073714],[-85.62527493850885,42.20951646615021],[-85.62526541368509,42.20955908041191],[-85.62525358561297,42.2096509693539],[-85.62525181784012,42.20966184197554],[-85.62525234442515,42.20974345204242],[-85.62524080257062,42.20980852390596],[-85.62525153333817,42.20998273244605],[-85.62525824746423,42.2101245442035],[-85.62524430980102,42.21020818699113],[-85.62521031555421,42.21032599115063],[-85.62521506103354,42.21038018975822],[-85.62523694587831,42.21043827817119],[-85.62527542663778,42.21050838963464],[-85.62531501681424,42.21056133147508],[-85.62536852252467,42.21061613461044],[-85.62544427818324,42.21065790963453],[-85.62554868399938,42.21068525867813],[-85.62565737811536,42.21072967880777],[-85.62578610786225,42.21077821436409],[-85.62587637031766,42.21081858791444],[-85.62598641686233,42.21088729436904],[-85.62605800091968,42.21092627594866],[-85.6260971754431,42.21096111228695],[-85.62613661066533,42.21101218993776],[-85.626157935908,42.21106993873554],[-85.62615024708947,42.21116904915644],[-85.62615139761395,42.21132802432408],[-85.62614040331069,42.2114455488621],[-85.62613011581078,42.21165615653129],[-85.62612287644548,42.21182679070024],[-85.6261126981512,42.21199880337863],[-85.62611877849037,42.21211784297622],[-85.62610658693065,42.21228100493007],[-85.62610975864992,42.21242050624355],[-85.62612211568855,42.21259836267132],[-85.6261394538041,42.2127384357735],[-85.62614418654617,42.21280931453014],[-85.62610109361594,42.21296635525724],[-85.62606913206399,42.21310072355001],[-85.62601422497261,42.21319878282948],[-85.62594164745548,42.21328517889185],[-85.62585524277331,42.21336913920028],[-85.62574985803104,42.21345850092406],[-85.62563665420986,42.21355413177583],[-85.6255563240147,42.21365438790469],[-85.62548640287096,42.21370945625127],[-85.62542701724472,42.21374442272214],[-85.62532901971105,42.21381201233017],[-85.62520024827167,42.21389646530999],[-85.62512265783286,42.21394295033048],[-85.62498445304936,42.21401028550337],[-85.62490475103094,42.21407004208363],[-85.62478637321755,42.21416631722784],[-85.6246775630727,42.21425022941158],[-85.62456739762685,42.21435182282628],[-85.62442787636648,42.21447625139795],[-85.62432430301104,42.21456127894932],[-85.62422974227512,42.21463262224243],[-85.62415525852238,42.21470560060175],[-85.62406127268115,42.21477880825511],[-85.62401123170085,42.21484324252455],[-85.62392865560628,42.21496117395324],[-85.62388122064273,42.21503536207305],[-85.62385337016889,42.21510890124463],[-85.62384759089937,42.21517696868399],[-85.62385443817624,42.2152328048472],[-85.6238772908327,42.21527774392814],[-85.62391367895313,42.21537118172968],[-85.62393468929241,42.21539336213519],[-85.62399479912006,42.21542046387452],[-85.62405821395865,42.2154474989297],[-85.62412323703279,42.21545651677549],[-85.62417671696157,42.21546203814599],[-85.62428685267498,42.21546231788137],[-85.62438420788318,42.21546445668758],[-85.62446519409225,42.21544790333497],[-85.62460937662212,42.21540425699111],[-85.62473494178194,42.21535821020531],[-85.62478584979374,42.21532283128475],[-85.62482518298073,42.21530967329773],[-85.624901880423,42.21528622861563],[-85.62499753711079,42.21526272209908],[-85.62506913141345,42.21525526606096],[-85.62511883347527,42.2152483293571],[-85.62518577202248,42.2152491511672],[-85.62523086857303,42.21525050145234],[-85.62527499346035,42.21524944932239],[-85.62533079849197,42.21524933526166],[-85.62539162685478,42.21523572736867],[-85.62543513110701,42.21522709956531],[-85.62549347750638,42.21520875198653],[-85.62554640606646,42.21519119279841],[-85.62560157148329,42.21517841951521],[-85.62571856211433,42.21513513187684],[-85.62583013566434,42.21510084640166],[-85.6258959038152,42.21508102134925],[-85.62595843346894,42.21505374655712],[-85.62605255642356,42.21502216624326],[-85.62613655038412,42.21498166893155],[-85.62622003259035,42.21495442838815],[-85.62631325998053,42.21491302979558],[-85.62636719327624,42.2148850123829],[-85.62641466926965,42.21485042331343],[-85.62643481629449,42.21481237066742],[-85.62644415121703,42.21478116738928],[-85.62642358833375,42.21473481991426],[-85.62637593542058,42.21468340511736],[-85.62636017666766,42.21463566550768],[-85.62635076481638,42.21459015323728],[-85.62633681586928,42.21448855777867],[-85.62632827816418,42.21442159676568],[-85.62633869652018,42.21434852594781],[-85.62633960668389,42.21428075874503],[-85.62633963233449,42.21421220947182],[-85.62634854743571,42.21412793734586],[-85.62635797307256,42.21404136703468],[-85.6263641055831,42.21396838463252],[-85.6263807159183,42.21391044643886],[-85.62640244726528,42.213848667982],[-85.6264269465452,42.21381837056925],[-85.6264748939923,42.2137911709485],[-85.62652451910576,42.21377404499138],[-85.62657987079422,42.21376428342303],[-85.62662294574085,42.21376030653471],[-85.62668949422356,42.21375305460022],[-85.62674392007251,42.2137515773351],[-85.6268254658656,42.21374807445677],[-85.62689753503281,42.21374372371178],[-85.62695482684693,42.2137510081885],[-85.62701349619695,42.21376783068281],[-85.62701416599175,42.21376967045001],[-85.6270518167295,42.21379357422533],[-85.62707853126872,42.21381339133939],[-85.62712062503958,42.2138412104087],[-85.62714717104045,42.21385952146382],[-85.62717763821284,42.2138875975326],[-85.62720845107518,42.21391599211972],[-85.62723961555656,42.21394471070586],[-85.62726796677224,42.21397209971153],[-85.62729506838359,42.21401490620399],[-85.6273209164306,42.21404780959551],[-85.62734792087832,42.21408319451641],[-85.62739229846339,42.21415462940833],[-85.62742295551669,42.21419790229728],[-85.6274515969714,42.21424220870016],[-85.62750719720823,42.21431905697772],[-85.62755470971975,42.21439449733032],[-85.62759358221673,42.21444831651662],[-85.62759965316575,42.21448254446267],[-85.6275946824575,42.21452379962751],[-85.62757609578343,42.21455972962801],[-85.627539439923,42.21459332337574],[-85.62750582609863,42.21462150138775],[-85.62746663454683,42.21465062789968],[-85.62741739839686,42.21468398626125],[-85.62736787097461,42.21472565214512],[-85.6272876138806,42.21479155543545],[-85.62726001078589,42.2148170912674],[-85.62721267930914,42.21482853717065],[-85.62713003232565,42.21484734626905],[-85.62702262215078,42.21487449764623],[-85.62701749540567,42.21487521330379],[-85.62694719801667,42.2148923434972],[-85.62687837289455,42.2149043937785],[-85.62680222665924,42.21491991455889],[-85.6267174385453,42.21493175036263],[-85.62662164119499,42.21495738449099],[-85.62654318835091,42.21497817940722],[-85.62643320695521,42.21500093473627],[-85.62635584435027,42.2150365349534],[-85.62628519941674,42.21506637702298],[-85.62622214971687,42.21509780668625],[-85.62617595036197,42.21514743768244],[-85.6261533054282,42.21519955336466],[-85.62613372320787,42.21526254882337],[-85.62611611012642,42.21532101130014],[-85.62608851057936,42.21535729673028],[-85.62604781014903,42.21540947156288],[-85.62602185880819,42.21544138011345],[-85.62598916073847,42.21546151168794],[-85.62593645845588,42.21547864127659],[-85.62591073468158,42.21549007496644],[-85.62586195944752,42.21549491998835],[-85.62581177730422,42.21550388707291],[-85.62574530584043,42.21550336420739],[-85.62567026979335,42.21550602123777],[-85.62558697736877,42.21551374680299],[-85.62553654002615,42.21552078658822],[-85.62545507850778,42.215524372689],[-85.62536496916542,42.21553112580124],[-85.62527504572088,42.21553786494481],[-85.6251917283158,42.21553983409692],[-85.62511325024967,42.21554116088645],[-85.62505743816192,42.21553552877011],[-85.62498163823466,42.21553465483725],[-85.6249036596465,42.21553033989541],[-85.62483052553,42.21552354758975],[-85.62480091541343,42.21552015814792],[-85.62479858779967,42.21551860566915],[-85.62476636280098,42.2155025361252],[-85.62472575414681,42.21549890554966],[-85.62464961635204,42.21550582150244],[-85.62458028224079,42.21550994191335],[-85.62449097455027,42.21551870837222],[-85.62440635967708,42.21552313660424],[-85.62434400840603,42.21552999658464],[-85.62426863538408,42.2155331596091],[-85.62422902959646,42.21553135037802],[-85.6241584616347,42.21553617499702],[-85.6241095354562,42.21554678212292],[-85.62406333151338,42.21554756386583],[-85.62402557165957,42.21554341509224],[-85.62398537325676,42.21553776500432],[-85.6239256109085,42.21552372169623],[-85.62388862513744,42.21550668004483],[-85.62385610640312,42.215487365688],[-85.62381923754864,42.21543645970142],[-85.62379937249374,42.21540721057236],[-85.62377830501991,42.21536804059517],[-85.62375779533548,42.21533116163588],[-85.62374994583863,42.21528972628913],[-85.62375537257869,42.21525043958136],[-85.62376543353326,42.21519962128848],[-85.62376816748709,42.21514435711838],[-85.6237751766991,42.21509121460367],[-85.62379154806523,42.21504703562844],[-85.62380586099212,42.21500534631158],[-85.62382161798865,42.21494921519408],[-85.62383452895509,42.21489477432053],[-85.62389310701322,42.21481498010735],[-85.6239295476394,42.21474473401972],[-85.62396493802979,42.21467317425843],[-85.62399881739371,42.21459797369518],[-85.62402978601305,42.21451224185062],[-85.62406195054899,42.21443763932415],[-85.62409698389736,42.21436628558367],[-85.62410515686119,42.21430216946069],[-85.62410496312685,42.21418613192761],[-85.62409825225694,42.21409858509911],[-85.62409142829735,42.2139983116401],[-85.62408786481963,42.21391490431685],[-85.62407885271315,42.21376521059521],[-85.62407778232689,42.21367219492091],[-85.6240937604552,42.21363931899074],[-85.62412773689904,42.21360109880529],[-85.62415740893793,42.21357879845133],[-85.6242208411447,42.2135368384136],[-85.62428454173156,42.21349805614003],[-85.62435895893388,42.21345797203328],[-85.62440843484676,42.21341274578751],[-85.62442933996307,42.21334859927949],[-85.6244520888714,42.21327930305372],[-85.62446045862706,42.21318773393092],[-85.62446376779111,42.21310690624189],[-85.6244422296145,42.21303098818402],[-85.62441962939943,42.21295132641345],[-85.62436971131133,42.21290308013165],[-85.62427674890692,42.21286670438403],[-85.62416290788222,42.21281964242807],[-85.62398774171479,42.21274426810588],[-85.62389367235619,42.21268830910041],[-85.6238588691053,42.2126285765561],[-85.62383059982861,42.212561718704],[-85.62381097455622,42.2124532300286],[-85.62380759612863,42.21234493261354],[-85.62380130876281,42.21209687339881],[-85.62381733193554,42.21196866487674],[-85.62382081021852,42.21115726116106],[-85.62382119560156,42.21086479541897],[-85.62381895670671,42.21072371512195],[-85.62379146441667,42.21060566822744],[-85.62377188249381,42.21046563104719],[-85.62375550778846,42.21031496778282],[-85.62375314740244,42.21006775190168],[-85.62375894138904,42.20993755586083],[-85.62375799832097,42.20976333144273],[-85.6237602395385,42.20965228915166],[-85.62376081410486,42.20949094331585],[-85.62379524545359,42.20945695270175],[-85.62385548239965,42.20942918759481],[-85.62391063151247,42.20941184104281],[-85.62396762619014,42.20940067434962],[-85.62402171723564,42.20939312510377],[-85.62411572741195,42.20939608726927],[-85.62423826735282,42.20939835607724],[-85.62438574916605,42.2094004720608],[-85.62468959885537,42.20939068017304],[-85.62492635161077,42.20938388992493],[-85.62508850828716,42.20938434724752],[-85.62514420539613,42.20940642338891],[-85.62517910606768,42.2094282408689],[-85.62519981021981,42.20945555225731],[-85.62521523697103,42.20948040270947],[-85.6252354650672,42.20952519779573],[-85.62524095256596,42.20956561876324],[-85.62522784931522,42.20961245860086],[-85.62522084992628,42.20968349174208],[-85.62521185540037,42.20978091094199],[-85.62522328676924,42.20995865757153],[-85.62522666671762,42.21010172880225],[-85.62522085357344,42.2101836055825],[-85.62503819124615,42.21208537566205]]}}
