{"type":"Feature","properties":{"name":"RimRock-8k","legacyMeetId":"8256","distance":"8k"},"geometry":{"type":"LineString","coordinates":[[-95.26348987533768,39.08010925428003],[-95.26190798891272,39.07722246239609],[-95.26183633251728,39.07708523674629],[-95.26165420455747,39.07697996176898],[-95.26146715315815,39.07688212343516],[-95.26131220382396,39.07683559280622],[-95.261191061345,39.07680535731698],[-95.26104875026049,39.07679782933899],[-95.26055036273897,39.07679858696387],[-95.26038858927,39.07679372097855],[-95.25859224416267,39.07681071441599],[-95.25846342091505,39.07682782185867],[-95.25836090866014,39.07685977962643],[-95.25823110156126,39.07692191326969],[-95.25816094493669,39.07697942468984],[-95.25805957891895,39.07710124287134],[-95.2580142677106,39.07720364763526],[-95.25798760207185,39.07742236100896],[-95.25799720688568,39.07764614464762],[-95.25803959407546,39.07783502441355],[-95.25808078622063,39.07795580310102],[-95.25812824403748,39.07805399996729],[-95.25813081384827,39.07815420234081],[-95.25807552254147,39.07825647208496],[-95.25805098372682,39.07835747478846],[-95.25799562146406,39.07882723505072],[-95.2579637257033,39.07932642677795],[-95.25796362367386,39.07943780326755],[-95.25798818109352,39.07951330754945],[-95.25803093101632,39.07956421311276],[-95.25806685240869,39.07960698711023],[-95.25815568042893,39.07970223811388],[-95.25827538498575,39.07975487126956],[-95.25834509031614,39.0798213449544],[-95.25843430352424,39.07985263070307],[-95.25858743909049,39.07987958388814],[-95.25875036081399,39.07987621753441],[-95.25890174195322,39.07987622133412],[-95.25908544373608,39.07988239271866],[-95.25928903515101,39.07986803000139],[-95.2594376954923,39.07982940881949],[-95.25957721919035,39.07977127934753],[-95.25983412538247,39.07961865930765],[-95.26006014404867,39.07944110694137],[-95.26031095492502,39.07922784023236],[-95.26039809140717,39.07911858571015],[-95.26047412569577,39.07892130776038],[-95.26058850310264,39.07870511507871],[-95.26067208996085,39.07855040078167],[-95.26081033808143,39.07842611959362],[-95.26095171691543,39.07834907955232],[-95.26106872566614,39.078313354465],[-95.2611638095409,39.07830956434855],[-95.26127098718277,39.07833063271853],[-95.26134341528883,39.07834392344401],[-95.26144284423472,39.07838013460017],[-95.26154716057366,39.07843692824616],[-95.26163073647257,39.07851035895391],[-95.26166595688123,39.07859393354786],[-95.26166327755848,39.07882047206069],[-95.26161476301426,39.07906231760261],[-95.2615405187751,39.07929892650768],[-95.26149848533596,39.07947605717918],[-95.26157126694062,39.07960936363061],[-95.26168013976944,39.07969821305439],[-95.26189043989423,39.07974929479231],[-95.26215510032097,39.07968066132771],[-95.26227785571663,39.07967620033994],[-95.26239179571421,39.0796285971769],[-95.2626859170757,39.07966752526345],[-95.26310408612585,39.07976822072528],[-95.26345022937795,39.07984379828856],[-95.26401620077142,39.07999146135331],[-95.26410375494542,39.08006704557931],[-95.26418285156278,39.08018814962566],[-95.26418408291242,39.08019337750834],[-95.26423297535378,39.08031265747987],[-95.2642285933429,39.08032341567492],[-95.26415663317273,39.08051313605412],[-95.26414266878326,39.08053001241292],[-95.26395229383469,39.08088409581443],[-95.26330052266225,39.08184668152532],[-95.26306836271596,39.08196037481535],[-95.2628719444008,39.08211179080863],[-95.26255719793342,39.08234505352249],[-95.26254510528078,39.08236123376309],[-95.26252476654774,39.08238559357386],[-95.26239784950295,39.08258441446182],[-95.26216081527186,39.08290980118539],[-95.26203006220597,39.08311884874703],[-95.26202551322119,39.08311884871718],[-95.26187058342938,39.08319676502072],[-95.26174138751793,39.08318865633375],[-95.26161988331096,39.08311181218364],[-95.26153045302306,39.08300884394321],[-95.26150293459978,39.08284322286381],[-95.26144072237989,39.08234295431171],[-95.26143345907461,39.08189464386996],[-95.26140803010911,39.08133309008004],[-95.26141711234389,39.08077583198782],[-95.26144306086769,39.08065251441013],[-95.26155293717628,39.08052508684838],[-95.26196958707528,39.08040786192057],[-95.26236714498864,39.08036864745664],[-95.26258840859605,39.0804395472733],[-95.26266634435943,39.08061853605473],[-95.2626638590014,39.08077086976863],[-95.26267117772008,39.08084625511251],[-95.26266906600348,39.08096311623913],[-95.26262949390396,39.08107949105916],[-95.26241678367953,39.08123289668291],[-95.2620445602918,39.08145609638257],[-95.26176791251275,39.08185830170783],[-95.26169997221716,39.0820550998374],[-95.26169584083327,39.08207101944492],[-95.26160651673767,39.08240591024125],[-95.26161103383393,39.08257397456921],[-95.26174008731155,39.08273266934073],[-95.2618767509779,39.0828226974368],[-95.26208093206597,39.08281907143631],[-95.2621582035177,39.08274340378219],[-95.26248518002653,39.0822890708322],[-95.26286700481148,39.08180247232464],[-95.26290160596369,39.0816342051633],[-95.2628341403138,39.08121652317405],[-95.2627263383205,39.08057553249709],[-95.2625796293025,39.07969520399031],[-95.2624784835186,39.0796429228842],[-95.26231733159842,39.07964943075816],[-95.26197045060762,39.07971492900879],[-95.26177170613005,39.07971163429597],[-95.26160668486588,39.0796526820444],[-95.26152428292869,39.07954297119905],[-95.2615111142802,39.07936680979193],[-95.2615707142501,39.07920508283989],[-95.26163446065301,39.0789238349294],[-95.26166397880915,39.07868661770943],[-95.2616572275469,39.07855121838167],[-95.2615925543485,39.07846979523923],[-95.26148905219698,39.07840777395656],[-95.26139645527391,39.07835634391473],[-95.26130518903874,39.07833591701041],[-95.26122067362436,39.07831566288947],[-95.26112616284904,39.07830780984442],[-95.2609873782402,39.07833336564482],[-95.26085983309517,39.07839228256784],[-95.26070364282947,39.07850430323467],[-95.26062943475866,39.07863231586303],[-95.26052007224463,39.07883045281197],[-95.26042906374978,39.07903339929745],[-95.26034220117722,39.07919305150254],[-95.26013556163949,39.07937608799297],[-95.25991511239732,39.07955574521129],[-95.25964141396408,39.07972808768334],[-95.25950692515735,39.07980117553951],[-95.25937485471628,39.07984480500422],[-95.25918959197028,39.07987520127104],[-95.25897627506164,39.07987180934903],[-95.2588350495514,39.07987857881637],[-95.25864234036831,39.07986841555515],[-95.25850524366435,39.07987179518991],[-95.25830406816274,39.07978444557212],[-95.25822518217588,39.07973464821561],[-95.25809952746881,39.07964934555581],[-95.25796428664808,39.07946986339176],[-95.25799974992559,39.07886979227001],[-95.25804353803295,39.07841582592339],[-95.25805390025569,39.07830256143512],[-95.25811232175914,39.07820562545147],[-95.25813535298336,39.07808227309427],[-95.25810975577537,39.07800259447932],[-95.25805239198482,39.07788002095793],[-95.25802371649377,39.07776329074155],[-95.25798656569694,39.07754627838281],[-95.25801197617538,39.07726436531512],[-95.25803914217092,39.07714782796658],[-95.25811757655069,39.07703663975557],[-95.25819950196843,39.07695330849499],[-95.25828933158098,39.07689376954526],[-95.2584287409896,39.07684326565317],[-95.25852895589044,39.07681819493784],[-95.26034645325322,39.07679328967162],[-95.26099789641353,39.07679330177675],[-95.26112423626887,39.07680715313732],[-95.2612691554482,39.07682104128859],[-95.2614143410503,39.07686853166386],[-95.26159509564164,39.0769533914976],[-95.26175011768326,39.07703901585499],[-95.2635345051593,39.07943774554905],[-95.26396304577659,39.07992048236872],[-95.26413871729763,39.08014767779944],[-95.26422144537595,39.08026535675016],[-95.26420723765297,39.08041863535299],[-95.26408565747874,39.08064538255859],[-95.26358764214392,39.08146620005399],[-95.26326695167597,39.0818753781239],[-95.26296786887414,39.08203944761479],[-95.262697915686,39.08223154215007],[-95.26247445957677,39.08248638875791],[-95.26228742918715,39.08275120114252],[-95.26207481157964,39.08306034369797],[-95.26193856262223,39.08316611484786],[-95.26180632415493,39.08319658568922],[-95.26166040320935,39.08315311205745],[-95.26158670057798,39.08308116444544],[-95.26147246580084,39.08297284851866],[-95.26139361171357,39.08285782561341],[-95.26122298897512,39.08242854176178],[-95.26109907127565,39.08214082955797],[-95.26098777656325,39.08083282550306],[-95.26096283082042,39.08062126382383],[-95.2608826126424,39.08052090720337],[-95.26066760926633,39.08047378443222],[-95.26032452688769,39.08046114973452],[-95.26014495223897,39.08048711621265],[-95.26000119309028,39.08058239889595],[-95.25979640597079,39.08070596324939],[-95.25970950379953,39.08108665992548],[-95.25978354043755,39.0812762733422],[-95.25978851966148,39.08129474977265],[-95.25990168813054,39.08161204313186],[-95.25990039000847,39.08203965393015],[-95.25976760602016,39.08223946258453],[-95.25955508294165,39.08264659801902],[-95.25933823550857,39.08293343825624],[-95.25912088086054,39.08299687436833],[-95.25895859386841,39.08294953813828],[-95.25886708515057,39.0827112831847],[-95.258758654629,39.0825258425638],[-95.25865893045399,39.08225238418028],[-95.25849840004932,39.08223455855852],[-95.25817468377903,39.08220045102617],[-95.25819719517021,39.08268933491696],[-95.25783376827678,39.08268445161006],[-95.25762434948179,39.08243949828867],[-95.25748931173682,39.0818537572993],[-95.25750400072496,39.08138529692361],[-95.25770356017166,39.08110116356337],[-95.25789385904336,39.08079822571066],[-95.2580381498349,39.0804644367205],[-95.25829925662279,39.08003427706676],[-95.25850917055818,39.07998716277077],[-95.25852863166251,39.07999422564243],[-95.25915838575551,39.08001262805613],[-95.25942990856093,39.08009021770157],[-95.25976644476957,39.08014689679349],[-95.2601261491321,39.08008549038845],[-95.26043581005867,39.0798717083964],[-95.26063446385805,39.07971837780102],[-95.26079681843987,39.07954299918928],[-95.2612868979725,39.07941451427809],[-95.26147760911306,39.07928834630245],[-95.26157551463702,39.07914969025153],[-95.26162764074633,39.07897412087219],[-95.26165210682879,39.07886155648465],[-95.26166144845256,39.07874311976747],[-95.26166041076277,39.07862878764222],[-95.26164684513869,39.07852827021552],[-95.26160936583862,39.07849169816221],[-95.26156360259304,39.07845168360427],[-95.26151994446867,39.07842356597879],[-95.26147004571195,39.07839636843772],[-95.2613718518433,39.0783516752883],[-95.26124462628646,39.07832439893934],[-95.26103326530941,39.07832910581619],[-95.26091253320352,39.0783670375081],[-95.26075687929013,39.07845250041787],[-95.26060651269144,39.07866941539846],[-95.26049703382185,39.07889148974311],[-95.26040287555136,39.07908248601162],[-95.26026275161335,39.07927487081778],[-95.26008303454125,39.0794106635528],[-95.25999397978934,39.07950355515308],[-95.25970526768904,39.07969854573735],[-95.25930753501389,39.07986481913965],[-95.25912278890668,39.07988097114936],[-95.25902361675385,39.07973891825533],[-95.25897852716399,39.07955603190994],[-95.25898200234798,39.07944678237222],[-95.25900148575413,39.07934140991934],[-95.25900650512236,39.07927650049336],[-95.25936637703843,39.07880562469956],[-95.26009201846699,39.07791180407738],[-95.26050558057172,39.07752085938355],[-95.26081492094785,39.07736368064381],[-95.26111750322663,39.07728201577976],[-95.26144235447211,39.07732424220965],[-95.26144314389775,39.07732652044725],[-95.26171848581406,39.07747286377876],[-95.26196961658718,39.07796664492224],[-95.26196630180063,39.07910053247385]]}}
