{"type":"Feature","properties":{"name":"RimRock-6k","legacyMeetId":"8256","distance":"6k"},"geometry":{"type":"LineString","coordinates":[[-95.26348987533768,39.08010925428003],[-95.26190798891272,39.07722246239609],[-95.26183633251728,39.07708523674629],[-95.26165420455747,39.07697996176898],[-95.26146715315815,39.07688212343516],[-95.26131220382396,39.07683559280622],[-95.261191061345,39.07680535731698],[-95.26104875026049,39.07679782933899],[-95.26055036273897,39.07679858696387],[-95.26038858927,39.07679372097855],[-95.25859224416267,39.07681071441599],[-95.25846342091505,39.07682782185867],[-95.25836090866014,39.07685977962643],[-95.25823110156126,39.07692191326969],[-95.25816094493669,39.07697942468984],[-95.25805957891895,39.07710124287134],[-95.2580142677106,39.07720364763526],[-95.25798760207185,39.07742236100896],[-95.25799720688568,39.07764614464762],[-95.25803959407546,39.07783502441355],[-95.25808078622063,39.07795580310102],[-95.25812824403748,39.07805399996729],[-95.25813081384827,39.07815420234081],[-95.25807552254147,39.07825647208496],[-95.25805098372682,39.07835747478846],[-95.25799562146406,39.07882723505072],[-95.2579637257033,39.07932642677795],[-95.25796362367386,39.07943780326755],[-95.25798818109352,39.07951330754945],[-95.25803093101632,39.07956421311276],[-95.25806685240869,39.07960698711023],[-95.25815568042893,39.07970223811388],[-95.25827538498575,39.07975487126956],[-95.25834509031614,39.0798213449544],[-95.25843430352424,39.07985263070307],[-95.25858743909049,39.07987958388814],[-95.25875036081399,39.07987621753441],[-95.25890174195322,39.07987622133412],[-95.25908544373608,39.07988239271866],[-95.25928903515101,39.07986803000139],[-95.2594376954923,39.07982940881949],[-95.25957721919035,39.07977127934753],[-95.25983412538247,39.07961865930765],[-95.26006014404867,39.07944110694137],[-95.26031095492502,39.07922784023236],[-95.26039809140717,39.07911858571015],[-95.26047412569577,39.07892130776038],[-95.26058850310264,39.07870511507871],[-95.26067208996085,39.07855040078167],[-95.26081033808143,39.07842611959362],[-95.26095171691543,39.07834907955232],[-95.26106872566614,39.078313354465],[-95.2611638095409,39.07830956434855],[-95.26124683072453,39.0783209573471],[-95.26134341528883,39.07834392344401],[-95.26144284423472,39.07838013460017],[-95.26154716057366,39.07843692824616],[-95.26163073647257,39.07851035895391],[-95.26166181248935,39.07861500243817],[-95.26166327755848,39.07882047206069],[-95.26161476301426,39.07906231760261],[-95.2615405187751,39.07929892650768],[-95.26149848533596,39.07947605717918],[-95.26157126694062,39.07960936363061],[-95.26168013976944,39.07969821305439],[-95.26189043989423,39.07974929479231],[-95.26215510032097,39.07968066132771],[-95.26227785571663,39.07967620033994],[-95.26239179571421,39.0796285971769],[-95.2626859170757,39.07966752526345],[-95.26310408612585,39.07976822072528],[-95.26345022937795,39.07984379828856],[-95.26401620077142,39.07999146135331],[-95.26410375494542,39.08006704557931],[-95.26418285156278,39.08018814962566],[-95.26418408291242,39.08019337750834],[-95.26423297535378,39.08031265747987],[-95.2642285933429,39.08032341567492],[-95.26415663317273,39.08051313605412],[-95.26414266878326,39.08053001241292],[-95.26395229383469,39.08088409581443],[-95.26330052266225,39.08184668152532],[-95.26306836271596,39.08196037481535],[-95.2628719444008,39.08211179080863],[-95.26255719793342,39.08234505352249],[-95.26254510528078,39.08236123376309],[-95.26252476654774,39.08238559357386],[-95.26239784950295,39.08258441446182],[-95.26216081527186,39.08290980118539],[-95.26203006220597,39.08311884874703],[-95.26202551322119,39.08311884871718],[-95.26187058342938,39.08319676502072],[-95.26174138751793,39.08318865633375],[-95.26161988331096,39.08311181218364],[-95.26153045302306,39.08300884394321],[-95.26150293459978,39.08284322286381],[-95.26144072237989,39.08234295431171],[-95.26143345907461,39.08189464386996],[-95.26140803010911,39.08133309008004],[-95.26141711234389,39.08077583198782],[-95.26144306086769,39.08065251441013],[-95.26155293717628,39.08052508684838],[-95.26196958707528,39.08040786192057],[-95.26236714498864,39.08036864745664],[-95.26258840859605,39.0804395472733],[-95.26266634435943,39.08061853605473],[-95.2626638590014,39.08077086976863],[-95.26267117772008,39.08084625511251],[-95.26266906600348,39.08096311623913],[-95.26262949390396,39.08107949105916],[-95.26241678367953,39.08123289668291],[-95.2620445602918,39.08145609638257],[-95.26176791251275,39.08185830170783],[-95.26169997221716,39.0820550998374],[-95.26169584083327,39.08207101944492],[-95.26160651673767,39.08240591024125],[-95.26161103383393,39.08257397456921],[-95.26174008731155,39.08273266934073],[-95.2618767509779,39.0828226974368],[-95.26208093206597,39.08281907143631],[-95.2621582035177,39.08274340378219],[-95.26248532986429,39.08228877928112],[-95.26287078072619,39.08180333633671],[-95.26290127358898,39.08164461207947],[-95.26286023774082,39.08133216851432],[-95.26276081163874,39.08083613458921],[-95.26270118270861,39.0803259859224],[-95.26258374991227,39.07967888316897],[-95.26245859768345,39.07964023725791],[-95.26233222282116,39.07964574020045],[-95.26197820002368,39.07971223325176],[-95.2618953948776,39.07972898867161],[-95.26168044494992,39.07967887825492],[-95.26147365684434,39.07959641144429],[-95.2613317136504,39.07954754993394],[-95.26092285056181,39.0794857755724],[-95.26055466285555,39.0794194589505],[-95.2602008449951,39.07940366445428],[-95.25989455612506,39.079414177815],[-95.25951572587438,39.07942998929592],[-95.2592713108485,39.07942470390629],[-95.25918288807429,39.07940364004305],[-95.25911110894118,39.07935396257687],[-95.2590193643019,39.07927627786341],[-95.25919734814673,39.07901808368102],[-95.25954993573264,39.07860756328258],[-95.26011789880246,39.07788296565268],[-95.26054181707214,39.07748596791723],[-95.26099027030043,39.0772967408003],[-95.2612234139269,39.07726988087831],[-95.26147627370976,39.07733187808087],[-95.26196375371566,39.07763076989086],[-95.26301173070321,39.07880808415366],[-95.26405721257323,39.08003073771572],[-95.26422177313563,39.08024954471038],[-95.2642098257385,39.08043907767083],[-95.26405323346425,39.08071463344579],[-95.26365162623073,39.08134087618168],[-95.26332462352165,39.08184214146987],[-95.2629522149096,39.08203571383563],[-95.26262627865734,39.08228038727116],[-95.26227434205323,39.08274744484098],[-95.26209773921127,39.08303169547808],[-95.26196825714106,39.08315655572972],[-95.26178687711229,39.08316624891142],[-95.26143707838285,39.08295594609234],[-95.26110694960157,39.08215808819124],[-95.2609757072955,39.08064175678941],[-95.26093423214013,39.08056359440495],[-95.2606606446872,39.08047948313131],[-95.26053094484342,39.08045171009756],[-95.25995703881938,39.08044823828147],[-95.25965761485172,39.08046903647265],[-95.25855296126035,39.08082061684129],[-95.25825398050195,39.08083748106455],[-95.25800977100056,39.08074106662933],[-95.25802779505025,39.08048418870649],[-95.258476667583,39.07970879131958],[-95.25928376961787,39.07893810982772],[-95.26005985364299,39.07795702887454],[-95.26036314745579,39.07763793185944],[-95.2606877794999,39.0774178490106],[-95.26105076651541,39.07729139186719],[-95.26136896061267,39.07730255003917],[-95.26169679286046,39.07745692531053],[-95.26195629251337,39.07794175128095],[-95.26202692896348,39.07854650695813],[-95.26196465788175,39.07910045517916]]}}
