{"type":"Feature","properties":{"name":"SouthCarolina-6k","legacyMeetId":"5858","distance":"6k"},"geometry":{"type":"LineString","coordinates":[[-81.09497128742464,33.90398527127613],[-81.09497187998515,33.90398041982516],[-81.09567286985843,33.90222377593864],[-81.0957752335389,33.90215383498161],[-81.09604826524114,33.90215743184342],[-81.09634994838532,33.90218902941046],[-81.09677277498126,33.90229032603139],[-81.09766670527287,33.90248623505626],[-81.09825062923682,33.9026630988657],[-81.09863395922915,33.90286747908993],[-81.09876783030491,33.90287809047764],[-81.09899330507376,33.90285679724675],[-81.09917922963879,33.90272900951761],[-81.0993186477852,33.90252315075478],[-81.09935566740597,33.90238706194029],[-81.0993163948899,33.90227451993833],[-81.09921640827454,33.90216125758256],[-81.09902692511127,33.90199309764662],[-81.09888502114656,33.90184185692292],[-81.09887418295796,33.90182698033656],[-81.09879899717042,33.90171538902925],[-81.09879889847367,33.90170810372533],[-81.09875257085673,33.90156781891844],[-81.09875351870974,33.90130471962333],[-81.09878519642092,33.90115177784158],[-81.09884254665562,33.90104098485405],[-81.09924420712798,33.90064930519005],[-81.0997082255014,33.90015828515412],[-81.10015296888164,33.89978507913641],[-81.1006337698009,33.89945852288641],[-81.10089915670255,33.89929092491462],[-81.10114696462523,33.8991535683276],[-81.10122533476459,33.89913876805059],[-81.1013176895193,33.89916848725134],[-81.10146197037021,33.89924110485666],[-81.10163789544988,33.89939932587964],[-81.10180464945707,33.89958935131742],[-81.10199513945263,33.89985491369381],[-81.10214322762305,33.90003607250258],[-81.10221168846543,33.90014409720073],[-81.10224648209545,33.90026331309772],[-81.10227508302417,33.90044331550133],[-81.1022154307123,33.9007797216438],[-81.10196183942413,33.90149916122024],[-81.10189495134156,33.90179233089695],[-81.10179478901725,33.90198096610713],[-81.10162136406423,33.90213240989103],[-81.101433653106,33.90213794287955],[-81.10127392470122,33.90205791843275],[-81.1010152842868,33.90188468077214],[-81.10067127292652,33.90173695715228],[-81.10050249348448,33.90168896103325],[-81.1004862872572,33.90168844192602],[-81.10029693184846,33.90175262388356],[-81.100099245453,33.90180131775105],[-81.09969480910794,33.90182464121136],[-81.09942540861903,33.90186000729442],[-81.09926360358985,33.9018921894239],[-81.09897125951842,33.9018546509764],[-81.09882316419527,33.90175514543161],[-81.09878207618866,33.90165333524016],[-81.0987453637815,33.90142464984745],[-81.09875299563082,33.90122157061181],[-81.09879849289248,33.90111039573075],[-81.09897200442494,33.90092163366951],[-81.09932124400953,33.90055048240316],[-81.09984434006186,33.90004432027111],[-81.10008676168002,33.89983257716036],[-81.10038116393174,33.89963266519652],[-81.10072695501252,33.89939149483322],[-81.10096442205514,33.89924910275147],[-81.10106546783118,33.89918361638399],[-81.10117613435413,33.89914685155792],[-81.10127091152025,33.89915782422064],[-81.10137514811638,33.89919900789927],[-81.1015439025728,33.89930450922351],[-81.10171679648984,33.89948483920893],[-81.10190958963514,33.89975000954422],[-81.10206279462342,33.8999407498753],[-81.10218174898522,33.90009583237634],[-81.1022143403448,33.90019439060052],[-81.10225513572426,33.90035425621308],[-81.10226495084315,33.90053274619997],[-81.10218747044222,33.9008390659509],[-81.10201569629027,33.90135016454465],[-81.10193789124017,33.90165313117262],[-81.10185876299977,33.90187690396723],[-81.10175119716787,33.90204338867863],[-81.10171431654996,33.90215340146094],[-81.1018103552597,33.90223974871579],[-81.10194972981024,33.9023520091366],[-81.10220755593954,33.90257441998055],[-81.10231733944921,33.90262532789792],[-81.10246665225212,33.90267721607718],[-81.10264971237913,33.90274857508813],[-81.10278238404189,33.90274465810703],[-81.10332849156696,33.90263829949317],[-81.10426852598656,33.90249788837125],[-81.10502651352921,33.90242429415694],[-81.10582961151964,33.90238033662317],[-81.10601934626871,33.90234759648579],[-81.1064094271282,33.90232921870111],[-81.10676384847228,33.90235024315317],[-81.10704004787134,33.90242409614763],[-81.10732678411074,33.90239622455572],[-81.10742764744379,33.902369741431],[-81.10747126682402,33.90222807383942],[-81.10744460301302,33.90207671151025],[-81.10729680811808,33.90194164601967],[-81.10688724011293,33.90156137480218],[-81.10661655290599,33.90132314335385],[-81.10636508133378,33.90119109533953],[-81.10612585778406,33.90108215195112],[-81.10579387550813,33.90098702847144],[-81.10536027014044,33.90086131886772],[-81.10514644630207,33.90080935089853],[-81.10493478581003,33.90082583146278],[-81.10468056536621,33.90085261640055],[-81.10429898353156,33.90089126807919],[-81.10410513767359,33.9009114695949],[-81.10399664789935,33.90087270481197],[-81.10386772661543,33.90078545376412],[-81.10357182118614,33.90053462129907],[-81.1033648053569,33.90043659830267],[-81.1032324182469,33.90042024561063],[-81.10307668174809,33.90045792900323],[-81.10286859103932,33.90051010970478],[-81.10264142080055,33.9005438554338],[-81.10251245145905,33.90050579827648],[-81.10238698367804,33.90044550314185],[-81.10224049345322,33.90023144798221],[-81.10216534004071,33.90006890323815],[-81.10203497137468,33.89990656958499],[-81.10195566061442,33.8998005272932],[-81.10184279990273,33.89965149087742],[-81.10176016161147,33.89952970100303],[-81.10168053651032,33.8994400149088],[-81.101509970716,33.89929251095467],[-81.10141262661067,33.89922722457456],[-81.10134249833504,33.89918580534106],[-81.10128865165846,33.89916802288148],[-81.10123041000313,33.89915256210775],[-81.10111804212173,33.89916926548069],[-81.1010405963774,33.89920523922088],[-81.10084599375502,33.89932208603194],[-81.10053160920141,33.89952134957397],[-81.10028686203918,33.89969792014012],[-81.10000538279675,33.89990971014495],[-81.09978114262583,33.90010118079733],[-81.099574478862,33.90030253532078],[-81.09926758267605,33.90061045450484],[-81.09915180888166,33.90073863101405],[-81.09890209050852,33.90098841459258],[-81.09880936821521,33.90108600938026],[-81.09876894956795,33.9011855093197],[-81.09875858017017,33.90126193898449],[-81.09875256339036,33.90136341807934],[-81.09874957903416,33.90151229295653],[-81.09877040705393,33.90161502480338],[-81.09879132413965,33.9016859567182],[-81.09886875392037,33.90178365849798],[-81.09902508478879,33.90186518334067],[-81.09921635098861,33.90188888202012],[-81.0993442697224,33.9018830245437],[-81.09955824585992,33.90184441511294],[-81.09987602989484,33.90182102184243],[-81.10018540666367,33.9017936651159],[-81.10037260874003,33.90173245595289],[-81.1005386960758,33.90168478254785],[-81.10070637919081,33.90175769738632],[-81.101051445093,33.9019105319484],[-81.1012380482603,33.90202829842826],[-81.10136215186263,33.90210215035971],[-81.10148960767314,33.90214020090376],[-81.10166553591664,33.90212731349598],[-81.10175052945382,33.90217675706775],[-81.10192497503385,33.90232871308947],[-81.10218627459942,33.90255550792748],[-81.1022707197187,33.90260643397259],[-81.10239688663874,33.90264557412706],[-81.10255479138068,33.90270931166358],[-81.10268416219377,33.90275217517033],[-81.10284056389867,33.90272620753763],[-81.10328182743243,33.90264733460841],[-81.10424674120861,33.90249426281181],[-81.10499106471251,33.90242519003839],[-81.10579348002643,33.90238636860996],[-81.10590184888412,33.90236362563387],[-81.10605134928795,33.90234820276743],[-81.10637347162175,33.90232954370115],[-81.10673532571295,33.90234482804771],[-81.10683656788817,33.90236719134491],[-81.10700234247903,33.90240971056231],[-81.10707423808358,33.90242497273534],[-81.10727875318025,33.90240459588649],[-81.10737330022108,33.9023869605964],[-81.10743720320326,33.9023451093654],[-81.10746306998733,33.90227349685066],[-81.10746850159214,33.90218288908948],[-81.10744754061636,33.90209109910803],[-81.10731117509431,33.9019597108198],[-81.10690914982453,33.90157477529895],[-81.10663846036479,33.90133772819689],[-81.10638847100722,33.901203042415],[-81.10614688716386,33.90109139098683],[-81.10581531329582,33.90099346305249],[-81.10538556033616,33.90087114267259],[-81.10516591809285,33.90081489076582],[-81.10496765397465,33.90082352677766],[-81.1047079539944,33.90084764419202],[-81.10432539754932,33.90088688279558],[-81.10413360924278,33.9009093230776],[-81.10405065358509,33.90089623698839],[-81.10396337658796,33.90084743711583],[-81.10383679091201,33.90075699040387],[-81.10355291157913,33.90052161189398],[-81.10338911601087,33.90044804397814],[-81.10333513888017,33.90043088869253],[-81.10325980146126,33.90041999314635],[-81.10318542788728,33.90042268083939],[-81.10303610344867,33.90046328918618],[-81.10282757673066,33.90052007699541],[-81.10262124038525,33.90053307859007],[-81.1024918252078,33.90049645095925],[-81.10236437092148,33.90042406574234],[-81.10222834786758,33.90021014438766],[-81.10219141363477,33.90011806757809],[-81.10210811395885,33.89999657308103],[-81.10197787602854,33.89982692529529],[-81.10186073292819,33.89968443689233],[-81.10177792201301,33.89956005323065],[-81.10169559686652,33.89945416277409],[-81.1015874892701,33.89936092247619],[-81.10147876369648,33.89926601930787],[-81.10138934612553,33.89920791450518],[-81.10129752515572,33.89916175022619],[-81.10120411785833,33.89915426378379],[-81.10109118515082,33.89917730572965],[-81.10100151755637,33.8992320551659],[-81.10092417097025,33.89927348548971],[-81.10076938954033,33.89937297998826],[-81.1006722391687,33.899431645162],[-81.10057913081867,33.89949902230268],[-81.10045142657191,33.89958563370355],[-81.10032641894256,33.89966690396997],[-81.10020100037109,33.89975341569548],[-81.10010675984178,33.89981597890294],[-81.09995806068484,33.89993715595837],[-81.09973787547713,33.90013375973071],[-81.09949050301057,33.90039477893398],[-81.09924403896748,33.90062853072983]]}}
