{"type":"Feature","properties":{"name":"Spartanburg-6k","legacyMeetId":"8059","distance":"6k"},"geometry":{"type":"LineString","coordinates":[[-81.95135672115704,34.987243749283316],[-81.95135712281905,34.98721515033405],[-81.95135402456341,34.98708015722038],[-81.95134470166994,34.98696490593977],[-81.951328907132,34.98680282597247],[-81.95132097236537,34.98662570180297],[-81.9513155675945,34.98652672041753],[-81.951307369224,34.986426738952694],[-81.95130045372817,34.98632549321859],[-81.95129314785305,34.98622600032249],[-81.95128654367122,34.98613078240093],[-81.95128356224653,34.986037138889586],[-81.95127422732855,34.98594256526262],[-81.95126726794425,34.9858506485632],[-81.95126377937156,34.98575784907014],[-81.9512592169813,34.985666997230545],[-81.95125524287539,34.985490369297764],[-81.95125028744229,34.98532103625275],[-81.9512404481132,34.985152932781894],[-81.95123639316391,34.984983162367016],[-81.95123998157892,34.98481112365986],[-81.95124743700006,34.98464503963252],[-81.95125120336647,34.98448399295583],[-81.95125333883375,34.98432286878819],[-81.95125586866325,34.98415916861921],[-81.95125484135099,34.98398135791473],[-81.9512541361476,34.98381089979008],[-81.95125445731315,34.98364043874376],[-81.95125019042034,34.98347236257305],[-81.95124118117451,34.983311352284254],[-81.9512430323168,34.98316225100481],[-81.95125167399559,34.98302845422007],[-81.95126271853911,34.98290916430051],[-81.95127538025405,34.98280221763768],[-81.95131924017089,34.98268428761364],[-81.95137315541962,34.98257147022316],[-81.95140830149667,34.9824493327948],[-81.9514194539815,34.98231865369742],[-81.95136006853363,34.98218337630696],[-81.9512417231096,34.982090172868965],[-81.95109405954562,34.98202572873308],[-81.95093804276227,34.982006809570954],[-81.950798694438,34.98204407251708],[-81.95067131745617,34.98211568338632],[-81.95059957461572,34.982219353717035],[-81.95058841505086,34.982341948345415],[-81.95058635083771,34.9824681242564],[-81.95057609478435,34.98260084055004],[-81.95056617205769,34.982754930336796],[-81.95054809301575,34.98292399483334],[-81.95052668429015,34.98309513402305],[-81.9505117423296,34.98325635442989],[-81.95051481569816,34.98341156540649],[-81.950509187618,34.983567183259225],[-81.95049599112909,34.98371540446841],[-81.95046632679288,34.98385797556177],[-81.95041536498015,34.98399900399349],[-81.95035064934932,34.98412209394745],[-81.95021222252814,34.98416118158427],[-81.95006103252355,34.9841299297992],[-81.94994749798467,34.98404083194089],[-81.94988991765953,34.98391409322832],[-81.9499246905842,34.983767690211074],[-81.94997297824771,34.9836031191016],[-81.9499815039359,34.983512816834605],[-81.94999261581705,34.9834213444748],[-81.94999844179671,34.983329696037025],[-81.95000483072825,34.98323658581518],[-81.95000782796961,34.98314279595189],[-81.95001473058892,34.98304972447107],[-81.95002686079299,34.98295684267906],[-81.95004481342205,34.982862205477176],[-81.95008860979151,34.982688515801826],[-81.950118740934,34.98251893913529],[-81.95010009888102,34.98236034873578],[-81.95007050312523,34.982206517900025],[-81.95008988078311,34.98205405606813],[-81.95018851423427,34.98190240765119],[-81.95031718623106,34.98175663215272],[-81.95037679252496,34.98167996566529],[-81.95044027745836,34.98160427773238],[-81.95057259920279,34.98146178809173],[-81.95071192531847,34.981328560011164],[-81.95083708458881,34.98122047741947],[-81.95090026524231,34.98109153557143],[-81.95084693193374,34.980995763379944],[-81.95071290415358,34.980962401475416],[-81.95055472439999,34.980969056404035],[-81.95039710874966,34.9809856257402],[-81.95023529001833,34.9810065425147],[-81.95011092217358,34.98105054174647],[-81.95003637280004,34.981125934092205],[-81.94996191006544,34.981240206025774],[-81.94988920621876,34.98135893943416],[-81.94980493986728,34.98148641436605],[-81.94973299079413,34.981628460139866],[-81.9496909136158,34.98178601670514],[-81.94960867150004,34.981947757870444],[-81.9495097477781,34.982090955077915],[-81.9494012615186,34.98222813889398],[-81.94929830524741,34.982372428853616],[-81.94923561354113,34.98252031994488],[-81.94921036066651,34.98267716263686],[-81.9491850006798,34.982839711365514],[-81.94916378857118,34.983000754742626],[-81.94915392728072,34.983158191702834],[-81.94915733504104,34.983306157560804],[-81.94917752436022,34.9834414986022],[-81.94921990587709,34.98358382342473],[-81.94926780060491,34.98374305195782],[-81.94932312252347,34.98390545093584],[-81.9493846668641,34.9840641501167],[-81.94944093283802,34.98422252747682],[-81.9494839834471,34.98438812361138],[-81.94947993130396,34.98454240495455],[-81.94943272496589,34.984687123145655],[-81.94933682284739,34.984813830562146],[-81.94920502437924,34.98492717857936],[-81.94906222959415,34.985035286466],[-81.94897920986323,34.985180609995645],[-81.94895499581875,34.985341444591796],[-81.94897968117961,34.98550010954544],[-81.9490201743145,34.98565877148484],[-81.94906951043785,34.98582001920284],[-81.94909562123564,34.98599037875602],[-81.94909721877256,34.98616270123731],[-81.94906730230677,34.98632591663569],[-81.94899918029729,34.98647369099067],[-81.94885825684418,34.98658123318228],[-81.94870385747932,34.98667331091138],[-81.94854662174961,34.986758814728525],[-81.94841166784849,34.98684707125786],[-81.94836106979812,34.98694336044455],[-81.94842071706697,34.98702515538035],[-81.9485599977806,34.98704440451392],[-81.94872518681605,34.987065426973935],[-81.94890753615697,34.98709839515984],[-81.94910167153797,34.98713383314836],[-81.94929176034233,34.987173382172784],[-81.94948822199657,34.98721254008071],[-81.94967175988425,34.987246612050455],[-81.9498501251547,34.9872775392664],[-81.9500401564404,34.98731019023566],[-81.95023077348132,34.987346895786494],[-81.95038296210168,34.987522761352054],[-81.95056781630075,34.987555728974456],[-81.95074149454732,34.98758657624467],[-81.95092332469987,34.98761867787344],[-81.9511043538071,34.98764921585113],[-81.95128715600546,34.98768005292168],[-81.95146281209682,34.987709684516936],[-81.95163877230833,34.98774023059272],[-81.95182817296713,34.98777364126265],[-81.95202444449801,34.98781320158341],[-81.95222357172842,34.98785640890099],[-81.95242549090133,34.98790041239314],[-81.95263143751176,34.987946729817715],[-81.95283354387757,34.987992183674685],[-81.95303002832392,34.98803651933812],[-81.95322860343119,34.988081737473905],[-81.95341557837321,34.98812431408707],[-81.95358892370473,34.988163787081604],[-81.95373808998549,34.98819775418021],[-81.95388539998461,34.98823062041089],[-81.95399793667174,34.98822917557646],[-81.95416852639264,34.98773214433995],[-81.95417804608897,34.98756814110738],[-81.95418325541864,34.987391785740186],[-81.9542175761868,34.987223804270606],[-81.95431552874281,34.98708057230338],[-81.95443180964347,34.98694062776417],[-81.95453757706746,34.98679758355985],[-81.95463187341258,34.9866503355444],[-81.95472547700498,34.98649968014431],[-81.95482289797232,34.98635111618836],[-81.95493611800558,34.9862085665176],[-81.95505977423808,34.986065343518824],[-81.95518957717738,34.98592303278241],[-81.9552553977769,34.985850425813105],[-81.95538320993656,34.98571140692256],[-81.95550060550292,34.98557315775226],[-81.95559969500042,34.98543375444926],[-81.95565362336335,34.985277135646015],[-81.95566680699412,34.985098159320955],[-81.95567928570546,34.9849231372044],[-81.95569021956827,34.98474803872777],[-81.95569000872146,34.98457355006232],[-81.95568324703547,34.98439695160009],[-81.95567558893067,34.984306534821435],[-81.9556536650644,34.98421721200114],[-81.95555971361249,34.98407008238941],[-81.95543078271236,34.98395919034052],[-81.95530452470774,34.98388783848188],[-81.9551819671696,34.98387184658598],[-81.95508068234811,34.98393287404085],[-81.95497179731859,34.98400588881627],[-81.95483760147621,34.98406190963315],[-81.95469747460596,34.98413199032328],[-81.95457640634929,34.98421987548365],[-81.95445702129362,34.98431906322377],[-81.95435654483838,34.98442871212558],[-81.95429630026948,34.98456034509244],[-81.95425149233454,34.98469976295454],[-81.95418109828483,34.98483181931644],[-81.9541040389605,34.98497478745622],[-81.95400696148538,34.985112090916495],[-81.95389794354827,34.98525425804881],[-81.95381307528332,34.985394498767874],[-81.9537585020815,34.98555190642613],[-81.9537215253474,34.985717241397104],[-81.95371710414791,34.98587916269834],[-81.95370371680016,34.98603496611202],[-81.9536485914222,34.986190452304996],[-81.95357387836384,34.9863361166099],[-81.95351303787837,34.986487251179526],[-81.95345977990563,34.986649551486785],[-81.9534139764988,34.98681998436088],[-81.95336878482469,34.98699371962482],[-81.95332829609391,34.987162910665276],[-81.9532949097073,34.98730508185439],[-81.95325099703867,34.987413506505234],[-81.95311601276548,34.98745347186793],[-81.95305616640826,34.987327899577366],[-81.95309502980611,34.987210471775676],[-81.95310760765881,34.98706435956292],[-81.95313917312315,34.98690675450457],[-81.95316898702441,34.98673935586429],[-81.95320281358396,34.98656446153758],[-81.95323242488023,34.98639509760561],[-81.95325686781837,34.98623046490257],[-81.95327633174543,34.98606906069862],[-81.95328736936905,34.98591319349397],[-81.95328117216522,34.98576028703912],[-81.9532804336437,34.98560552094187],[-81.95328748538059,34.985476120658916],[-81.95328748538059,34.985476120658916],[-81.95329446871371,34.985442136737475],[-81.95330392033318,34.985424569317914],[-81.95330331704118,34.98540677355589],[-81.95330780353899,34.985279726664274],[-81.95330913392624,34.985147625727855],[-81.95332965289646,34.98500629022727],[-81.95339395698684,34.984854141435356],[-81.9534151672095,34.984765470881115],[-81.95344693971195,34.98459710178223],[-81.95345687674086,34.984420653856084],[-81.95344356816629,34.98425484445186],[-81.9534207113595,34.98410843006399],[-81.95341207940187,34.983968091650304],[-81.95341630030022,34.983825374218505],[-81.95341230989484,34.983685248428124],[-81.95339517158143,34.98355347202284],[-81.95337648004985,34.9833905264046],[-81.95338242247861,34.983240027034675],[-81.95336511953799,34.98308702194789],[-81.95328906953988,34.98293042173722],[-81.95319234872403,34.98277166529787],[-81.95314907566986,34.982688277031755],[-81.9531062400798,34.98260346688007],[-81.95306477765554,34.98251478193499],[-81.95302228595958,34.98242908241668],[-81.95297762687542,34.98234414392472],[-81.95289587052096,34.98218424000904],[-81.9528126268672,34.98203132532845],[-81.95272036275473,34.9818918987426],[-81.95262650885303,34.981770208938435],[-81.9525188870668,34.98168062844076],[-81.95238740681604,34.98166175275293],[-81.95225309077658,34.98170240725328],[-81.9521587292795,34.981802665609784],[-81.95211971444631,34.98193990947984],[-81.95210133496971,34.982089251628544],[-81.95207057394505,34.9822496609819],[-81.95204077158336,34.982400474382416],[-81.9520097405552,34.98255497869739],[-81.95195465485018,34.982708378661],[-81.95188886040705,34.98285611427846],[-81.95181869038579,34.982993194811506],[-81.95173054799794,34.98312311131034],[-81.9516571293314,34.9832513487256],[-81.9516063832941,34.98337575670486],[-81.95157470632967,34.983492858288514],[-81.9515893642944,34.98362781843047],[-81.95162541756866,34.98375169995437],[-81.95166250475285,34.98386472400065],[-81.95170405025767,34.983971986746305],[-81.95174311689388,34.984075072137365],[-81.95177288811142,34.984165326154034],[-81.95178539166574,34.984259344762776],[-81.95163548678094,34.98438508781927],[-81.95146838398561,34.98432656829884],[-81.95132214040376,34.984334651444144],[-81.95119694348952,34.98437576491853],[-81.95104419809037,34.98441289042348],[-81.95085941218369,34.98444601089573],[-81.95065099217135,34.984470042721476],[-81.95045177802481,34.98448697323809],[-81.95029104482836,34.98448237450957],[-81.95013328362695,34.98446081214137],[-81.94997426849105,34.98441974769715],[-81.94982608437455,34.98438507163441],[-81.9496784930982,34.9843738237726],[-81.94954184970024,34.984382065142576],[-81.94945993670608,34.984447510154645],[-81.9494494412519,34.9845681359529],[-81.94940842333725,34.98468899331598],[-81.94931160940388,34.98480483643833],[-81.94918031536012,34.984923329802],[-81.94904382449758,34.985049140376475],[-81.94896245748376,34.985202677248196],[-81.94895326733558,34.98536892567317],[-81.94899374881028,34.98553050744667],[-81.94903738025356,34.985688993091],[-81.9490834135403,34.9858453406184],[-81.94910689879734,34.986007542482284],[-81.94909427181327,34.9861753869818],[-81.94905597159845,34.98634026984701],[-81.94898585103462,34.98649065961296],[-81.94884924278456,34.98659706984937],[-81.94869016844383,34.986684919097584],[-81.94853532732171,34.98676775913213],[-81.94840033851517,34.986853330078574],[-81.94833945061086,34.986951504245305],[-81.94842509117284,34.98703421926293],[-81.94857145785816,34.987048485401466],[-81.94874205500857,34.98707274922459],[-81.94892984040888,34.98710514868397],[-81.94912876087824,34.9871421743947],[-81.94932322018093,34.987181885840194],[-81.94952555349248,34.9872186928468],[-81.9497237999325,34.9872574106737],[-81.94992116068632,34.98729312606923],[-81.9499844389891,34.987449693006795],[-81.95018932581576,34.98748725855402],[-81.95037883731625,34.987522005100836],[-81.95053220920839,34.98754940474191],[-81.95066441445066,34.987572885941184],[-81.950779113781,34.9875932578665],[-81.95091929295421,34.987610743141566],[-81.95103989471376,34.987286419902595],[-81.95111782221335,34.98714641908532],[-81.95115684393494,34.98697796694384],[-81.95116783969577,34.986888220402506],[-81.95117276581324,34.98678906096533],[-81.9511787237862,34.986693067816944],[-81.95118654047488,34.98659559430686],[-81.95119513620786,34.98649791734702],[-81.9512022621968,34.98640127260118],[-81.95121105832321,34.98630324407842],[-81.95121935893775,34.986203848721956],[-81.95122518854353,34.98610480596037],[-81.95123091177166,34.98600545131144],[-81.95123951301979,34.98590525820182],[-81.95124933818757,34.985802614449646],[-81.95125802138237,34.985700597616066],[-81.95127160849107,34.98560241232707],[-81.95128241034048,34.98550425055126],[-81.95129326582857,34.98540576344598],[-81.95130515087953,34.98530930572657],[-81.95131252812791,34.9851389095478],[-81.95132130578259,34.98498168901322],[-81.95133132680168,34.98483402963258],[-81.95135148304817,34.98469921610593],[-81.95142217227132,34.984575316963095],[-81.95153822324238,34.984491541580454],[-81.951640372156,34.984440575164804],[-81.95175903350501,34.98442961522889],[-81.95186331291669,34.98448726252786],[-81.95196879452477,34.98457488075457],[-81.95207841868806,34.984689642877214],[-81.95218791050706,34.984798927513964],[-81.95230452754353,34.9849043549311],[-81.9524141927677,34.98501934779887],[-81.95251154116328,34.985110870095276],[-81.9525824184066,34.98519192861487],[-81.95266534707008,34.98527339216229],[-81.95277171917503,34.98535805735208],[-81.95290254424977,34.985432470907014],[-81.95304062638745,34.98551250389599],[-81.95315284485844,34.98561090365656],[-81.95318669130079,34.98572172017757],[-81.95313672225521,34.985829665506245],[-81.95303601580535,34.98593084741722],[-81.95296405622078,34.98607681952084],[-81.95290363878507,34.98623549788769],[-81.95285188402197,34.98639058253341],[-81.95280998508987,34.986541494780525],[-81.95277747889108,34.98667051473699],[-81.95274613852912,34.9867749271223],[-81.95271833212082,34.98686881757414],[-81.95269170652985,34.9869569447975],[-81.95269170652985,34.9869569447975]]}}
