{"type":"Feature","properties":{"name":"Spartanburg-8k","legacyMeetId":"8059","distance":"8k"},"geometry":{"type":"LineString","coordinates":[[-81.9516005801571,34.98721647294894],[-81.95158487199694,34.98720242180246],[-81.95151499117863,34.98708062224439],[-81.95146726122859,34.98696251280025],[-81.95143659553251,34.98683196945571],[-81.95140952883094,34.9866630661861],[-81.95139913923029,34.98656969071781],[-81.95138883762603,34.98647238516574],[-81.95137979917342,34.98637254221419],[-81.95137206273063,34.986272519442124],[-81.95136703619501,34.98612591169496],[-81.95135812573463,34.986029682751514],[-81.95134972686091,34.98593484865687],[-81.95134122308589,34.98584023029104],[-81.95133873440432,34.98574855743351],[-81.95132766157896,34.98557390854501],[-81.95131093097145,34.98540554557274],[-81.95129794599202,34.98524783341958],[-81.9512909362872,34.985094044885734],[-81.95127803590546,34.98494401416926],[-81.95126550205764,34.98479390947516],[-81.95126701230298,34.984647348040085],[-81.95126038042658,34.98450006034525],[-81.95125360187569,34.984345572291296],[-81.95124485227029,34.98419159541702],[-81.95124361190835,34.984018907421245],[-81.95124471419959,34.98384831161629],[-81.95124532468475,34.983676642028826],[-81.95124857158088,34.98350350824243],[-81.95125716184957,34.98333036221381],[-81.95125898115755,34.98317023507217],[-81.95126712379835,34.98301697250575],[-81.95127520138418,34.98288512702703],[-81.95128685175295,34.982767224065874],[-81.95133203545208,34.98264304080631],[-81.95138857359007,34.98251006894651],[-81.95142363012124,34.98238692567061],[-81.95141258235135,34.982243879349085],[-81.95131668294361,34.982131244912765],[-81.95118900494447,34.98205586500223],[-81.95104256994772,34.98200521548484],[-81.95090397981598,34.982007704384515],[-81.95077902283934,34.982056734928605],[-81.95066460311814,34.98213690817854],[-81.95060169443981,34.98224930766915],[-81.950595413843,34.982368925798006],[-81.95059991972923,34.982495628165026],[-81.95058619156357,34.982624540905086],[-81.95057305464508,34.98277191749782],[-81.95056650363551,34.982925452111374],[-81.95054833226678,34.98308574107172],[-81.95052037102012,34.98323275668695],[-81.95051802678695,34.98337505730998],[-81.95051498046992,34.98352089878196],[-81.95050097075864,34.983668318854846],[-81.95047038036861,34.98381246792445],[-81.95043104065793,34.983956225015106],[-81.95037797520871,34.98408417701358],[-81.95027838588493,34.9841734733731],[-81.95012278355924,34.984165880037665],[-81.9499774677352,34.984083958980676],[-81.94989376364006,34.983949353061554],[-81.94989886446116,34.98378971251782],[-81.94994670057322,34.983627283582976],[-81.94997091259324,34.983459232223325],[-81.9499832267906,34.98329276552411],[-81.94999856388955,34.98312683619348],[-81.9500124763506,34.98296993513004],[-81.95003266664145,34.9828134486163],[-81.95006842917844,34.982662980330595],[-81.95011231682604,34.98250880563555],[-81.95010522482528,34.982342836248634],[-81.95009995212018,34.982230882824105],[-81.95009172384864,34.982096148395776],[-81.95011812798805,34.98196018051064],[-81.95022244581797,34.981825013933666],[-81.95034849739507,34.98169178816413],[-81.95047040566931,34.98154123105125],[-81.9505405502144,34.981468918457146],[-81.95061489539624,34.981398678876296],[-81.95076265845009,34.98127355042189],[-81.95089405831206,34.98115744195404],[-81.95090340569078,34.98104169787452],[-81.95080209449354,34.98097256593462],[-81.95065245453699,34.980953090853866],[-81.95048116018195,34.98097211293464],[-81.95031568366201,34.98099235299368],[-81.95016131797288,34.981028992032364],[-81.9500400718967,34.981096495273626],[-81.94997218029899,34.98120284393603],[-81.94991522337176,34.981319921239226],[-81.94982930920622,34.981443290533896],[-81.9497534966877,34.98157719389732],[-81.94969840904481,34.98172193679862],[-81.94965791412656,34.98186462816306],[-81.94957794721485,34.98201590201629],[-81.94946829564313,34.98215499780445],[-81.94936462667813,34.98228877230212],[-81.94927044701846,34.982425983076745],[-81.94922381920249,34.98257764551644],[-81.9492064239558,34.98274333341766],[-81.9491890690955,34.982913235947144],[-81.94916149620532,34.98307562833105],[-81.94915559918269,34.983231206212956],[-81.949166177764,34.98338918338744],[-81.94920013754505,34.983539400649704],[-81.94925846567534,34.98369564550584],[-81.94931546637535,34.98386341446926],[-81.94937921714785,34.9840347934147],[-81.94941143869217,34.9841228076933],[-81.94947173820533,34.98429119176636],[-81.94949753237177,34.98445395830996],[-81.94946808793257,34.98460506311962],[-81.94939456233851,34.98474342695145],[-81.94928036408395,34.984860635914806],[-81.94914335512293,34.9849734036219],[-81.9490284449983,34.985094995395905],[-81.94896263453765,34.985238876992284],[-81.94896598847954,34.98538981190538],[-81.94899541854421,34.985530677711935],[-81.94902642444194,34.98567638648233],[-81.9490632052511,34.98582306869407],[-81.94908651848993,34.9859730547502],[-81.9490993088234,34.98612750334462],[-81.9490769653951,34.98628206910942],[-81.9490256890257,34.98643208630144],[-81.94892241618365,34.986555332850585],[-81.94877470074626,34.98663710706623],[-81.94864214819557,34.986705213789804],[-81.94852593161664,34.98676974962656],[-81.94841529058998,34.98684540237705],[-81.94835322665136,34.986932474500314],[-81.94845447393004,34.98703117844945],[-81.94859687805518,34.98704636258784],[-81.94876016090546,34.98707116177719],[-81.94880850941725,34.98722714489355],[-81.94899657723577,34.98726317707379],[-81.94918760323446,34.987299631452814],[-81.94938349745237,34.987337014790604],[-81.94958019396807,34.98737455126881],[-81.94977318729254,34.98741096048845],[-81.94996649036203,34.98744640215815],[-81.95015990198392,34.98748186377905],[-81.95035626008286,34.98751786562309],[-81.95054746830714,34.987552114934985],[-81.95073221153153,34.987584927482715],[-81.95091850734836,34.98761786520986],[-81.95110907807145,34.98765001278161],[-81.95129917786875,34.98768208088638],[-81.95148150336304,34.987712837584745],[-81.95165116631358,34.98774239541935],[-81.95183691318957,34.98777538065849],[-81.9520308672745,34.987814595250526],[-81.95222708534173,34.987857171327335],[-81.95242489879331,34.98790027924317],[-81.95261867613128,34.987943859803345],[-81.952817592574,34.98798859616407],[-81.95301785296506,34.98803374684317],[-81.95321863510424,34.98807946754303],[-81.953419375216,34.988125178724104],[-81.95360241688239,34.98816685966605],[-81.95377154738502,34.98820537289833],[-81.9539225215136,34.9882387993304],[-81.95404569280541,34.988222115724234],[-81.95415865153832,34.98786749615956],[-81.95418039323539,34.98772716973723],[-81.95418801847892,34.987564929208816],[-81.95419079703777,34.98739109148127],[-81.95421814149437,34.987230931978694],[-81.95431379924705,34.987093723473066],[-81.95442275827104,34.986962046478716],[-81.95452548992007,34.98682899809029],[-81.95461999519814,34.98669150660118],[-81.9547120164296,34.986547544718086],[-81.95481267435945,34.98639735496686],[-81.95491156283174,34.986251202295605],[-81.955023365582,34.98611062520247],[-81.95514571138429,34.985974279131],[-81.9552771787447,34.98583611632293],[-81.9553983305913,34.98569351401523],[-81.9555201492547,34.985554220217566],[-81.9556186058746,34.985406036737096],[-81.95565596268689,34.98523662544946],[-81.95565944082388,34.98505863828531],[-81.9556649532519,34.98487818432064],[-81.95567150097644,34.98469878026356],[-81.95567894125526,34.984525846949644],[-81.95568236395103,34.98437037530026],[-81.9556575438252,34.98422947680235],[-81.95557869652133,34.98409523820226],[-81.95547484184178,34.98398401859935],[-81.9553463832086,34.98389714190392],[-81.95520395372243,34.98387514975136],[-81.95509291242146,34.98392842553599],[-81.95497297625309,34.98400478361157],[-81.95482290427951,34.984074207460154],[-81.95467274713106,34.98415457200442],[-81.95454701919576,34.98425723439174],[-81.95442623562788,34.984373066440476],[-81.95433280655271,34.984502670096326],[-81.954283329594,34.98465578169204],[-81.9542050973818,34.98480196236893],[-81.95412530134277,34.984950879882525],[-81.9540301051915,34.985098230459705],[-81.95392307047341,34.98524137432718],[-81.9538317444193,34.985383251478055],[-81.95377451839389,34.985541413016634],[-81.95373247312311,34.985709466234184],[-81.95372184946599,34.98587217159873],[-81.95371098242283,34.986034829445785],[-81.95364926490431,34.98619204259773],[-81.95356805330387,34.98634859987657],[-81.95350141790406,34.98651232433666],[-81.95344638409026,34.986686919542265],[-81.95342242673644,34.98677553071776],[-81.95340444510973,34.98686453891932],[-81.95336687589699,34.987037716398774],[-81.95332745393078,34.98720006493035],[-81.95328795745147,34.987340361012656],[-81.95323215917665,34.987437677661035],[-81.95309383899317,34.98742759351295],[-81.95305955203888,34.98729372542757],[-81.95308493584871,34.9871667206363],[-81.95311086934504,34.98701361801498],[-81.95314013864537,34.98684903300615],[-81.95316616837248,34.986674493668566],[-81.95319223570532,34.986495641543215],[-81.95321095028882,34.98640638470629],[-81.95323111617904,34.9863162432102],[-81.95324773918433,34.98622475575761],[-81.95325919740928,34.986134633157846],[-81.95326743122803,34.986043339123555],[-81.95328226220605,34.98587911214221],[-81.95328616440729,34.985718506166094],[-81.9532852520306,34.98555958237939],[-81.95329910678292,34.98539284916028],[-81.95331379883237,34.985212165677225],[-81.95332401063467,34.985118868862486],[-81.95334469692038,34.98502734107774],[-81.95337204500368,34.984935111645285],[-81.95340448868589,34.984848935474545],[-81.95345119519419,34.98468250032],[-81.95346973057073,34.98450868885293],[-81.95346127438567,34.984334870528514],[-81.95343384772484,34.98416481102604],[-81.95341496269134,34.98400076636101],[-81.95341618235692,34.98383659582928],[-81.95341202996102,34.98367785219969],[-81.95339193686375,34.983530018515715],[-81.95337989245806,34.98336590575862],[-81.953382880836,34.98319634568966],[-81.95334565789177,34.983029061587644],[-81.95325143082195,34.982863954719846],[-81.95320133534626,34.98278078246864],[-81.95315457465098,34.98269734938547],[-81.95311173411918,34.98261287088956],[-81.95306831452088,34.98252574594558],[-81.95302590026672,34.982440419635935],[-81.95298498909202,34.982354477810006],[-81.95294315551428,34.98227009248823],[-81.95285491933389,34.98210448056996],[-81.952758949555,34.98194401108647],[-81.95264785429984,34.98179013665314],[-81.9525143215888,34.98167722032959],[-81.95236743558729,34.98165798036281],[-81.9522329835517,34.98171749887672],[-81.95215368972224,34.98183469386828],[-81.95212721841374,34.98197715374977],[-81.95210153991209,34.98211053152739],[-81.95207097375474,34.98223228448802],[-81.95205225546238,34.982327551921514],[-81.95203784512886,34.982419160120266],[-81.95200309172226,34.98257931660294],[-81.95195676709335,34.98270659542101],[-81.95190662186427,34.98283780458896],[-81.95184419301391,34.98296195185971],[-81.95175577582367,34.98307538823978],[-81.95169159077463,34.98319691380266],[-81.951627860709,34.98332167053217],[-81.95158328412818,34.98343162310787],[-81.95156677475535,34.98356380607565],[-81.9515922408916,34.98370905797281],[-81.951643025807,34.98384898197127],[-81.95170930269339,34.983989672421075],[-81.95175637395964,34.98412463899403],[-81.95178024651572,34.98422491918589],[-81.95170771770248,34.984324684814545],[-81.95159393063788,34.98431286981762],[-81.95144856266623,34.98430506902509],[-81.95132873206046,34.98431124509448],[-81.95119788875469,34.984363424646006],[-81.9510500078475,34.98440722843431],[-81.95088500091612,34.98443812980478],[-81.95071475256609,34.98445667117139],[-81.95053883061412,34.98447790414585],[-81.95038454783796,34.984497499924146],[-81.95023153362584,34.98449626228186],[-81.95005919315014,34.984455025123346],[-81.9498841777469,34.98440723048026],[-81.94973202610599,34.98436396588321],[-81.94958864156801,34.98437459972228],[-81.94947775107987,34.984416930792335],[-81.94943738206952,34.984524205269366],[-81.94941967695178,34.98465337005577],[-81.9493479426867,34.984771719225385],[-81.94921517189331,34.98488273311501],[-81.94907610421129,34.985003675209974],[-81.9489844854039,34.985148479232194],[-81.94895353406885,34.985312343284136],[-81.94898293655594,34.9854741121701],[-81.9490267022609,34.985630699175864],[-81.94905685352313,34.985791768753735],[-81.94908693591995,34.985957069950935],[-81.94909675914118,34.9861238731458],[-81.94907692927013,34.98628671872242],[-81.94902701912697,34.98644518474945],[-81.94890023428765,34.98657037808399],[-81.9487301869435,34.98666518447194],[-81.94857159817708,34.986758113144354],[-81.94842572523811,34.98683622540329],[-81.94835076155496,34.986933866633684],[-81.94840980483256,34.987021070440875],[-81.94855418463763,34.98704762890905],[-81.94872493382803,34.987072865223396],[-81.94891950894325,34.987105488783094],[-81.94912136465658,34.98714170079586],[-81.94932070870009,34.98718054029751],[-81.9495152973797,34.98721626940539],[-81.94957160821777,34.987372912870015],[-81.94975866480887,34.98740829781131],[-81.94995438436987,34.98744418254592],[-81.95015753173637,34.98748142917806],[-81.9503640991228,34.987519302873224],[-81.95057267280836,34.987556591539295],[-81.95077248460669,34.98759208037994],[-81.95096820390727,34.98762624862326],[-81.9511556704323,34.987657872484085],[-81.95133547646297,34.98768820411281],[-81.95150887297503,34.98771754075375],[-81.95167667116677,34.9877468504847],[-81.95184596302713,34.98777718172644],[-81.95202428834368,34.98781316771431],[-81.95222697574286,34.987857147557655],[-81.95233606853503,34.98788081882367],[-81.95244729567172,34.987905316316045],[-81.95256242884076,34.98793120976502],[-81.95267156169226,34.98795575378357],[-81.95278615981341,34.987981526946434],[-81.95289305974642,34.98800556875664],[-81.95299933886362,34.988029530891154],[-81.95320470050855,34.988076294455944],[-81.95340027821842,34.98812083003792],[-81.9535755825624,34.98816074915195],[-81.95373867438869,34.98819788724604],[-81.95387885177699,34.98822917766445],[-81.95398536802392,34.98825264607111],[-81.95414505352434,34.987910266629925],[-81.95416861519062,34.987773428984354],[-81.9541876374313,34.98761841326692],[-81.95418502361065,34.98744831454278],[-81.95420144451505,34.98726823459715],[-81.95423945343437,34.987183300007494],[-81.95429824669759,34.98710542227777],[-81.95442795360903,34.986966687853176],[-81.95452862207702,34.986819740546586],[-81.95462423505516,34.98666336594121],[-81.9547203725202,34.986504684740105],[-81.95482904234245,34.986348101646286],[-81.95488789671165,34.98627172277504],[-81.95495036835298,34.986196191874086],[-81.95501576853471,34.98612039216839],[-81.9550834810729,34.986046116315904],[-81.955151245159,34.985967326698294],[-81.95521808981319,34.98589288081385],[-81.95528687099922,34.98581567208604],[-81.95535310926444,34.98573764482372],[-81.95542044648658,34.98566192786722],[-81.9554890996607,34.9855881624057],[-81.95555262244352,34.98551111581316],[-81.9556358356655,34.98534561723035],[-81.95565513278545,34.98525315991822],[-81.9556597590856,34.98515728758889],[-81.95565603429887,34.98506039123395],[-81.95565838148528,34.98496257188089],[-81.95566118436727,34.98486824911014],[-81.95567140269654,34.98469736393858],[-81.95567450729581,34.984529449565855],[-81.95567194093982,34.984365535126415],[-81.95564496702205,34.984212000267505],[-81.95555811149312,34.98408074671328],[-81.955446001876,34.98397323373793],[-81.95532241388744,34.98390062831101],[-81.95519045100997,34.983882757777494],[-81.9550844011632,34.9839284847774],[-81.95497865548121,34.984016687323496],[-81.95483456860693,34.984091002339916],[-81.95468912799262,34.98416739203599],[-81.95455732933196,34.98425557730855],[-81.95443796905349,34.98436662582781],[-81.95434059933551,34.984491557007786],[-81.95427092692294,34.984635685419505],[-81.95421216692797,34.98479106569472],[-81.95413348087152,34.984941500851725],[-81.95403683527768,34.98509075329197],[-81.95393174561977,34.98523394913319],[-81.9538319628491,34.98537532398972],[-81.95377211003785,34.98553411334876],[-81.9537387921569,34.98569830745011],[-81.95372461850097,34.98585958340164],[-81.95371617952728,34.98601747429003],[-81.95365502911615,34.9861675765407],[-81.9535744324669,34.98632647158673],[-81.95350515498252,34.98649272872707],[-81.95347280083851,34.986580033388684],[-81.95344790808505,34.98666894602534],[-81.95342646647315,34.98675918892771],[-81.95341240118395,34.986854039662916],[-81.95338997766616,34.98694826805061],[-81.95336922107326,34.987045016607695],[-81.95334234619641,34.9871372417512],[-81.95329854000106,34.98730538057912],[-81.95324291969246,34.987432361481645],[-81.95309309506597,34.98743523385982],[-81.95304994017536,34.98733830659299],[-81.95307925801006,34.987208998514845],[-81.95310348248077,34.987053168002646],[-81.95313610241348,34.986880141083596],[-81.95315521163533,34.98678864457196],[-81.95317173098692,34.98669634634875],[-81.95318689186927,34.98660612190091],[-81.95321743310576,34.98642910850749],[-81.95324724991598,34.98625699060471],[-81.95326332370031,34.98608407659852],[-81.95327678033173,34.985913496188125],[-81.95328154542271,34.98574220192046],[-81.95327599094023,34.98557181689123],[-81.95328460497424,34.98539555469487],[-81.9532868914047,34.98530383731085],[-81.9532885789201,34.98520741485885],[-81.95330365305512,34.98510528452437],[-81.95332726515248,34.98500892416178],[-81.95336027150613,34.98490924468763],[-81.95339475006065,34.98481434420681],[-81.9534219012864,34.98472197086701],[-81.95345301859317,34.98454051341367],[-81.95346020551322,34.98444766124619],[-81.95345870218031,34.984357327663474],[-81.95342332378597,34.98418264836703],[-81.95341081537305,34.9840271246445],[-81.95341221934615,34.98387571877243],[-81.95342135470119,34.983725367154555],[-81.95340711848988,34.983572475663976],[-81.9533798905024,34.983393000295756],[-81.95338577661158,34.98330039414953],[-81.9533844435469,34.98320807701422],[-81.9533545964416,34.98303463204458],[-81.95330991063926,34.982949477528905],[-81.95325701931924,34.982863817724585],[-81.95320544825275,34.982778523755904],[-81.95316006388755,34.982690107281265],[-81.95311408511225,34.98260196103816],[-81.95307026904938,34.98251398523001],[-81.95302645766242,34.98242650839097],[-81.95298541903428,34.98234133105233],[-81.95290211453131,34.98217838047689],[-81.95280881700414,34.982020507265396],[-81.95270751620318,34.98186727311822],[-81.95259734712484,34.981742295088374],[-81.9524728656918,34.98166581767833],[-81.95233997606068,34.98167278331152],[-81.95220387324802,34.981740856636826],[-81.95213886075473,34.981871135887204],[-81.95211317623838,34.98201978589174],[-81.95208131051365,34.982171938664976],[-81.95205862657178,34.98233512512835],[-81.95201949872298,34.98251001058092],[-81.95199283740084,34.98260372691323],[-81.95196578732158,34.98269166820378],[-81.95190126015557,34.98285787338084],[-81.95180703171671,34.983006618028334],[-81.95171380689614,34.98313576808317],[-81.9516374460487,34.98327522561474],[-81.95158503166296,34.983400655885895],[-81.95157430277078,34.98353038429829],[-81.95159747034242,34.98367668199728],[-81.95165262471261,34.98382868546375],[-81.95171325301139,34.98398225358059],[-81.95176322706675,34.984143687750944],[-81.95180337940248,34.98430756854955],[-81.95186130149715,34.98446611951131],[-81.95197579130597,34.98460644128299],[-81.95212082671804,34.98473542616844],[-81.95226357444322,34.98486606628803],[-81.95240323679921,34.98499693873362],[-81.95252485413313,34.98512042361729],[-81.95263446361729,34.98522986959772],[-81.95275123310381,34.985332293245165],[-81.9528875522421,34.985416388902266],[-81.95302097035962,34.985504611543995],[-81.95313072147907,34.98559949123237],[-81.95319831399455,34.98570746961704],[-81.95316232437695,34.985815157010656],[-81.95305687566324,34.98590911887544],[-81.95297857291754,34.98603399989899],[-81.95291817709534,34.98617824207674],[-81.95287333550098,34.98632665243269],[-81.95283256688047,34.98647487124885],[-81.95279408651989,34.986618444260806],[-81.95276049532072,34.986750217823165],[-81.95272338039007,34.986866356085535],[-81.95269761783742,34.9869618244169],[-81.95267373886831,34.98702840322215]]}}
