{"type":"Feature","properties":{"name":"Tallahassee-1k","legacyMeetId":"9999","distance":"1k"},"geometry":{"type":"LineString","coordinates":[[-84.15784718129568,30.42873270851406],[-84.15765705605877,30.42762951819602],[-84.1580380296639,30.42768221207595],[-84.15908367028752,30.42783597806681],[-84.15917937012183,30.42806395067724],[-84.1591881954785,30.42828924816705],[-84.1591751617001,30.42875810935225],[-84.15918790698676,30.42908142095687],[-84.15915360164621,30.42946756603187],[-84.15905032428438,30.42956895055058],[-84.1588567155287,30.42957463598616],[-84.15868844264122,30.42947002625709],[-84.15758830176654,30.42874734480014],[-84.15679759834283,30.42842575503245],[-84.15410617527733,30.42736835052584]]}}
