{"type":"Feature","properties":{"name":"Tallahassee-6k","legacyMeetId":"8268","distance":"6k"},"geometry":{"type":"LineString","coordinates":[[-84.15870494660408,30.42843731800306],[-84.15522239478783,30.42744952292396],[-84.15387382073783,30.42704509597701],[-84.15345476823023,30.42687133244511],[-84.15300531060123,30.42672654227617],[-84.15268835117134,30.42664999714573],[-84.15237064726016,30.4266499714268],[-84.15217253214531,30.42667882992433],[-84.15188686305764,30.42679154471626],[-84.15172012210252,30.42694305106342],[-84.15165165032101,30.42707640660715],[-84.15160884977531,30.42732301872795],[-84.15156780947585,30.427576261165],[-84.15153917007845,30.42795686238011],[-84.15148899958517,30.42812296552873],[-84.15133343959505,30.42821083324663],[-84.1510314463797,30.42827204000366],[-84.15069492990436,30.42832137543694],[-84.15036925373713,30.42834211265973],[-84.15003274161923,30.42834321758025],[-84.14968642472232,30.42834309419067],[-84.14917171204148,30.42837207800052],[-84.14875867365436,30.42840989044301],[-84.14827852577116,30.42841911691138],[-84.14789437100961,30.42844041043902],[-84.14770517450715,30.4285225970331],[-84.14761536709527,30.42864189586067],[-84.14760832772048,30.42885589441757],[-84.14771608688899,30.42898508140554],[-84.14786327612187,30.42910455280616],[-84.14818336572301,30.42919636665057],[-84.14854134206625,30.42926676384508],[-84.14896924013436,30.4293553189707],[-84.14920433832735,30.4293769870361],[-84.14946345795634,30.42938795992876],[-84.14965445998703,30.42943791749368],[-84.14995232830829,30.42955484817037],[-84.15023074042546,30.42976424574517],[-84.15047671514331,30.42988696791782],[-84.1506358461107,30.42997926433259],[-84.150824159511,30.42992657185084],[-84.15085687148054,30.42978243573493],[-84.15079328778026,30.42961110448873],[-84.15065503082283,30.42936590382439],[-84.15059074581445,30.42915834469371],[-84.15058989199616,30.42902054149811],[-84.15063008407097,30.42883216257132],[-84.15076902183135,30.42871830796194],[-84.15093865485062,30.42862531139044],[-84.15124514516832,30.42861006544344],[-84.15157414856844,30.42866033239365],[-84.15184352305657,30.42869791403568],[-84.15209037272075,30.42868011569458],[-84.15237169880618,30.42859378856344],[-84.15271680030374,30.42852294312263],[-84.15299333744849,30.42846278424295],[-84.15360266698306,30.42838983849642],[-84.15390778440944,30.4284371355674],[-84.15413870197624,30.42854261940055],[-84.15440919674054,30.42874175044623],[-84.1546472782901,30.42895858487147],[-84.1548369757856,30.42917835494243],[-84.15496830684762,30.42934477697256],[-84.15515719261788,30.4294680898579],[-84.15538260494328,30.42957116909767],[-84.15563662857527,30.4297182755963],[-84.15591410424369,30.42989147195057],[-84.15623839892433,30.43003616888945],[-84.15668644186397,30.43004948101461],[-84.15712536419235,30.4300649463571],[-84.15741661275999,30.4301492006887],[-84.1577319801419,30.43025373535713],[-84.15820380184742,30.43031361511927],[-84.15850790357334,30.43029790738416],[-84.15872949994424,30.43011166629403],[-84.15896461157675,30.42980917554252],[-84.1590791328581,30.42960144071164],[-84.15910100793988,30.4293097674312],[-84.15910648041081,30.42904185128907],[-84.15910085415031,30.42878762245029],[-84.1591244396904,30.4283294077457],[-84.15913419363275,30.4281181307122],[-84.15909306618457,30.42791585371509],[-84.1589708635647,30.42788139390927],[-84.15884017529929,30.42787390314672],[-84.15860614441245,30.42782605122596],[-84.15833915831402,30.42777829583589],[-84.15807263214535,30.42773073617941],[-84.15773995403893,30.42769274820961],[-84.15731641784451,30.42762504582419],[-84.15701260834844,30.42759044896009],[-84.15664804293957,30.42754654781179],[-84.15635824474116,30.42749757356499],[-84.1560115657736,30.42745206511373],[-84.15566789203288,30.4274231046702],[-84.15541074584158,30.42738595574461],[-84.15519649213591,30.42736063414747],[-84.15494081995658,30.42732368115652],[-84.15466655083017,30.42725266634022],[-84.15441097863601,30.42717067674894],[-84.15409758319728,30.4270784982977],[-84.1536999844114,30.42693950204111],[-84.15344194612238,30.42683092949737],[-84.15321909459401,30.42676419430783],[-84.1529287755548,30.42668811000953],[-84.15257358488374,30.42664733687128],[-84.15229710153815,30.42665286369716],[-84.1520405762041,30.42671708356897],[-84.15177715178403,30.42686659830432],[-84.15166258248594,30.42702285189715],[-84.15161527372696,30.42722470598616],[-84.15159084008722,30.42746968707137],[-84.15155052663853,30.42776282138568],[-84.1515280805703,30.42803213392188],[-84.15149286305883,30.4281415803839],[-84.15140240280388,30.42817729108547],[-84.15126065986287,30.42822433400841],[-84.15110154593158,30.42823620379367],[-84.15092053843146,30.42827356740325],[-84.15076037470978,30.42829157762895],[-84.15059999078396,30.42830433965459],[-84.15043338905303,30.42831136086306],[-84.15026081142018,30.42831241359924],[-84.15012028611292,30.42831306528495],[-84.1499153316509,30.42831450416374],[-84.14979406590595,30.42832010406115],[-84.14953485979271,30.42832232687215],[-84.14942063695342,30.42831802741655],[-84.14925888838536,30.42833098492261],[-84.14906381472206,30.42836087763978],[-84.14886783517156,30.42836483223693],[-84.14868808712369,30.42838174340435],[-84.14840644481627,30.42839320218371],[-84.14818887781561,30.42838972036427],[-84.14796557547633,30.4284146573887],[-84.14781759139217,30.42843452838914],[-84.1477582899699,30.42848480195674],[-84.14767001048222,30.4285588887895],[-84.14762004678947,30.42863279322559],[-84.14759653903441,30.42877262538996],[-84.1476382355315,30.42892235739719],[-84.1476772807531,30.42897042178823],[-84.14777042894582,30.42904075819503],[-84.14800022387753,30.42916288983039],[-84.14840636856734,30.4292585410176],[-84.14878436352303,30.42933138189919],[-84.149111062825,30.4293945833809],[-84.14932843587577,30.42939475193838],[-84.14953556113308,30.42941478426435],[-84.14975932060858,30.42948553490417],[-84.14991426747922,30.42955045380095],[-84.15001431575533,30.4296349942458],[-84.15015502225664,30.42972123002315],[-84.15037019017973,30.42983804937924],[-84.15059467384127,30.42997071662242],[-84.1507306832625,30.42998968820966],[-84.15086105547992,30.42988810141258],[-84.15080744814804,30.42971591332426],[-84.15069890772472,30.42948483534631],[-84.15062140495904,30.42915543318069],[-84.15061040509218,30.42891459614581],[-84.15073016880308,30.42875232783987],[-84.15088082488285,30.42866813076113],[-84.15104549067017,30.42862683666923],[-84.15130209566188,30.42862911548696],[-84.15148407998893,30.42865604207737],[-84.15166748292552,30.42869510904492],[-84.15196709680097,30.42869440387115],[-84.15226882286169,30.42862623874973],[-84.1525711994332,30.42855098822141],[-84.1528809699806,30.42848206012334],[-84.15319311961316,30.42843228931767],[-84.15358079197033,30.42838813154978],[-84.15382125887142,30.42841755555136],[-84.15402377641516,30.42847680471039],[-84.1542653619277,30.42862264501078],[-84.15454202114314,30.4288663358734],[-84.15477084702448,30.42908451115653],[-84.15487106017287,30.42924351267997],[-84.15497433666677,30.42935110413799],[-84.15507447463608,30.42942489374286],[-84.15532450670057,30.42954669386532],[-84.1555223368128,30.42966069281805],[-84.15580581015232,30.42982622593854],[-84.15603298664097,30.42996283371767],[-84.15646407229002,30.43005881634362],[-84.15685941934028,30.43004546920116],[-84.15722858387868,30.43009349383256],[-84.15754644628515,30.43019675125888],[-84.15785909950392,30.4302817573375],[-84.15813791947454,30.43031469321899],[-84.15853358825319,30.43028149023234],[-84.15868030608256,30.43016993179208],[-84.1588220833255,30.43001197629759],[-84.15890474245779,30.42989298429064],[-84.15890678849358,30.42977474502294],[-84.15882704919093,30.42969489379381],[-84.15870805416927,30.42958065387104],[-84.15856456985014,30.42944027307594],[-84.15847994570582,30.42934081603295],[-84.15837707231834,30.42922085944714],[-84.15831836123209,30.42912369455062],[-84.15809895856935,30.42903405687762],[-84.15789234777812,30.4289391119037],[-84.15744042546498,30.42869727827554],[-84.15706706605403,30.4285410391011],[-84.15655361043416,30.42833090974811],[-84.15613004845684,30.42811991923553],[-84.1555943898397,30.42786434282229],[-84.15540997950045,30.42777717092758],[-84.15519679234706,30.42769552489885],[-84.15494934257897,30.42761911395199],[-84.15475273647327,30.42755256220578],[-84.15449557386741,30.42747189832543],[-84.15424936035893,30.42739908803769]]}}
