{"type":"Feature","properties":{"name":"Tallahassee-4k","legacyMeetId":"5947","distance":"4k"},"geometry":{"type":"LineString","coordinates":[[-84.15892018077176,30.42855281155881],[-84.1527632666687,30.42670669709053],[-84.15246521745594,30.42667215156144],[-84.15213996882247,30.42671102209403],[-84.15191610161509,30.42679743345645],[-84.15175162826839,30.42691866134053],[-84.15169411350607,30.42712342692551],[-84.15169297558376,30.42715406871419],[-84.15163766452389,30.42743535681273],[-84.1516322340603,30.42745727735301],[-84.15148589035341,30.42808698101507],[-84.1514803874832,30.42809600755763],[-84.1513102635688,30.42821792404392],[-84.15093311379698,30.42828202370528],[-84.14986567383023,30.42834769560632],[-84.14966714854879,30.42842561225632],[-84.14966129015549,30.42843477004509],[-84.14963592216515,30.42857245531579],[-84.14964700427386,30.42878938453315],[-84.14966091852956,30.42912463568975],[-84.14963536414206,30.42940755541039],[-84.14992042734386,30.42952514660035],[-84.15017509662945,30.42969690989582],[-84.15045726424111,30.42988862093313],[-84.15046778141148,30.42989333038371],[-84.15070818886915,30.42999911004724],[-84.15080787643335,30.42992699295095],[-84.15080929684828,30.42976510177822],[-84.15065028008657,30.42936881684935],[-84.15058619803054,30.42901088068426],[-84.15058642458465,30.42900623341721],[-84.15063528234916,30.42883130649229],[-84.15082512713397,30.42872411926569],[-84.15119251513856,30.42866096583975],[-84.15163635398046,30.42863514025746],[-84.15195266948899,30.42866532804064],[-84.1523866590444,30.42860467242176],[-84.15272811363619,30.42852824842785],[-84.15333236182069,30.42832892099428],[-84.15386699701688,30.42837939959552],[-84.15434593759863,30.42861722253815],[-84.1547238002035,30.42897271022041],[-84.15501334119197,30.42925596300941],[-84.15595756956183,30.42936752961986],[-84.15652837809778,30.42893507551915],[-84.1564332787181,30.42839894696425],[-84.15373628424575,30.42699860381087],[-84.15287949117935,30.42673263004828],[-84.15259217151603,30.42666782778443],[-84.1522570189261,30.42668942449509],[-84.15199365377134,30.42675846658039],[-84.15180872210604,30.42685799508399],[-84.15165682250978,30.42730773269979],[-84.15156977298508,30.42763884872667],[-84.15149450846681,30.42799239939481],[-84.15140512730692,30.42817716671765],[-84.1510882737703,30.42828236083713],[-84.15062592495087,30.42830463717645],[-84.15025853316885,30.42839764116696],[-84.15010041666008,30.42858598970115],[-84.1501864630847,30.4287330135605],[-84.15042115922066,30.42885746310695],[-84.15069491841018,30.42880313255989],[-84.15103635292992,30.42865588385834],[-84.15147055994211,30.42861134454579],[-84.15180201573286,30.4286549165996],[-84.15218306436795,30.42862112202585],[-84.15256040055922,30.42854574712547],[-84.1529911830501,30.42841053448731],[-84.15356813503408,30.42832934001351],[-84.15401944493104,30.42843984060107],[-84.15448916910327,30.42873711099065],[-84.15480338762495,30.42900495383878],[-84.15497637385256,30.42924720835602],[-84.15595683503088,30.42934850411073],[-84.15652357782176,30.42894438551053],[-84.15641026966166,30.42834874074612],[-84.15412665889309,30.42735946715136]]}}
