{"type":"Feature","properties":{"name":"Tallahassee-2k","legacyMeetId":"5947","distance":"2k"},"geometry":{"type":"LineString","coordinates":[[-84.15894200914522,30.42856646855157],[-84.15289972900175,30.4267369531775],[-84.15235444121399,30.42665488845197],[-84.1518767507069,30.42678870758488],[-84.15170641835,30.42705793052973],[-84.15160351555274,30.42755452602244],[-84.15150759107313,30.42792045311317],[-84.15143233471575,30.42813220743963],[-84.1505811449971,30.42834614938727],[-84.15057594344427,30.428346152772],[-84.15021864774027,30.42844817041387],[-84.15011035007743,30.42859516232164],[-84.15022731665685,30.42875592294613],[-84.15023186283629,30.428769721074],[-84.15053053364312,30.42885801016186],[-84.15087135397907,30.42872919922597],[-84.15115746369591,30.4286374538156],[-84.1511782995145,30.42863751224378],[-84.15248138213448,30.42857749803916],[-84.15322212173943,30.42836521904579],[-84.15402471692481,30.42844449040924],[-84.15485812953425,30.42911269112442],[-84.15538157332624,30.42928289311758],[-84.1560034362669,30.42932033472852],[-84.15653837948443,30.42892574162014],[-84.15642039662872,30.42834430604269],[-84.15409066874372,30.42735502834294]]}}
