{"type":"Feature","properties":{"name":"Tallahassee-3k","legacyMeetId":"8239","distance":"3k"},"geometry":{"type":"LineString","coordinates":[[-84.15893967210485,30.42853903489932],[-84.15368523609534,30.42697230366424],[-84.15272823539713,30.42668941233501],[-84.15239472726394,30.42666351858777],[-84.15206504515642,30.42671098375554],[-84.15204023364842,30.42671096400323],[-84.15202051913359,30.42671094585085],[-84.15177751317509,30.42688401105409],[-84.15170334419945,30.4271453452176],[-84.15169726872453,30.42716730334236],[-84.15168668814223,30.42718910575223],[-84.15159489572612,30.42751457694257],[-84.1515894132959,30.42752781189523],[-84.15152532453227,30.42800569422771],[-84.15137814788501,30.42820434630959],[-84.15099458022522,30.42829135423075],[-84.15096321408188,30.42829589956111],[-84.15039318626141,30.42834217968032],[-84.1497878498037,30.42834755487244],[-84.14912696205678,30.42843381462631],[-84.14911655068349,30.42843384276185],[-84.14889415368711,30.42855268099305],[-84.14879338579095,30.42870428621442],[-84.14873011017102,30.42895022252056],[-84.14879454971289,30.42916146523372],[-84.14891357474053,30.42931674747924],[-84.14891889207892,30.42931673026659],[-84.14908680992176,30.42939267165225],[-84.14950726141663,30.42940825578368],[-84.14982404985962,30.42944966955896],[-84.15013451299687,30.42966350634266],[-84.1504106651773,30.42985993704175],[-84.15065733270649,30.42995985968493],[-84.15081781304225,30.42993693903735],[-84.15082999922039,30.42977484399734],[-84.1506719300351,30.42945433545014],[-84.15060443368388,30.42916061974848],[-84.15059745881885,30.42889016297022],[-84.15075657787729,30.42874673853649],[-84.15141298305755,30.428620274569],[-84.15202564836507,30.42866584961174],[-84.15242403842412,30.42857245844203],[-84.15276499211802,30.42851457493886],[-84.15347910565258,30.42832437464119],[-84.15394055884418,30.42841190903517],[-84.15468137065676,30.42894981779851],[-84.15510051804169,30.42938262741004],[-84.15554830518057,30.42968842458806],[-84.15596164179752,30.42994577633144],[-84.15664931345312,30.43006008354973],[-84.15741973263668,30.43012284116459],[-84.15783201266925,30.4302543733268],[-84.15842001943886,30.43026887094473],[-84.15872683490223,30.4300540629815],[-84.15873030734225,30.43003912132752],[-84.15873309927382,30.43001460338636],[-84.15884540032678,30.42975833225714],[-84.15884998915823,30.42975336371332],[-84.15887359687923,30.42958422392652],[-84.15885095195554,30.42956985900234],[-84.1582376444139,30.42911113377727],[-84.15822658919421,30.42910188618526],[-84.15767114583569,30.42881212204103],[-84.15765481729444,30.42880286165663],[-84.15763266005129,30.4287843528451],[-84.15410613478706,30.42735506460688]]}}
