{"type":"Feature","properties":{"name":"TTU-6k","legacyMeetId":"5853","distance":"6k"},"geometry":{"type":"LineString","coordinates":[[-101.9374202285211,33.56921942662115],[-101.9369140217887,33.56433298691076],[-101.9367378398944,33.56415304519887],[-101.9366201632062,33.56412140499324],[-101.9364661996561,33.56407654344075],[-101.935959365892,33.56399238523216],[-101.9352770495661,33.56391826032191],[-101.9349774659033,33.56396172906092],[-101.9348497096882,33.56400557842582],[-101.9347664083522,33.5640765412038],[-101.9348966420484,33.56425593689809],[-101.9349817950518,33.56440197740174],[-101.9349767132136,33.56445223329617],[-101.934955447224,33.56453493421271],[-101.9349431537597,33.56457808363342],[-101.9347958984129,33.56483501542468],[-101.9347603665512,33.56504002050092],[-101.9348277041199,33.56523622129266],[-101.9349649532516,33.56537091902457],[-101.9354322345916,33.56578278799863],[-101.9356766451159,33.56603810035398],[-101.9359398596204,33.56650726486842],[-101.9360432805519,33.56685285371695],[-101.9360953817102,33.56712506785804],[-101.936076012384,33.5672317248053],[-101.9359713002834,33.56721638310729],[-101.9359311179905,33.56700685024753],[-101.9357337078128,33.56645939990229],[-101.9352553065375,33.56574632665519],[-101.9347761682814,33.56530317155713],[-101.9344514548439,33.56498672422331],[-101.9342089814352,33.56467237567674],[-101.9341104786143,33.56438015016782],[-101.9340794189465,33.56414850986862],[-101.9340827964697,33.56397046599318],[-101.9341321608287,33.56382818661416],[-101.9342170339852,33.56374808376257],[-101.9344503133067,33.5637355554174],[-101.9351684209652,33.56379008424731],[-101.9376729106081,33.56398360856688],[-101.9386379403567,33.56398799455343],[-101.9390726460266,33.56402322700734],[-101.9391583124401,33.56407654218544],[-101.9392071618998,33.56415758008186],[-101.9392516025846,33.56433768357243],[-101.9392411298949,33.56518102781292],[-101.9392578514603,33.56583790643852],[-101.9393110188558,33.56639165237975],[-101.9394093717351,33.56669537625859],[-101.9395437172427,33.56694776251809],[-101.9397413523182,33.56721342810037],[-101.9398069587137,33.56746779989413],[-101.9398392813927,33.56809180102567],[-101.9398338033907,33.56866223307117],[-101.9398289706813,33.56911866787586],[-101.9397250688505,33.56931131571925],[-101.9395757042007,33.56938353718294],[-101.9391664059509,33.56950890655399],[-101.9388228358312,33.56957236143229],[-101.9385894674915,33.56958298521227],[-101.9383169230103,33.56956174225346],[-101.9380340327592,33.56946687066339],[-101.9378464822627,33.56932156384409],[-101.9377490978361,33.56899943450652],[-101.9372406427121,33.56630465655824],[-101.9370738796811,33.56541080844947],[-101.9369174434287,33.56438015129245],[-101.9368770320768,33.56427694881971],[-101.9367796745094,33.56418032202607],[-101.9366583151549,33.56412140500981],[-101.9365599653474,33.56409444054706],[-101.9364110442879,33.56405426034272],[-101.9360834730759,33.56401881028027],[-101.9357695195104,33.56397046994673],[-101.9353821362201,33.56393126178241],[-101.9351490422994,33.56392692377147],[-101.9349087032812,33.56397484370051],[-101.934795083112,33.56403650192623],[-101.9347507063386,33.56412140288626],[-101.9348397129091,33.56418944509686],[-101.9349770755801,33.56437541498545],[-101.9349808199197,33.56449511059132],[-101.9349016257362,33.5646773840981],[-101.9347852065219,33.56492868456615],[-101.9347777776577,33.56512637329438],[-101.9348955737265,33.56529195779787],[-101.9351109321371,33.56550886639052],[-101.9354721632982,33.56585022321835],[-101.9357212660577,33.56608920592907],[-101.9359176374296,33.56643899631748],[-101.9360365761785,33.5667951389086],[-101.9361148175378,33.56720872462049],[-101.9360002011687,33.56724710281775],[-101.9358656911692,33.56681672239952],[-101.9356702692554,33.56635804761081],[-101.935314368141,33.56582561332146],[-101.9351364626565,33.56563827491153],[-101.9347393685562,33.56525288505301],[-101.9344170714014,33.56493919246025],[-101.9341880133718,33.56462254109215],[-101.9341320307371,33.56442296582723],[-101.9340895327292,33.56427230407339],[-101.9340795669007,33.56404093335951],[-101.9341087075512,33.56388805189743],[-101.9341803469879,33.56377744406738],[-101.934293052967,33.56373972770056],[-101.9348055522239,33.563764841939],[-101.9354298665657,33.5637985275338],[-101.9375970119227,33.56396609939723],[-101.9379598834807,33.56398360840267],[-101.9388134587148,33.56399677935293],[-101.9390317175766,33.56400557960219],[-101.9391209289971,33.56405425912003],[-101.9391833028423,33.56410790372689],[-101.939228221783,33.56421691749605],[-101.9392635330315,33.56447577532237],[-101.9392313924577,33.56512637205748],[-101.9392544013623,33.56575238822105],[-101.9393001139654,33.56629138874221],[-101.9393630940405,33.56656242450514],[-101.9394868237313,33.56683115810893],[-101.9396522108725,33.56707398845401],[-101.9398036992949,33.56735945112456],[-101.9398282768475,33.5675800692515],[-101.9398434315042,33.56822357218336],[-101.939820519938,33.56882412306037],[-101.9397960809556,33.5692194559228],[-101.939651157681,33.56934528076776],[-101.9393329038305,33.56944596253139],[-101.9389949700446,33.56954056934395],[-101.9387130140147,33.56957235980679],[-101.9384429391259,33.56958298339646],[-101.9381753643298,33.56951943394281],[-101.9379488885181,33.56939893279289],[-101.9376213091972,33.56723559376236]]}}
