{"type":"Feature","properties":{"name":"TTU-10k","legacyMeetId":"5853","distance":"10k"},"geometry":{"type":"LineString","coordinates":[[-101.9374202285211,33.56921942662115],[-101.9369140217887,33.56433298691076],[-101.9367378398944,33.56415304519887],[-101.9366201632062,33.56412140499324],[-101.9364661996561,33.56407654344075],[-101.935959365892,33.56399238523216],[-101.9352770495661,33.56391826032191],[-101.9349774659033,33.56396172906092],[-101.9348497096882,33.56400557842582],[-101.9347664083522,33.5640765412038],[-101.9347679960626,33.56414851117526],[-101.9348931472059,33.56420774355719],[-101.9353310383162,33.56433768363826],[-101.9364796210469,33.56455354460662],[-101.9366086244734,33.56464241816644],[-101.9366176073567,33.56474800290845],[-101.9366021096158,33.56484017559286],[-101.9364924225599,33.56487644643536],[-101.9363489922053,33.56487644651907],[-101.9362553988331,33.56483501383713],[-101.9361619936805,33.56474800308978],[-101.9360673416315,33.56468741535996],[-101.9358661607919,33.56460768020944],[-101.9356707385492,33.56454376078366],[-101.935429896227,33.56449995555507],[-101.9352497615156,33.56443252854579],[-101.9351611157152,33.56440865540976],[-101.9350531077773,33.5644565105034],[-101.9349431537597,33.56457808363342],[-101.9347958984129,33.56483501542468],[-101.9347603665512,33.56504002050092],[-101.9348277041199,33.56523622129266],[-101.9349649532516,33.56537091902457],[-101.9354322345916,33.56578278799863],[-101.9356766451159,33.56603810035398],[-101.9359398596204,33.56650726486842],[-101.9360432805519,33.56685285371695],[-101.9361700319053,33.56731056885501],[-101.9362701377111,33.56785220347893],[-101.9362728702351,33.56819700147546],[-101.9361796319977,33.56837588946967],[-101.9360429102248,33.56839402640855],[-101.9360629608282,33.56823242499747],[-101.9360814012481,33.56792832255568],[-101.936036372229,33.56754778744297],[-101.9359311179905,33.56700685024753],[-101.9357337078128,33.56645939990229],[-101.9352553065375,33.56574632665519],[-101.9347761682814,33.56530317155713],[-101.9344514548439,33.56498672422331],[-101.9342089814352,33.56467237567674],[-101.9341104786143,33.56438015016782],[-101.9340794189465,33.56414850986862],[-101.9340827964697,33.56397046599318],[-101.9341321608287,33.56382818661416],[-101.9342170339852,33.56374808376257],[-101.9344503133067,33.5637355554174],[-101.9351684209652,33.56379008424731],[-101.9376729106081,33.56398360856688],[-101.9386379403567,33.56398799455343],[-101.9390726460266,33.56402322700734],[-101.9391583124401,33.56407654218544],[-101.9392071618998,33.56415758008186],[-101.9392516025846,33.56433768357243],[-101.9392411298949,33.56518102781292],[-101.9392578514603,33.56583790643852],[-101.9393110188558,33.56639165237975],[-101.9394093717351,33.56669537625859],[-101.9395437172427,33.56694776251809],[-101.9397413523182,33.56721342810037],[-101.9398069587137,33.56746779989413],[-101.9398392813927,33.56809180102567],[-101.9398338033907,33.56866223307117],[-101.9398289706813,33.56911866787586],[-101.9397250688505,33.56931131571925],[-101.9395757042007,33.56938353718294],[-101.9391664059509,33.56950890655399],[-101.9388228358312,33.56957236143229],[-101.9385894674915,33.56958298521227],[-101.9383169230103,33.56956174225346],[-101.9380340327592,33.56946687066339],[-101.9378464822627,33.56932156384409],[-101.9377490978361,33.56899943450652],[-101.9372406427121,33.56630465655824],[-101.9370738796811,33.56541080844947],[-101.9369174434287,33.56438015129245],[-101.9368770320768,33.56427694881971],[-101.9367796745094,33.56418032202607],[-101.9366583151549,33.56412140500981],[-101.9365599653474,33.56409444054706],[-101.9364110442879,33.56405426034272],[-101.9360834730759,33.56401881028027],[-101.9357695195104,33.56397046994673],[-101.9353821362201,33.56393126178241],[-101.9351490422994,33.56392692377147],[-101.9349087032812,33.56397484370051],[-101.934795083112,33.56403650192623],[-101.9347507063386,33.56412140288626],[-101.9348397129091,33.56418944509686],[-101.9349770755801,33.56437541498545],[-101.9349808199197,33.56449511059132],[-101.9349016257362,33.5646773840981],[-101.9347852065219,33.56492868456615],[-101.9347777776577,33.56512637329438],[-101.9348955737265,33.56529195779787],[-101.9351109321371,33.56550886639052],[-101.9354721632982,33.56585022321835],[-101.9357212660577,33.56608920592907],[-101.9359176374296,33.56643899631748],[-101.9360365761785,33.5667951389086],[-101.9361450685735,33.56723332333691],[-101.9362635836481,33.56776028802788],[-101.9362782200086,33.56811794035194],[-101.9362307497993,33.56832175333961],[-101.9361024108188,33.56841220749045],[-101.9360286763409,33.5683217549712],[-101.9360524484548,33.56811794202213],[-101.9360442231155,33.56775199368759],[-101.9359905995217,33.5672873021594],[-101.9358656911692,33.56681672239952],[-101.9356702692554,33.56635804761081],[-101.935314368141,33.56582561332146],[-101.9351364626565,33.56563827491153],[-101.9347393685562,33.56525288505301],[-101.9344170714014,33.56493919246025],[-101.9341880133718,33.56462254109215],[-101.9341320307371,33.56442296582723],[-101.9340895327292,33.56427230407339],[-101.9340795669007,33.56404093335951],[-101.9341087075512,33.56388805189743],[-101.9341803469879,33.56377744406738],[-101.934293052967,33.56373972770056],[-101.9348055522239,33.563764841939],[-101.9354298665657,33.5637985275338],[-101.9375970119227,33.56396609939723],[-101.9379598834807,33.56398360840267],[-101.9388134587148,33.56399677935293],[-101.9390317175766,33.56400557960219],[-101.9391209289971,33.56405425912003],[-101.9391833028423,33.56410790372689],[-101.939228221783,33.56421691749605],[-101.9392635330315,33.56447577532237],[-101.9392313924577,33.56512637205748],[-101.9392544013623,33.56575238822105],[-101.9393001139654,33.56629138874221],[-101.9393630940405,33.56656242450514],[-101.9394868237313,33.56683115810893],[-101.9396522108725,33.56707398845401],[-101.9398036992949,33.56735945112456],[-101.9398282768475,33.5675800692515],[-101.9398434315042,33.56822357218336],[-101.939820519938,33.56882412306037],[-101.9397960809556,33.5692194559228],[-101.939651157681,33.56934528076776],[-101.9393329038305,33.56944596253139],[-101.9389949700446,33.56954056934395],[-101.9387130140147,33.56957235980679],[-101.9384429391259,33.56958298339646],[-101.9381753643298,33.56951943394281],[-101.9379439098102,33.56940426145063],[-101.9377822991197,33.56913869066999],[-101.9377155699418,33.56883373036509],[-101.9372234000476,33.56619271965283],[-101.9370645156954,33.56532002859192],[-101.9370180572501,33.56497612270775],[-101.9369183128509,33.5643518013465],[-101.9368402613775,33.56422610858579],[-101.9367007609447,33.56413042506013],[-101.9365092524411,33.56407207900771],[-101.9362856406869,33.56402764965764],[-101.9360231643031,33.56400998649769],[-101.9358816888553,33.5639748455034],[-101.9355405194912,33.56393560336046],[-101.9353331366937,33.56391826044262],[-101.9352089757373,33.56393126141624],[-101.9350676330701,33.56393560237244],[-101.93493715197,33.56396560079465],[-101.9348652403494,33.56398769430311],[-101.9348131168373,33.56401492535178],[-101.9347569655415,33.56410071643219],[-101.9348051761824,33.56416279514959],[-101.9348926103055,33.56425567495349],[-101.9349796067194,33.56441037979989],[-101.9349748588844,33.56453752530347],[-101.9349264304645,33.56461812695007],[-101.9348224661124,33.56480151064549],[-101.9347906731383,33.56487910691605],[-101.9347791541106,33.56499217512267],[-101.9347794384739,33.56508122751909],[-101.934813037913,33.56518332058204],[-101.9348689099386,33.5652627923244],[-101.9349307006409,33.56533660886527],[-101.9350643484178,33.5654502419649],[-101.9354009915481,33.5657757426174],[-101.9356161331467,33.56597823271994],[-101.9357699858167,33.56617776456037],[-101.9358974599305,33.56639750879979],[-101.9359638503402,33.56657291430372],[-101.936069542977,33.56692477075829],[-101.9361594552589,33.56727709134633],[-101.9362757697365,33.56796148346265],[-101.9362540315374,33.56826185182913],[-101.936141615253,33.5683962764303],[-101.9360578033878,33.56835107690086],[-101.9360515639383,33.56817418092984],[-101.9360616924174,33.56785169485389],[-101.9360138899833,33.56741737758517],[-101.9359512477061,33.56710614453046],[-101.9357778415371,33.56658316663592],[-101.9355228030032,33.56614073958205],[-101.9352939679879,33.56579257075048],[-101.9351919285849,33.56569271311601],[-101.9349773703947,33.5654889225851],[-101.9346905993872,33.56521201634739],[-101.9344853625946,33.56499894921247],[-101.9343435682911,33.56484332637518],[-101.9341568203988,33.56455527390338],[-101.9341191903895,33.56440473040515],[-101.9341038673355,33.56433207246099],[-101.9340843760203,33.5642102152546],[-101.9340719770543,33.56409816369642],[-101.9341011749832,33.56392915363853],[-101.9341677963152,33.56379698954203],[-101.9342622136722,33.5637421730894],[-101.9345247280156,33.56374896546135],[-101.9349996997939,33.56377630321958],[-101.9353112608371,33.56379928884525],[-101.9376355592873,33.56398028223263],[-101.937926161906,33.56398519836495],[-101.9385944334691,33.56398765247516],[-101.9387638521787,33.56399505162082],[-101.9389467427408,33.56400742642636],[-101.9390524099033,33.56401356163035],[-101.9391070282938,33.56403523125918],[-101.9391383698044,33.564062535361],[-101.9391941524711,33.5641290647133],[-101.9392108446472,33.56417990953504],[-101.9392382348644,33.56428118133717],[-101.9392513126108,33.56451586222576],[-101.9392380506343,33.56529624684977],[-101.9392747789947,33.56592097063474],[-101.9392941766084,33.56623929584058],[-101.9393461502346,33.56648710695346],[-101.9393821140848,33.56662757365024],[-101.939455888,33.56677270183938],[-101.9395300921448,33.5668993181525],[-101.9396148124541,33.56702959263251],[-101.9397088018801,33.56715750626162],[-101.9397649437218,33.56728269963669],[-101.9398180313165,33.5676656501605],[-101.9398454574048,33.56838092234521],[-101.9398186778813,33.56876272106707],[-101.9398316705559,33.56906352541142],[-101.9398179367767,33.56918025975263],[-101.9397609469482,33.56926210434952],[-101.9396030973127,33.56936054907779],[-101.9394810412704,33.56938353697902],[-101.9392421030256,33.56948434702465],[-101.9390777386966,33.56952364554099],[-101.9389044808845,33.56954736767088],[-101.9386472901394,33.56956324355406],[-101.9384883846698,33.56956324520877],[-101.938371801231,33.56955530368764],[-101.9382439413723,33.5695315483973],[-101.9381310280864,33.56950790020726],[-101.937995873158,33.56944535449956],[-101.9379346824548,33.5693452941953],[-101.9376250593772,33.56723559368464]]}}
