{"type":"Feature","properties":{"name":"Virginia-5k","legacyMeetId":"5801","distance":"5k"},"geometry":{"type":"LineString","coordinates":[[-78.49470676985364,38.1214744597325],[-78.49467431683408,38.11917466963344],[-78.49453218989336,38.11709865017937],[-78.49448020786346,38.11673762235149],[-78.49446755473775,38.11661611636634],[-78.49441298284378,38.11640052421843],[-78.49438858216192,38.11629129150209],[-78.49439486555897,38.11611611757139],[-78.4944039295031,38.11577058348577],[-78.49442726583689,38.11558378016887],[-78.49451733072272,38.11506860860902],[-78.49453530175884,38.11499834996243],[-78.4946725342043,38.11472407006347],[-78.49494929585204,38.11415465163989],[-78.49496570648303,38.11398461489104],[-78.49497490584402,38.11382817127782],[-78.4949973855863,38.11349381046633],[-78.49501074530966,38.11325804725017],[-78.49503392095397,38.11308518140884],[-78.49504768408333,38.1130172745595],[-78.49510290720586,38.11297841401274],[-78.49516430369479,38.11294235026145],[-78.49523305414046,38.11296035940093],[-78.4952915676707,38.11299134633499],[-78.49533232609171,38.11306421880384],[-78.49541809383818,38.11323116816858],[-78.49548283879324,38.11336669471913],[-78.49559185711577,38.11365184379137],[-78.49562922420057,38.11374958100993],[-78.49561385965082,38.11386634868046],[-78.49560812067725,38.11405730626901],[-78.49556981318406,38.11422870562041],[-78.4955753049281,38.11435998989836],[-78.49557099415738,38.11496110229638],[-78.49558135945415,38.11536136735695],[-78.49559301237691,38.11571899953837],[-78.49561827301984,38.11601483641851],[-78.49554662398795,38.11627255240404],[-78.49549066668007,38.11645167808547],[-78.49539260005177,38.11662893859445],[-78.49529959512739,38.11680731232791],[-78.49524267271799,38.11691976902715],[-78.49507902799512,38.11700691999753],[-78.49481956817421,38.1170542654538],[-78.49441243751026,38.11711899767401],[-78.49423632512033,38.11722930020633],[-78.49420391098172,38.11730256644746],[-78.49420713492667,38.11741557550099],[-78.49423958723456,38.11825190744983],[-78.49421069937542,38.11871967353972],[-78.49421388505206,38.11942484048371],[-78.4942291010518,38.12052094145128],[-78.49424912666707,38.12096665652319],[-78.49424833622342,38.12112887633714],[-78.49422927019076,38.12126994968546],[-78.49420651239112,38.12132706253823],[-78.4941644983011,38.12142906612227],[-78.49409405128495,38.1215020980348],[-78.4940099359036,38.12158642575145],[-78.49383957164825,38.12163960147539],[-78.4935491238263,38.12167882732562],[-78.4933990379828,38.12173624722639],[-78.4933406471614,38.12182682824244],[-78.49333831666266,38.12191110243524],[-78.4933932416526,38.121962847675],[-78.49351924614,38.12199629508975],[-78.49361551712894,38.12201867271889],[-78.49377182645165,38.12198513726445],[-78.49410711230722,38.12187803587088],[-78.49440115961029,38.12174708553021],[-78.49456978107516,38.12170392218046],[-78.49480550294217,38.12168959163702],[-78.49491636965955,38.1216681400395],[-78.49497563885141,38.12153714320944],[-78.4949912337143,38.12135674589871],[-78.49503958324497,38.12084015619043],[-78.49509873306546,38.1198084873184],[-78.49515207133258,38.11893321334297],[-78.49521122082444,38.11799256991709],[-78.49524440631085,38.11738810319728],[-78.49525516711289,38.11719209172409],[-78.49527184395471,38.11710979072755],[-78.4953292854526,38.11687570209564],[-78.49536089091905,38.11670222677338],[-78.49542813495734,38.11657883448181],[-78.49547106350641,38.11649987556325],[-78.49552572938197,38.11636048260201],[-78.49556869422341,38.11620166244709],[-78.49561013461584,38.11609871254684],[-78.49561925406987,38.11593033752467],[-78.49559965432044,38.11577472690698],[-78.4955957005707,38.11559517628013],[-78.49558374194586,38.11540914695284],[-78.49557784538041,38.11514170327338],[-78.4955720051006,38.1148768073496],[-78.49557973808045,38.11440473897583],[-78.49558048056103,38.11428225995186],[-78.49558463373072,38.11415588239813],[-78.49561628618862,38.11400540409399],[-78.49561701402949,38.11390109856376],[-78.49561773107753,38.1137983376938],[-78.49560500733544,38.11371106058461],[-78.4955674406803,38.11358357126871],[-78.4954990930511,38.1134074191597],[-78.49545352830486,38.1133012743487],[-78.4953715742799,38.11314003609807],[-78.49531142273568,38.11302543927236],[-78.49525561374341,38.112970139165],[-78.49519363552662,38.11295014562013],[-78.49512830100846,38.11296263210304],[-78.49506586559646,38.11299270043726],[-78.4950354875194,38.11305072568635],[-78.49502688163061,38.1131735111023],[-78.49501389397935,38.11334882039965],[-78.49499002591267,38.11354522775007],[-78.49497831041566,38.11379832327545],[-78.49497237139772,38.11392412811373],[-78.49496614786581,38.11406107374239],[-78.49492761068508,38.11420074365602],[-78.4948786349343,38.11429743866783],[-78.49469079219716,38.11469456430124],[-78.49456051146268,38.11495293950781],[-78.4945057594499,38.11514850351194],[-78.49443568890003,38.11554102203544],[-78.49441944478806,38.11570085791879],[-78.49439745088951,38.11596583682126],[-78.49439209752678,38.11622031825731],[-78.4943971810961,38.11635859606356],[-78.49444630711088,38.1165358187357],[-78.49447715073767,38.11667736570501],[-78.49450352843597,38.11685486232776],[-78.49452390225606,38.11702439587703],[-78.49429140122714,38.11717885408172],[-78.49421223151704,38.11736274189074],[-78.49421520103046,38.1175916365905],[-78.4942330152129,38.11819429494427],[-78.49421314365304,38.11867516666311],[-78.49421601740505,38.1193908705309],[-78.49423660374758,38.12047603594709],[-78.4942355364006,38.12091650409588],[-78.49425419936377,38.12106562469177],[-78.49422636838615,38.12121800920815],[-78.49418959045119,38.12139556846969],[-78.49411864543536,38.12147211227476],[-78.49405365323416,38.12155949011091],[-78.4939030534252,38.1216257229917],[-78.49368177244489,38.12165795538472],[-78.49346733641673,38.12171007690036],[-78.49335215218767,38.12179236769871],[-78.49334375490069,38.1218823708651],[-78.493360182931,38.12194702304301],[-78.49344902215454,38.12198061964408],[-78.49356400446489,38.12200232697569],[-78.4936988420078,38.12199677379692],[-78.49389568524501,38.12195410103309],[-78.49422705066452,38.12183112383555],[-78.49447751215935,38.12172205760077],[-78.49470672389344,38.12169995002772],[-78.4948685502901,38.12167573379438],[-78.49499016009787,38.12168835026153],[-78.49503987996415,38.12159442746518],[-78.49511711336706,38.12147865295471],[-78.49520185241113,38.12144819445091],[-78.49523257782224,38.1213951423915],[-78.49526212835553,38.1211248173192],[-78.49527711625993,38.12074881263415],[-78.49532932240587,38.12036465822979],[-78.49537088962654,38.12004257449215],[-78.4954193469389,38.11967734826783],[-78.49544639551605,38.11949864909803],[-78.4954587260578,38.11940123037325],[-78.49549332924279,38.1193694160009],[-78.49554462108355,38.11934542830666],[-78.49589755233312,38.11935871892975],[-78.49614421684005,38.1193901257595],[-78.49619610061382,38.11941593150132],[-78.49626206882395,38.11945798716218],[-78.49632147736624,38.11951744872436],[-78.49639242555362,38.11962404827365],[-78.49651614813021,38.11979739402337],[-78.49666228457218,38.11997834156174],[-78.49678660766057,38.12014918549026],[-78.4968338975626,38.12020782730693],[-78.49685737588018,38.1203056483989],[-78.49684873482475,38.12036004292578],[-78.4965973262276,38.12166732494902]]}}
