{"type":"Feature","properties":{"name":"Virginia-10k","legacyMeetId":"5806","distance":"10k"},"geometry":{"type":"LineString","coordinates":[[-78.49464675040848,38.12162171562982],[-78.49470847220336,38.12077768986195],[-78.49471400070699,38.1195626827933],[-78.49469635047393,38.11888732386959],[-78.49458036653803,38.11766505389289],[-78.49446424688692,38.11684686662654],[-78.49440202528162,38.11632753722692],[-78.49438382719876,38.11599307390416],[-78.49441970787694,38.11581344235501],[-78.49448203747797,38.11557793012025],[-78.49487080328846,38.11444198700964],[-78.49492568133763,38.11428103150647],[-78.4949470189379,38.11417688014657],[-78.49496088484882,38.11405382377325],[-78.49493826056218,38.11368979781457],[-78.4949201160049,38.11338017333984],[-78.49491037826166,38.11322434657866],[-78.49494099505415,38.11311519306447],[-78.49499477232241,38.1130064315692],[-78.4950434588612,38.11295829791604],[-78.49511485835347,38.1129195077834],[-78.49519938590993,38.1129180674214],[-78.49525149482481,38.11294525174714],[-78.49528864694055,38.1129756183951],[-78.49531678961621,38.11301638357944],[-78.49535951482925,38.11309150857628],[-78.49544471876219,38.11333631743389],[-78.49557284143121,38.11364366002771],[-78.49561676204536,38.11380841587883],[-78.49562055880055,38.11382103379372],[-78.49564029245835,38.11393987301892],[-78.49561437347614,38.11404235873944],[-78.49561305652215,38.11404483118706],[-78.4956123429406,38.11405568411148],[-78.49556633819533,38.1146500280998],[-78.4955390147762,38.11501180821118],[-78.49554713703914,38.11532900172372],[-78.4955459231997,38.11535681516893],[-78.4955796742196,38.11567857848114],[-78.49563035650324,38.11587857073579],[-78.49561792667603,38.1161857219368],[-78.49548072977045,38.1165469528172],[-78.49532302059818,38.1168684549985],[-78.4952292313422,38.11696111425926],[-78.4950833373478,38.11702719533699],[-78.49475893100745,38.11707101672476],[-78.49443130261729,38.11713621834171],[-78.49433226784681,38.11718416683814],[-78.49428092947555,38.11722433004301],[-78.49425560841588,38.11727524881125],[-78.49425343517508,38.11727944667494],[-78.49423945988016,38.11733680579822],[-78.49425176663374,38.11737522130279],[-78.49432593814961,38.1175160268608],[-78.49447546347356,38.11774881628273],[-78.4945683063246,38.11792705793009],[-78.49458938189095,38.1183813713054],[-78.49459168981454,38.11872019905396],[-78.49458280912181,38.11936642908917],[-78.49458035150266,38.11958463463929],[-78.49453788930848,38.12019354636869],[-78.4945252109127,38.12041989861641],[-78.49446477898093,38.12095395188321],[-78.49439721440083,38.12130349075825],[-78.49437015534014,38.12136064237827],[-78.49426724351842,38.12147603222881],[-78.49390604658046,38.12163993991828],[-78.4937723413303,38.12172562389259],[-78.49374963509968,38.12176232021232],[-78.49374913269487,38.12176378502788],[-78.4937382642381,38.12180323570854],[-78.49374689803416,38.12184061641204],[-78.49374750518571,38.12184145803724],[-78.49376619376714,38.12187582908614],[-78.49380726604006,38.12191053073283],[-78.49385118770947,38.12192889040193],[-78.49390073024888,38.12193477880644],[-78.49399820440645,38.12191486530689],[-78.49414214635343,38.1218521070448],[-78.49442732201679,38.12175640599832],[-78.49458882293399,38.12172669107568],[-78.49469214917849,38.12172152001947],[-78.4949300981834,38.12171725596535],[-78.49534530265103,38.12171928416078],[-78.49570236729632,38.12172348692897],[-78.49610578703853,38.12171896779633],[-78.4962871071999,38.12169963236676],[-78.49636788386361,38.12167440869672],[-78.49641435212618,38.12166274548229],[-78.49647102107164,38.12162504950452],[-78.49653300604207,38.12158357408536],[-78.49658996327844,38.12152140622619],[-78.49662708397643,38.12146585441632],[-78.49675194437494,38.12107578882002],[-78.49688350052048,38.12062974785164],[-78.49690333211952,38.12053242891692],[-78.49690541464112,38.12046784123548],[-78.49690267888222,38.12038355812425],[-78.49689634830457,38.12032542464209],[-78.49686458700067,38.12022822051939],[-78.49682722281803,38.12015193298756],[-78.49675891593658,38.12006075187528],[-78.49664899989263,38.11994349740476],[-78.49656758726165,38.1198551755388],[-78.49645776039084,38.11971400562943],[-78.4963469690938,38.1195650956234],[-78.49628961028651,38.11949570664694],[-78.49623014026412,38.11945847680258],[-78.49615139302863,38.11941548608853],[-78.496096937411,38.11939398696209],[-78.49598102372669,38.11936638241783],[-78.4959164106579,38.11935380725937],[-78.49582903296174,38.11935055447238],[-78.49567159985709,38.11934867565629],[-78.4955852808872,38.11935949656446],[-78.4955820037877,38.11936003593885],[-78.49554740902525,38.11937035351579],[-78.49550122873444,38.11940908370604],[-78.49545886481727,38.11945747972123],[-78.49544190552744,38.11947771165746],[-78.49541889902369,38.11958153766423],[-78.49541541424882,38.119738433644],[-78.49538239165729,38.12015890860943],[-78.49535207353325,38.120450321485],[-78.49534835860233,38.12070575571668],[-78.49535167932562,38.12080450965556],[-78.49537718850193,38.12090824642513],[-78.49539967487131,38.12095673608192],[-78.49547472059454,38.12105129105743],[-78.49552603294191,38.12111961080451],[-78.4955557237118,38.12119654310631],[-78.49563481072843,38.12127276734451],[-78.49571220135857,38.12140753439736],[-78.49571973773116,38.12151387797561],[-78.49562790630816,38.121631873124],[-78.49546861232382,38.12164844590421],[-78.49540364499227,38.12164102524317],[-78.4953081801827,38.12160452099349],[-78.4952515276624,38.12154207006989],[-78.49520027409154,38.12142016616691],[-78.49516844210605,38.12125555161624],[-78.49504000416458,38.12076304814831],[-78.49492688018599,38.12016454711652],[-78.49500997764194,38.11951474834198],[-78.49505194850366,38.11912422327377],[-78.49525729600002,38.11728462921244],[-78.49516425405976,38.11707312838608],[-78.49497761441931,38.11704070396937],[-78.4948352788511,38.11704944060971],[-78.49458680489303,38.11710019216184],[-78.4943668698857,38.11715567513708],[-78.4942967899871,38.11719984342107],[-78.49426844453643,38.1172580826432],[-78.49423741031485,38.11730642269291],[-78.49425811341551,38.11740315696152],[-78.49436218179515,38.11758560693114],[-78.49449204189324,38.11779203031799],[-78.49454422783352,38.11790173651881],[-78.49456659967291,38.11800581784217],[-78.49457435128244,38.11833326495523],[-78.49458579674871,38.11868909744323],[-78.49457599138763,38.11930150534005],[-78.49457220791166,38.11952738782083],[-78.49455313730992,38.11973096725749],[-78.49452529188858,38.12031088839297],[-78.49450044402904,38.12058198924825],[-78.49443023188773,38.12113434344788],[-78.49440712043972,38.1212589624465],[-78.49433208821449,38.12142111665815],[-78.49418852517881,38.12151626753688],[-78.49397165348277,38.12161424762427],[-78.49384247177719,38.12167854954078],[-78.49374714893948,38.1217459869244],[-78.49372905049897,38.12178854447141],[-78.49373297371072,38.121825652798],[-78.49374669336603,38.12186569659954],[-78.49378429132241,38.12190539113433],[-78.49382305143348,38.12192075467698],[-78.49387579042114,38.12193095087945],[-78.49395118382978,38.12192085277877],[-78.49408027197353,38.12188735292362],[-78.49439213097449,38.1217753294768],[-78.49455398125498,38.12173341956368],[-78.49466097880499,38.12172538494889],[-78.49489784383637,38.12171887036099],[-78.49530960188045,38.12171859092577],[-78.49566776408477,38.121718001133],[-78.49607292818882,38.12172403884291],[-78.496252964865,38.12170177724157],[-78.49632032134106,38.12168518534288],[-78.49638487766914,38.12167172899238],[-78.4964383917956,38.12164427602521],[-78.49649026803327,38.1216045134766],[-78.49655682615757,38.12155544503123],[-78.4966013323756,38.12150065046781],[-78.49664635270227,38.12140256910213],[-78.49677906252099,38.12099479071435],[-78.49687090145581,38.12066857510808],[-78.4968923749533,38.12058090736227],[-78.49690879724754,38.12049106650793],[-78.49690247120824,38.12042416001364],[-78.49689594732999,38.12035357850444],[-78.49688258722465,38.12028397636463],[-78.49684665320318,38.12019325063756],[-78.49679204587183,38.12010634419925],[-78.49669258030238,38.11998838108117],[-78.49660365930102,38.11989456664624],[-78.49649433604566,38.11976388511538],[-78.49637123746838,38.11959309636199],[-78.49631360793795,38.11953114136477],[-78.49625647561324,38.11946859857265],[-78.49618198260806,38.1194280734932],[-78.49612508171796,38.11939942227095],[-78.49602833910872,38.11937230956658],[-78.49594437869983,38.11935747248062],[-78.49586564308719,38.11934969954648],[-78.49574581870637,38.11934687648727],[-78.49562370553447,38.1193546543608],[-78.49553298203513,38.11938176193562],[-78.49547233951951,38.1194383351037],[-78.4954278312354,38.11949596946076],[-78.49541506124366,38.11959865652602],[-78.49541236893452,38.11976282662125],[-78.49537914872107,38.12018289293679],[-78.49535331896706,38.12047865649117],[-78.49534760263631,38.12072719668824],[-78.49535311861237,38.12083197543635],[-78.49538290245705,38.12093262813006],[-78.49543522753008,38.12100199674904],[-78.49549747831537,38.12108054513514],[-78.49554075571669,38.12115919144483],[-78.49561298488307,38.12125513287102],[-78.4957002487632,38.12137822477284],[-78.49571324433572,38.12149281091646],[-78.49564791192583,38.12161559570675],[-78.49550003023107,38.12164939847674],[-78.49542792342223,38.12164458002935],[-78.49534195332747,38.12161788765913],[-78.495280375373,38.12157949337835],[-78.49523060892375,38.12152127764062],[-78.4951526613441,38.12122894216637],[-78.49511302244852,38.12102002358146],[-78.49493271104878,38.12019806711901],[-78.49494623404271,38.11996992601922],[-78.49500332618166,38.11956672735513],[-78.49515134245392,38.11822200937964],[-78.49525779262366,38.11733596722008],[-78.49524769118398,38.11723903056757],[-78.49519737646519,38.11712969129639],[-78.4951299052974,38.11706853606849],[-78.49501377396705,38.11704411421177],[-78.49489576835188,38.11704675866862],[-78.49478693730778,38.11706181666205],[-78.49465940443189,38.11709043575591],[-78.49449291890963,38.1171200186013],[-78.49439957591791,38.11714256004872],[-78.49434504536646,38.11717288295962],[-78.49427272047434,38.11723908588209],[-78.49424639936971,38.1172923814185],[-78.4942450868788,38.11735423333552],[-78.49427545690843,38.11743127264138],[-78.49434530533337,38.11755382106718],[-78.4944275053506,38.11768511496184],[-78.49447936085436,38.11777455792007],[-78.49453213898302,38.11787258575668],[-78.49456145142526,38.11796091431604],[-78.4945721647025,38.11828977454327],[-78.49458297593176,38.11859745954007],[-78.49457696085729,38.11904524271577],[-78.49457587925258,38.11947226152173],[-78.49456892666848,38.11968656591251],[-78.49452245415861,38.1202566886204],[-78.49450721077591,38.12050074522188],[-78.49448502836478,38.12070232758615],[-78.49445144839359,38.12102867607269],[-78.49441051887335,38.12121179095011],[-78.49437903188505,38.12133953262229],[-78.4943398006624,38.12140088031936],[-78.49428096744296,38.12144903598237],[-78.49421201297986,38.12150031075941],[-78.4940060817532,38.12159921005966],[-78.49394172523914,38.12162672620357],[-78.49386590165665,38.12166517972786],[-78.49380804794382,38.12170024856764],[-78.49374460558057,38.12175717298332],[-78.49373526849318,38.1217933555531],[-78.49374225940933,38.12185507956128],[-78.49377508333573,38.12189270992291],[-78.49381700284754,38.12191872969173],[-78.49386204303497,38.12192945377618],[-78.4939293498702,38.12192991658682],[-78.49397633617374,38.12191447321279],[-78.49404183129506,38.12189695641851],[-78.49411640688879,38.12186860978273],[-78.49427579814021,38.1218062958638],[-78.4944708267704,38.12175045325239],[-78.4946327791248,38.12172517016833],[-78.49507381384299,38.12171518877488],[-78.49556766064543,38.12172407437906],[-78.49585460749225,38.12172305704181],[-78.49608647235337,38.12172128602798],[-78.49621537343292,38.12171097752682],[-78.49626618330994,38.12169414225611],[-78.49633901199572,38.12168323264677],[-78.49639706367725,38.12166459304301],[-78.49645048927268,38.12163324120483],[-78.4965113135234,38.12159325703213],[-78.49654189584321,38.12156731494717],[-78.49657168095132,38.12153550244123],[-78.49661475967466,38.12148943226279],[-78.49663335324207,38.12143707684822],[-78.49667477967854,38.1213235840528],[-78.49684872183418,38.12074319610551],[-78.49687419332294,38.12064802542108],[-78.49688298547949,38.12059922284818],[-78.49690338150607,38.12051441388795],[-78.4969006922854,38.12043747450471],[-78.49689957864527,38.1204038242301],[-78.49688525771886,38.12030687912446],[-78.49687221908657,38.12025702162714],[-78.4968375401173,38.1201760807792],[-78.49677471262221,38.12008111613763],[-78.49672159064896,38.12002512324565],[-78.49662341219492,38.11991830801623],[-78.49654478909201,38.11982741135155],[-78.49647539270015,38.11973874526493],[-78.49640046453209,38.1196397021718],[-78.49635690324233,38.11957751917393],[-78.4963022663733,38.1195129842084],[-78.49620670840956,38.11944314227228],[-78.49605860758562,38.11938174969632],[-78.49592622846626,38.11935934998951],[-78.49577849754128,38.11934951766187],[-78.49564236067988,38.1193520337367],[-78.49556466839526,38.11936829641723],[-78.49551241431675,38.11939591036493],[-78.49544892081533,38.11946354056481],[-78.49542095067456,38.11954951706269],[-78.49541528210199,38.11969974202872],[-78.49540158669976,38.11988893170516],[-78.49535332378588,38.12042485055694],[-78.49535075188886,38.12053086044668],[-78.49534737175719,38.12076301199575],[-78.4953637369307,38.12085957191076],[-78.49539375759856,38.12094670332839],[-78.49541472123224,38.12097402646079],[-78.49545758845326,38.12103248735672],[-78.49548344729952,38.12106439786169],[-78.49552884734362,38.12113517043358],[-78.4955845568228,38.12122710690672],[-78.49567937696048,38.12134765261112],[-78.49571231623116,38.1214430547135],[-78.49570426529087,38.12152514165619],[-78.49565949166045,38.12160082171272],[-78.4956034938876,38.12163354802798],[-78.49552713082491,38.12164681432348],[-78.49544981322516,38.12164919735285],[-78.49537144481576,38.12163063246529],[-78.49532771102592,38.12161411875461],[-78.49526478082157,38.1215612685011],[-78.49522018537306,38.12149709540746],[-78.49515421567871,38.12127273406652],[-78.49513338827332,38.12111723414182],[-78.49506473672177,38.12084087744239],[-78.49499272482277,38.12050571226658],[-78.49493118490837,38.12017950872154],[-78.49493657231052,38.12006999371599],[-78.4950480756893,38.11916198895074],[-78.4950659930883,38.11903182847674],[-78.4952258653013,38.11759942975406],[-78.49525648705928,38.11730920678441],[-78.49525101612733,38.11726355101157],[-78.4952903438124,38.11699507416392],[-78.49535180461591,38.11682028482297],[-78.49559987103991,38.11627271705407],[-78.49562980015097,38.1159768875958],[-78.49560673773878,38.1157880107777],[-78.49555661453105,38.11551372637702],[-78.4955435556867,38.11522335446624],[-78.49554464839876,38.114832544503],[-78.49559610961924,38.11423882531088],[-78.49563071954961,38.11397632997375],[-78.49563116801414,38.1138704749497],[-78.49558749190541,38.11369913448541],[-78.49552661743127,38.11351956327311],[-78.49542118161105,38.11327708889564],[-78.49536286518392,38.11311612777386],[-78.49533091410775,38.11303586149267],[-78.49529817140753,38.11299207491491],[-78.49526351729915,38.11295728749449],[-78.49522524359206,38.11292942833862],[-78.49515357921538,38.11292029595391],[-78.49507885545526,38.11293666949742],[-78.4950131430272,38.1129805234585],[-78.49496050564404,38.11306450506396],[-78.49492589170102,38.1131680014102],[-78.49490256287626,38.11329626330074],[-78.49491645763744,38.11350561205928],[-78.49493749883888,38.1137520745997],[-78.4949441938884,38.1139517926001],[-78.49493591977561,38.11409288403075],[-78.49490082146214,38.11426099197752],[-78.49480965832521,38.11434823608046],[-78.49471447153917,38.11440240749951],[-78.49443914826936,38.11445545722376],[-78.49411449235424,38.1144791297146],[-78.49387527024358,38.11449514284746],[-78.49363980041464,38.11456234052105],[-78.49356918351259,38.11459844730425],[-78.49349113193915,38.11469641632463],[-78.49343783583255,38.11489410564916],[-78.49335534918715,38.11515294581707],[-78.49334624156572,38.11521763523372],[-78.49334597549947,38.11521946677882],[-78.49336146700016,38.11534781863848],[-78.4934303896745,38.11541083468644],[-78.49375657062103,38.11573234949584],[-78.49402796723078,38.11598226796175],[-78.49407318024724,38.11604317516925],[-78.49407242329713,38.11604992140888],[-78.49407281415552,38.11606156349495],[-78.49407108397784,38.11615565298986],[-78.49406266772965,38.11639603249462],[-78.49405362405591,38.11649780989738],[-78.49401336351202,38.11683062900048],[-78.49403613201775,38.11700801706508],[-78.49413592102624,38.1173086489413],[-78.49413898924777,38.11731170625455],[-78.4944049570639,38.11767580647965],[-78.4945161980488,38.11782513920717],[-78.49456460306135,38.11804443517468],[-78.4945790894569,38.11837044115115],[-78.49458806733102,38.1186453957295],[-78.49457786484487,38.11901872483921],[-78.49457738638873,38.11940738132012],[-78.49456737846683,38.11964550321022],[-78.49453628374415,38.12015046592328],[-78.49452140092683,38.12036772626141],[-78.49449215023584,38.12066286805734],[-78.49444015844517,38.12108303956084],[-78.49442233771188,38.12118037286665],[-78.49438814372914,38.12128460867005],[-78.49430237228198,38.12143544361519],[-78.49409211247826,38.12156692414366],[-78.4938425331479,38.12165397224772],[-78.49365570768668,38.12167162609937],[-78.49328268076495,38.12167475260716],[-78.49327927457124,38.12167498386979],[-78.49304727086897,38.12168964742231],[-78.49293354923081,38.12171735001719],[-78.49285816873046,38.12178202649365],[-78.4928349867477,38.12186689573294],[-78.4928832512679,38.1219449134723],[-78.49303078877023,38.12197657302674],[-78.49357807556336,38.12201544894268],[-78.49386806010169,38.1219739716422],[-78.49411900543511,38.12185917529271],[-78.49432340182835,38.12178952475837],[-78.49449654502232,38.12173799238231],[-78.49482617044212,38.12172406281767],[-78.4949082521961,38.1216935385439],[-78.49494315212421,38.12164956529536],[-78.4949820926896,38.12155093215418],[-78.49501559341267,38.1211888016267],[-78.49504259263225,38.12080211272902],[-78.4950237420746,38.12064024899919],[-78.4949837530367,38.12008456551059],[-78.49503506338256,38.11959285143159],[-78.49508003367983,38.11940168206416],[-78.49517695324748,38.11926163461111],[-78.49523889792103,38.11925166194651],[-78.49544185491379,38.11928994555526],[-78.49561069114908,38.11932163659525],[-78.49589226073437,38.11935525123889],[-78.49607731954863,38.11938572467003],[-78.49616236863476,38.11942234992315],[-78.49626396366806,38.1194837481991],[-78.49638372127433,38.11961314291408],[-78.49643798965798,38.11969012954549],[-78.49651973629389,38.1197930346975],[-78.49666939413514,38.11996690800466],[-78.49673871974872,38.12004388110936],[-78.49680934432517,38.12013666525068],[-78.49685422521549,38.12021228961387],[-78.49689021643522,38.12033208488293],[-78.49689988376241,38.12048817726392],[-78.4968917289444,38.12055855642618],[-78.49660305213375,38.1216720485711]]}}
