{"type":"Feature","properties":{"name":"Virginia-8k-Old","legacyMeetId":"5801","distance":"8k"},"geometry":{"type":"LineString","coordinates":[[-78.49470002726547,38.12147206762625],[-78.49467432448137,38.11918561707606],[-78.49452250105567,38.11695218903616],[-78.49439344540612,38.11629085875562],[-78.49440782614757,38.11575189032278],[-78.49452344320724,38.11504042399934],[-78.49495851418261,38.11413925859828],[-78.49499638088899,38.11351238841184],[-78.49503949548411,38.11301691913601],[-78.49515361143791,38.11294802779864],[-78.49527203645093,38.11297662767903],[-78.49528026735669,38.11298236576382],[-78.49541978332505,38.1132229986716],[-78.49542490894255,38.11324705083545],[-78.49552807647899,38.1134714718254],[-78.4956118895721,38.11373468113027],[-78.4956222323173,38.11393859193998],[-78.49557956602926,38.11423147266941],[-78.49556651271955,38.11484359335553],[-78.49559210928793,38.11561837640623],[-78.49561770643744,38.11606854839478],[-78.49546835441903,38.11650435635786],[-78.49546451798935,38.11650940863512],[-78.49535410140396,38.1167106982601],[-78.49527005672928,38.11689408213192],[-78.49511420018477,38.11700377723517],[-78.49483897870522,38.1170407301337],[-78.49435881292861,38.11713400002692],[-78.4942154310999,38.11724762864969],[-78.49421515259831,38.1174608920624],[-78.49422721210954,38.11774196382274],[-78.49424051984225,38.11814077480858],[-78.49421610873934,38.11882647351582],[-78.49424170368978,38.12083863108374],[-78.49424717064284,38.12115565974429],[-78.4942113119662,38.1213559165808],[-78.49405389068953,38.12156283857747],[-78.49390946566389,38.12161664162746],[-78.49372030377056,38.12165415079946],[-78.4935253019023,38.12167927589554],[-78.49339437828746,38.12172982466668],[-78.49332817864102,38.1218364082935],[-78.49333027888386,38.12193164917456],[-78.49339659630817,38.12197101024536],[-78.49358164625707,38.12201502183974],[-78.49372105565006,38.12200179281059],[-78.49390681707186,38.12196663844651],[-78.4940791436514,38.12188387654661],[-78.49438283117883,38.12175951940519],[-78.49451070156249,38.12171295829456],[-78.49473956516456,38.12169611335074],[-78.49492698552237,38.1216919121124],[-78.49523813489171,38.12168771673489],[-78.49606140576684,38.1216835366865],[-78.49622159172779,38.12167514771421],[-78.49642629637393,38.12165839928706],[-78.49647569713453,38.12158767566255],[-78.4965296548707,38.12142829275107],[-78.49676737706632,38.12064396792494],[-78.49686291324521,38.12031196059759],[-78.49683554753807,38.12020533264113],[-78.49676517944458,38.12011686781604],[-78.49644243315102,38.11969107180866],[-78.49632355032402,38.11951309810156],[-78.49619089370523,38.1194004553122],[-78.49602094398693,38.11937194626981],[-78.49579597284482,38.11935774712551],[-78.49557577083431,38.11934641417028],[-78.49547578616415,38.11936909879299],[-78.49544993364503,38.11948979223884],[-78.49527560932499,38.12076328417382],[-78.49538743184223,38.12101746476455],[-78.49546326598642,38.12121976026594],[-78.49550873918152,38.12134974883728],[-78.49551029757356,38.12135102009169],[-78.4955297385894,38.12146946429515],[-78.49552485844896,38.12153695524808],[-78.49545970250644,38.12158526356568],[-78.49531583075925,38.12159503168828],[-78.49515905890897,38.12159502997283],[-78.49504711715055,38.12147687993695],[-78.49501269249917,38.12144102663189],[-78.49499552628727,38.12137574311193],[-78.49499740193276,38.12126487650885],[-78.495039198743,38.12091303118436],[-78.49525766248668,38.11718488864599],[-78.49519908889039,38.11711571886075],[-78.4951266542267,38.11706810761648],[-78.49500969590851,38.11705331224115],[-78.49491217719991,38.11704740456585],[-78.49471032775377,38.11706514011559],[-78.49457734892161,38.11709483015836],[-78.49443197301223,38.11711570819111],[-78.49431023681893,38.11716674742288],[-78.49424964101021,38.11722435537236],[-78.4942034913592,38.11728872984835],[-78.49421024627034,38.1175312892608],[-78.49422813457593,38.11782848538189],[-78.49422944062442,38.1182278871337],[-78.49420985131982,38.11877305008502],[-78.49421435744577,38.11890496251621],[-78.49423773560679,38.12077409977552],[-78.49424367944852,38.12090743830227],[-78.49425613202592,38.12112640700133],[-78.49422372172654,38.12123386739933],[-78.49422168296871,38.12132669581135],[-78.49416381931533,38.12142457264309],[-78.49412243817702,38.12146906341665],[-78.49407955233617,38.12153211409225],[-78.4939681012984,38.12160621326121],[-78.49381153287894,38.12163606820319],[-78.49361248854764,38.12167105806469],[-78.493445190141,38.12170622129071],[-78.49335254061602,38.12178725712577],[-78.49332521521967,38.12188985612095],[-78.49336861661372,38.12195733641065],[-78.4934881766181,38.12198869628416],[-78.49362736626095,38.12202019248293],[-78.49381671678216,38.12197823750986],[-78.49398122831869,38.12193652260877],[-78.49423002600096,38.12182814497232],[-78.49442963430202,38.12173652932331],[-78.49462290226826,38.12170121817169],[-78.49483616911729,38.12168614176303],[-78.49510229696249,38.12168614953249],[-78.49598841656602,38.12168115632149],[-78.49613673838196,38.12167614415061],[-78.4962931974195,38.12166612613221],[-78.49636557118825,38.12165611927656],[-78.49645076247043,38.12162120043546],[-78.4964892861137,38.12152727198391],[-78.49654207654206,38.12136225308078],[-78.49675909377278,38.12069106944433],[-78.49684601541878,38.12035225246355],[-78.49685538394382,38.12026615953064],[-78.49680882844393,38.1201611416598],[-78.49672386334836,38.12006571344334],[-78.49645952857932,38.11972397353661],[-78.49634921216575,38.11954721959979],[-78.49622892394123,38.1194321765358],[-78.49613592268577,38.1193895951625],[-78.49606287133997,38.11937899616451],[-78.49584292090027,38.11935785313944],[-78.49562127101849,38.11934379797809],[-78.49553219973274,38.11934730626745],[-78.49546278254438,38.11939312088899],[-78.49545517960827,38.11945714196329],[-78.4952751700417,38.12075654593723],[-78.49532723330675,38.12084252226555],[-78.4953771733001,38.12100200236851],[-78.49545824111362,38.12120653124829],[-78.49550360788993,38.12133833654376],[-78.49553022644591,38.12145352619005],[-78.49552885902732,38.12152739995437],[-78.49547180888572,38.12157969731361],[-78.49533590117066,38.12159084047696],[-78.49517612665096,38.12159642879889],[-78.49514059115145,38.12158108425393],[-78.49509964643181,38.12153695075713],[-78.49507008048222,38.12150227905143],[-78.4950073229741,38.12143372863561],[-78.49498759312938,38.12133826521194],[-78.4950015392458,38.121201004454],[-78.49503847826762,38.1208449039377],[-78.49525110201753,38.11721732563577],[-78.49536887679179,38.1166837746058],[-78.49548233550267,38.11646325165132],[-78.49560290505413,38.11610529547138],[-78.49561722208095,38.11601100674564],[-78.49558592820445,38.11555198720274],[-78.4955681164862,38.11488404329281],[-78.49557688515236,38.11427024242043],[-78.49562099726467,38.11396231730949],[-78.4956199210328,38.11376788221393],[-78.49554363225886,38.11350944819973],[-78.4954421575028,38.11327706867397],[-78.49529645088164,38.11300962148236],[-78.49525314307529,38.11297090996646],[-78.49519423796599,38.11295440511418],[-78.49512519159562,38.11295440431454],[-78.49506224141778,38.11300129961236],[-78.49502882627698,38.1130598082071],[-78.4949989280021,38.11347304585613],[-78.49499239122501,38.11357370988549],[-78.49496107683667,38.11410241582042],[-78.49488690699603,38.11427718120799],[-78.4947402868241,38.11441082879488],[-78.49454477917747,38.11444649727915],[-78.49425446216758,38.11449318332125],[-78.49400822137626,38.11448237049207],[-78.49381007389462,38.11447517179459],[-78.4936069872757,38.1145148409895],[-78.49350030508397,38.11460231135569],[-78.49343064876584,38.11474717954842],[-78.49339337390926,38.11493027281449],[-78.49332824897593,38.11519107800295],[-78.49334186506717,38.11534622531161],[-78.49341467541683,38.11547561028961],[-78.49366598737743,38.11568113541857],[-78.49401508245869,38.11591120837024],[-78.49407069612646,38.11599271589729],[-78.49409394893492,38.11615871527619],[-78.4940515778449,38.11641061635733],[-78.49401938022585,38.11681195972147],[-78.49404815015497,38.1169928904804],[-78.49414430065822,38.11716240467361],[-78.49422456396513,38.11738315200143],[-78.4942265102726,38.11764948521098],[-78.49422710465129,38.1180579056768],[-78.49423407920888,38.11833450712347],[-78.49420472022207,38.11871525931564],[-78.4942346427748,38.12072655501076],[-78.49425209723259,38.12097603770014],[-78.49425285691387,38.12109252728069],[-78.49422971549502,38.1212014622599],[-78.4942222738021,38.12129275780079],[-78.49418357056435,38.12139506672541],[-78.49413880280426,38.12144925524936],[-78.49409887622681,38.12150884699422],[-78.4940087374924,38.12158404475176],[-78.49385893386291,38.12163461697692],[-78.49365903163257,38.12166003330422],[-78.4934731914908,38.12169577120893],[-78.49337608554234,38.12175958771128],[-78.49332845441978,38.12186416103557],[-78.49334892173522,38.12194150111503],[-78.49345285945823,38.12198473566113],[-78.49353583780032,38.12199833103925],[-78.49366446518394,38.12201196746169],[-78.49377002154534,38.12198745992299],[-78.49386655477012,38.12196308084452],[-78.49403564269238,38.12191470412576],[-78.49415646933042,38.1218536175192],[-78.49430895859754,38.12179333664944],[-78.49440143826219,38.12174928869167],[-78.49447693486307,38.12172357748639],[-78.49456438288288,38.12170566728457],[-78.49468088543603,38.12169801525641],[-78.4947889706288,38.12169037599224],[-78.49500930257145,38.12168314361792],[-78.49504218457885,38.12156931685964],[-78.4951193371074,38.12146788245103],[-78.4951843177487,38.12145882438216],[-78.49523397832733,38.12142325008735],[-78.49526852448807,38.12110897423204],[-78.49528111006518,38.120686902721],[-78.49544291285405,38.11951496624514],[-78.49546328712849,38.11941900167229],[-78.49550411176477,38.11935870052589],[-78.49554871317186,38.11934815942654],[-78.4955936972705,38.11934290007986],[-78.49576750109176,38.11935167070496],[-78.49598833449794,38.11936750944532],[-78.49609612584364,38.11938518646372],[-78.49620664057989,38.11941542987792],[-78.49628194331532,38.11947483922827],[-78.49636600511093,38.1195741032933],[-78.49649716398851,38.11976690920486],[-78.49671060163656,38.12004234138332],[-78.49678894737397,38.12014420690338],[-78.4968488262888,38.12023764657531],[-78.49685289877762,38.12033097726231],[-78.49659716326747,38.12166891731489]]}}
