{"type":"Feature","properties":{"name":"Virginia-8k","legacyMeetId":"5837","distance":"8k"},"geometry":{"type":"LineString","coordinates":[[-78.49464675040848,38.12162171562982],[-78.49470847220336,38.12077768986195],[-78.49471400070699,38.1195626827933],[-78.49469635047393,38.11888732386959],[-78.49458036653803,38.11766505389289],[-78.49446424688692,38.11684686662654],[-78.49440202528162,38.11632753722692],[-78.49438382719876,38.11599307390416],[-78.49441970787694,38.11581344235501],[-78.49448203747797,38.11557793012025],[-78.49487080328846,38.11444198700964],[-78.49492568133763,38.11428103150647],[-78.4949470189379,38.11417688014657],[-78.49496088484882,38.11405382377325],[-78.49493826056218,38.11368979781457],[-78.4949201160049,38.11338017333984],[-78.49491037826166,38.11322434657866],[-78.49494099505415,38.11311519306447],[-78.49499477232241,38.1130064315692],[-78.4950434588612,38.11295829791604],[-78.49511485835347,38.1129195077834],[-78.49519938590993,38.1129180674214],[-78.49525149482481,38.11294525174714],[-78.49528864694055,38.1129756183951],[-78.49531678961621,38.11301638357944],[-78.49535951482925,38.11309150857628],[-78.49544471876219,38.11333631743389],[-78.49557284143121,38.11364366002771],[-78.49561676204536,38.11380841587883],[-78.49562055880055,38.11382103379372],[-78.49564029245835,38.11393987301892],[-78.49561437347614,38.11404235873944],[-78.49561305652215,38.11404483118706],[-78.4956123429406,38.11405568411148],[-78.49556633819533,38.1146500280998],[-78.4955390147762,38.11501180821118],[-78.49554713703914,38.11532900172372],[-78.4955459231997,38.11535681516893],[-78.4955796742196,38.11567857848114],[-78.49563035650324,38.11587857073579],[-78.49561792667603,38.1161857219368],[-78.49548072977045,38.1165469528172],[-78.49532302059818,38.1168684549985],[-78.4952292313422,38.11696111425926],[-78.4950833373478,38.11702719533699],[-78.49475893100745,38.11707101672476],[-78.49443130261729,38.11713621834171],[-78.49433226784681,38.11718416683814],[-78.49428092947555,38.11722433004301],[-78.49425560841588,38.11727524881125],[-78.49425343517508,38.11727944667494],[-78.49423945988016,38.11733680579822],[-78.49425176663374,38.11737522130279],[-78.49432593814961,38.1175160268608],[-78.49447546347356,38.11774881628273],[-78.4945683063246,38.11792705793009],[-78.49458938189095,38.1183813713054],[-78.49459168981454,38.11872019905396],[-78.49458280912181,38.11936642908917],[-78.49458035150266,38.11958463463929],[-78.49453788930848,38.12019354636869],[-78.4945252109127,38.12041989861641],[-78.49446477898093,38.12095395188321],[-78.49439721440083,38.12130349075825],[-78.49437015534014,38.12136064237827],[-78.49426724351842,38.12147603222881],[-78.49390604658046,38.12163993991828],[-78.4937723413303,38.12172562389259],[-78.49374963509968,38.12176232021232],[-78.49374913269487,38.12176378502788],[-78.4937382642381,38.12180323570854],[-78.49374689803416,38.12184061641204],[-78.49374750518571,38.12184145803724],[-78.49376619376714,38.12187582908614],[-78.49380726604006,38.12191053073283],[-78.49385118770947,38.12192889040193],[-78.49390073024888,38.12193477880644],[-78.49399820440645,38.12191486530689],[-78.49414214635343,38.1218521070448],[-78.49442732201679,38.12175640599832],[-78.49458882293399,38.12172669107568],[-78.49469214917849,38.12172152001947],[-78.4949300981834,38.12171725596535],[-78.49534530265103,38.12171928416078],[-78.49570236729632,38.12172348692897],[-78.49610578703853,38.12171896779633],[-78.4962871071999,38.12169963236676],[-78.49636788386361,38.12167440869672],[-78.49641435212618,38.12166274548229],[-78.49647102107164,38.12162504950452],[-78.49653300604207,38.12158357408536],[-78.49658996327844,38.12152140622619],[-78.49662708397643,38.12146585441632],[-78.49675194437494,38.12107578882002],[-78.49688350052048,38.12062974785164],[-78.49690333211952,38.12053242891692],[-78.49690541464112,38.12046784123548],[-78.49690267888222,38.12038355812425],[-78.49689634830457,38.12032542464209],[-78.49686458700067,38.12022822051939],[-78.49682722281803,38.12015193298756],[-78.49675891593658,38.12006075187528],[-78.49664899989263,38.11994349740476],[-78.49656758726165,38.1198551755388],[-78.49645776039084,38.11971400562943],[-78.4963469690938,38.1195650956234],[-78.49628961028651,38.11949570664694],[-78.49623014026412,38.11945847680258],[-78.49615139302863,38.11941548608853],[-78.496096937411,38.11939398696209],[-78.49598102372669,38.11936638241783],[-78.4959164106579,38.11935380725937],[-78.49582903296174,38.11935055447238],[-78.49567159985709,38.11934867565629],[-78.4955852808872,38.11935949656446],[-78.4955820037877,38.11936003593885],[-78.49554740902525,38.11937035351579],[-78.49550122873444,38.11940908370604],[-78.49545886481727,38.11945747972123],[-78.49544190552744,38.11947771165746],[-78.49541889902369,38.11958153766423],[-78.49541541424882,38.119738433644],[-78.49538239165729,38.12015890860943],[-78.49535207353325,38.120450321485],[-78.49534835860233,38.12070575571668],[-78.49535167932562,38.12080450965556],[-78.49537718850193,38.12090824642513],[-78.49539967487131,38.12095673608192],[-78.49547472059454,38.12105129105743],[-78.49552603294191,38.12111961080451],[-78.4955557237118,38.12119654310631],[-78.49563481072843,38.12127276734451],[-78.49571220135857,38.12140753439736],[-78.49571973773116,38.12151387797561],[-78.49562790630816,38.121631873124],[-78.49546861232382,38.12164844590421],[-78.49540364499227,38.12164102524317],[-78.4953081801827,38.12160452099349],[-78.4952515276624,38.12154207006989],[-78.49520027409154,38.12142016616691],[-78.49516844210605,38.12125555161624],[-78.49504000416458,38.12076304814831],[-78.49492688018599,38.12016454711652],[-78.49500997764194,38.11951474834198],[-78.49505194850366,38.11912422327377],[-78.49525729600002,38.11728462921244],[-78.49516425405976,38.11707312838608],[-78.49497761441931,38.11704070396937],[-78.4948352788511,38.11704944060971],[-78.49458680489303,38.11710019216184],[-78.4943668698857,38.11715567513708],[-78.4942967899871,38.11719984342107],[-78.49426844453643,38.1172580826432],[-78.49423741031485,38.11730642269291],[-78.49425811341551,38.11740315696152],[-78.49436218179515,38.11758560693114],[-78.49449204189324,38.11779203031799],[-78.49454422783352,38.11790173651881],[-78.49456659967291,38.11800581784217],[-78.49457435128244,38.11833326495523],[-78.49458579674871,38.11868909744323],[-78.49457599138763,38.11930150534005],[-78.49457220791166,38.11952738782083],[-78.49455313730992,38.11973096725749],[-78.49452529188858,38.12031088839297],[-78.49450044402904,38.12058198924825],[-78.49443023188773,38.12113434344788],[-78.49440712043972,38.1212589624465],[-78.49433208821449,38.12142111665815],[-78.49418852517881,38.12151626753688],[-78.49397165348277,38.12161424762427],[-78.49384247177719,38.12167854954078],[-78.49374714893948,38.1217459869244],[-78.49372905049897,38.12178854447141],[-78.49373297371072,38.121825652798],[-78.49374669336603,38.12186569659954],[-78.49378429132241,38.12190539113433],[-78.49382305143348,38.12192075467698],[-78.49387579042114,38.12193095087945],[-78.49395118382978,38.12192085277877],[-78.49408027197353,38.12188735292362],[-78.49439213097449,38.1217753294768],[-78.49455398125498,38.12173341956368],[-78.49466097880499,38.12172538494889],[-78.49489784383637,38.12171887036099],[-78.49530960188045,38.12171859092577],[-78.49566776408477,38.121718001133],[-78.49607292818882,38.12172403884291],[-78.496252964865,38.12170177724157],[-78.49632032134106,38.12168518534288],[-78.49638487766914,38.12167172899238],[-78.4964383917956,38.12164427602521],[-78.49649026803327,38.1216045134766],[-78.49655682615757,38.12155544503123],[-78.4966013323756,38.12150065046781],[-78.49664635270227,38.12140256910213],[-78.49677906252099,38.12099479071435],[-78.49687090145581,38.12066857510808],[-78.4968923749533,38.12058090736227],[-78.49690879724754,38.12049106650793],[-78.49690247120824,38.12042416001364],[-78.49689594732999,38.12035357850444],[-78.49688258722465,38.12028397636463],[-78.49684665320318,38.12019325063756],[-78.49679204587183,38.12010634419925],[-78.49669258030238,38.11998838108117],[-78.49660365930102,38.11989456664624],[-78.49649433604566,38.11976388511538],[-78.49637123746838,38.11959309636199],[-78.49631360793795,38.11953114136477],[-78.49625647561324,38.11946859857265],[-78.49618198260806,38.1194280734932],[-78.49612508171796,38.11939942227095],[-78.49602833910872,38.11937230956658],[-78.49594437869983,38.11935747248062],[-78.49586564308719,38.11934969954648],[-78.49574581870637,38.11934687648727],[-78.49562370553447,38.1193546543608],[-78.49553298203513,38.11938176193562],[-78.49547233951951,38.1194383351037],[-78.4954278312354,38.11949596946076],[-78.49541506124366,38.11959865652602],[-78.49541236893452,38.11976282662125],[-78.49537914872107,38.12018289293679],[-78.49535331896706,38.12047865649117],[-78.49534760263631,38.12072719668824],[-78.49535311861237,38.12083197543635],[-78.49538290245705,38.12093262813006],[-78.49543522753008,38.12100199674904],[-78.49549747831537,38.12108054513514],[-78.49554075571669,38.12115919144483],[-78.49561298488307,38.12125513287102],[-78.4957002487632,38.12137822477284],[-78.49571324433572,38.12149281091646],[-78.49564791192583,38.12161559570675],[-78.49550003023107,38.12164939847674],[-78.49542792342223,38.12164458002935],[-78.49534195332747,38.12161788765913],[-78.495280375373,38.12157949337835],[-78.49523060892375,38.12152127764062],[-78.4951526613441,38.12122894216637],[-78.49511302244852,38.12102002358146],[-78.49493271104878,38.12019806711901],[-78.49494623404271,38.11996992601922],[-78.49504742761741,38.1191976146228],[-78.4950708194219,38.11897912027942],[-78.49525430441714,38.1173134204463],[-78.49530688231391,38.1169156766134],[-78.49537132797538,38.11679703902954],[-78.49551371699849,38.11646086373655],[-78.49560116986983,38.11623454393128],[-78.4956180038186,38.11613093317441],[-78.49562361173601,38.11592242250691],[-78.4955975206807,38.11573690976316],[-78.4955443790183,38.11542682008456],[-78.49554011947454,38.11518376332083],[-78.49554951956522,38.11472981257626],[-78.4955912991025,38.11429850248174],[-78.49562188808304,38.11400307308249],[-78.49563364695196,38.11387796303728],[-78.49558997631195,38.11372395416556],[-78.49550959765014,38.11347859240835],[-78.4953886117223,38.11320084216663],[-78.49534154912536,38.11306331619613],[-78.49530325054901,38.11299450750419],[-78.49526679435382,38.11295606171162],[-78.49521852876511,38.11292540604544],[-78.49515481196347,38.11292081281924],[-78.49507631645412,38.1129436107792],[-78.49501698403758,38.11298024642743],[-78.49496416786975,38.11305320304392],[-78.49492079084287,38.11317104742223],[-78.49489944781064,38.11332604983089],[-78.49493060459523,38.11366622101499],[-78.49495123053413,38.11402028301988],[-78.49493803555556,38.11413423811773],[-78.49490567367995,38.11423421815844],[-78.49483547150693,38.11432474117207],[-78.49476209903905,38.11438526379452],[-78.49455850259885,38.11443435629029],[-78.49385213816521,38.114488800118],[-78.49372230659614,38.11453336184051],[-78.49358135299967,38.1145810227617],[-78.49351068283158,38.1146627780888],[-78.4934742024254,38.11472192228583],[-78.4934341038525,38.11492160486482],[-78.49334326223838,38.11520123361967],[-78.49335867733643,38.11530845865902],[-78.49345611151092,38.11545700789944],[-78.49372872741282,38.11573048325189],[-78.49400854431006,38.11593958723175],[-78.49406342242196,38.1160089367788],[-78.49406038905964,38.11601574427939],[-78.49407339729981,38.11627608538905],[-78.49400684598226,38.11686005756907],[-78.49406868403642,38.11711151428907],[-78.49421411599172,38.11744991846518],[-78.49431651754988,38.11758662215795],[-78.49443664509054,38.11772043083432],[-78.49451772567579,38.11784337681773],[-78.4945520707671,38.11796171961871],[-78.4945719147066,38.11819114425413],[-78.49458625738409,38.11855758302691],[-78.49457862782164,38.1192629956107],[-78.49457428098594,38.11946190093344],[-78.49456376413718,38.11967590007772],[-78.49452629182096,38.12014968118976],[-78.4945210778513,38.12036887066633],[-78.49449397210546,38.12062061211718],[-78.49446578049948,38.12089768958514],[-78.49444784134393,38.12105265657838],[-78.49441116446836,38.12120376688319],[-78.49438164033948,38.12131089085179],[-78.49428808014964,38.12145920858885],[-78.49413168537141,38.12154979352152],[-78.49392424403818,38.12163169124873],[-78.49361893821121,38.12166696000091],[-78.4934149327205,38.12166901475556],[-78.49315664305401,38.12166681402974],[-78.49301458326482,38.1216845094218],[-78.49290921652712,38.12172659716116],[-78.49284277137171,38.12179922980934],[-78.49282499708744,38.1218599122143],[-78.49288436382199,38.12191691371495],[-78.49298986222752,38.12196943151777],[-78.49316774129105,38.12199382029102],[-78.49350793998101,38.12201772371136],[-78.4937444575526,38.12200390751797],[-78.49397059390527,38.12194030850414],[-78.49424125421919,38.12181593954633],[-78.49449679972383,38.12174203718175],[-78.49476697666668,38.12171496782555],[-78.49486434638466,38.12171870864535],[-78.49491976977788,38.12169129434282],[-78.49496787867342,38.12162749002275],[-78.4950012896666,38.12128077229525],[-78.49504319916869,38.12079892699452],[-78.49500871338807,38.12038904628511],[-78.49498390120007,38.12007753836167],[-78.49499999998791,38.11988937779318],[-78.49503116832214,38.11963304983424],[-78.4950699915125,38.11942466298326],[-78.49510472102155,38.11934003539557],[-78.4951539349227,38.11928783311711],[-78.49520944957625,38.11925356431253],[-78.49536656322704,38.11927383930175],[-78.4954656725026,38.11929958967389],[-78.49568018130202,38.11933672326379],[-78.49589197547469,38.1193568368675],[-78.49606846925256,38.11938306590152],[-78.4962103464806,38.11944891463193],[-78.49629712673405,38.11951065240063],[-78.49639462558851,38.1196192960185],[-78.49647715449605,38.11974301454384],[-78.49654273908222,38.11982955275567],[-78.49662884777779,38.11992501982472],[-78.49672788087027,38.12003140058454],[-78.49680965486678,38.12013311060925],[-78.4968803117626,38.12025653903097],[-78.49689207862393,38.12034053037539],[-78.49689054130593,38.12039592082308],[-78.49689839107504,38.12051117430566],[-78.4968701360145,38.12064774415612],[-78.49684831654244,38.120748727813],[-78.49660132099818,38.12167313014854]]}}
