{"type":"Feature","properties":{"name":"Virginia-6k","legacyMeetId":"5806","distance":"6k"},"geometry":{"type":"LineString","coordinates":[[-78.49464675040848,38.12162171562982],[-78.49470847220336,38.12077768986195],[-78.49471400070699,38.1195626827933],[-78.49469635047393,38.11888732386959],[-78.49458036653803,38.11766505389289],[-78.49446424688692,38.11684686662654],[-78.49440202528162,38.11632753722692],[-78.49438382719876,38.11599307390416],[-78.49441970787694,38.11581344235501],[-78.49448203747797,38.11557793012025],[-78.49487080328846,38.11444198700964],[-78.49492568133763,38.11428103150647],[-78.4949470189379,38.11417688014657],[-78.49496088484882,38.11405382377325],[-78.49493826056218,38.11368979781457],[-78.4949201160049,38.11338017333984],[-78.49491037826166,38.11322434657866],[-78.49494099505415,38.11311519306447],[-78.49499477232241,38.1130064315692],[-78.4950434588612,38.11295829791604],[-78.49511485835347,38.1129195077834],[-78.49519938590993,38.1129180674214],[-78.49525149482481,38.11294525174714],[-78.49528864694055,38.1129756183951],[-78.49531678961621,38.11301638357944],[-78.49535951482925,38.11309150857628],[-78.49544471876219,38.11333631743389],[-78.49557284143121,38.11364366002771],[-78.49561676204536,38.11380841587883],[-78.49562055880055,38.11382103379372],[-78.49564029245835,38.11393987301892],[-78.49561437347614,38.11404235873944],[-78.49561305652215,38.11404483118706],[-78.4956123429406,38.11405568411148],[-78.49556633819533,38.1146500280998],[-78.4955390147762,38.11501180821118],[-78.49554713703914,38.11532900172372],[-78.4955459231997,38.11535681516893],[-78.4955796742196,38.11567857848114],[-78.49563035650324,38.11587857073579],[-78.49561792667603,38.1161857219368],[-78.49548072977045,38.1165469528172],[-78.49532302059818,38.1168684549985],[-78.4952292313422,38.11696111425926],[-78.4950833373478,38.11702719533699],[-78.49475893100745,38.11707101672476],[-78.49443130261729,38.11713621834171],[-78.49433226784681,38.11718416683814],[-78.49428092947555,38.11722433004301],[-78.49425560841588,38.11727524881125],[-78.49425343517508,38.11727944667494],[-78.49423945988016,38.11733680579822],[-78.49425176663374,38.11737522130279],[-78.49432593814961,38.1175160268608],[-78.49447546347356,38.11774881628273],[-78.4945683063246,38.11792705793009],[-78.49458938189095,38.1183813713054],[-78.49459168981454,38.11872019905396],[-78.49458280912181,38.11936642908917],[-78.49458035150266,38.11958463463929],[-78.49453788930848,38.12019354636869],[-78.4945252109127,38.12041989861641],[-78.49446477898093,38.12095395188321],[-78.49439721440083,38.12130349075825],[-78.49437015534014,38.12136064237827],[-78.49426724351842,38.12147603222881],[-78.49390604658046,38.12163993991828],[-78.4937723413303,38.12172562389259],[-78.49374963509968,38.12176232021232],[-78.49374913269487,38.12176378502788],[-78.4937382642381,38.12180323570854],[-78.49374689803416,38.12184061641204],[-78.49374750518571,38.12184145803724],[-78.49376619376714,38.12187582908614],[-78.49380726604006,38.12191053073283],[-78.49385118770947,38.12192889040193],[-78.49390073024888,38.12193477880644],[-78.49399820440645,38.12191486530689],[-78.49414214635343,38.1218521070448],[-78.49442732201679,38.12175640599832],[-78.49458882293399,38.12172669107568],[-78.49469214917849,38.12172152001947],[-78.4949300981834,38.12171725596535],[-78.49534530265103,38.12171928416078],[-78.49570236729632,38.12172348692897],[-78.49610578703853,38.12171896779633],[-78.4962871071999,38.12169963236676],[-78.49636788386361,38.12167440869672],[-78.49641435212618,38.12166274548229],[-78.49647102107164,38.12162504950452],[-78.49653300604207,38.12158357408536],[-78.49658996327844,38.12152140622619],[-78.49662708397643,38.12146585441632],[-78.49675194437494,38.12107578882002],[-78.49688350052048,38.12062974785164],[-78.49690333211952,38.12053242891692],[-78.49690541464112,38.12046784123548],[-78.49690267888222,38.12038355812425],[-78.49689634830457,38.12032542464209],[-78.49686458700067,38.12022822051939],[-78.49682722281803,38.12015193298756],[-78.49675891593658,38.12006075187528],[-78.49664899989263,38.11994349740476],[-78.49656758726165,38.1198551755388],[-78.49645776039084,38.11971400562943],[-78.4963469690938,38.1195650956234],[-78.49628961028651,38.11949570664694],[-78.49623014026412,38.11945847680258],[-78.49615139302863,38.11941548608853],[-78.496096937411,38.11939398696209],[-78.49598102372669,38.11936638241783],[-78.4959164106579,38.11935380725937],[-78.49582903296174,38.11935055447238],[-78.49567159985709,38.11934867565629],[-78.4955852808872,38.11935949656446],[-78.4955820037877,38.11936003593885],[-78.49554740902525,38.11937035351579],[-78.49550122873444,38.11940908370604],[-78.49545886481727,38.11945747972123],[-78.49544190552744,38.11947771165746],[-78.49541889902369,38.11958153766423],[-78.49541541424882,38.119738433644],[-78.49538239165729,38.12015890860943],[-78.49535207353325,38.120450321485],[-78.49534835860233,38.12070575571668],[-78.49535167932562,38.12080450965556],[-78.49537718850193,38.12090824642513],[-78.49539967487131,38.12095673608192],[-78.49547472059454,38.12105129105743],[-78.49552603294191,38.12111961080451],[-78.4955557237118,38.12119654310631],[-78.49563481072843,38.12127276734451],[-78.49571220135857,38.12140753439736],[-78.49571973773116,38.12151387797561],[-78.49562790630816,38.121631873124],[-78.49546861232382,38.12164844590421],[-78.49540364499227,38.12164102524317],[-78.4953081801827,38.12160452099349],[-78.4952515276624,38.12154207006989],[-78.49520027409154,38.12142016616691],[-78.49516844210605,38.12125555161624],[-78.49504000416458,38.12076304814831],[-78.49492688018599,38.12016454711652],[-78.49500997764194,38.11951474834198],[-78.49505194850366,38.11912422327377],[-78.49525729600002,38.11728462921244],[-78.4953063931442,38.11691438412292],[-78.49541173716578,38.11670590707548],[-78.49555992919912,38.11635758176413],[-78.49562527275086,38.11615076990615],[-78.49562732517141,38.11591721378972],[-78.49558846028762,38.11570852689265],[-78.49554567184683,38.11538557338791],[-78.49553277655467,38.1150324946968],[-78.49560686137654,38.11408113977093],[-78.49563813023242,38.11395945232785],[-78.4956234494801,38.11384134833935],[-78.49558078038446,38.1136591041308],[-78.49544939257419,38.1133507351003],[-78.49536626098521,38.11311372586511],[-78.49533782063722,38.11305856138132],[-78.49529520699771,38.1129932866759],[-78.49526972773226,38.11296263761282],[-78.49522386687836,38.11293335635492],[-78.49514905895482,38.11292157329461],[-78.49507323098857,38.11294124268344],[-78.49501114138336,38.11298532930223],[-78.49496536672062,38.11305300196268],[-78.49492541004057,38.11316753703965],[-78.49490975055117,38.11330346169089],[-78.49495461143282,38.11387207449558],[-78.49494419984741,38.11409342368925],[-78.49491317374337,38.11424227998288],[-78.49477925190247,38.11438741253771],[-78.49456210240803,38.11443406364923],[-78.49414512005411,38.11447971632836],[-78.49385048069279,38.11448802306484],[-78.49359564196891,38.1145742508819],[-78.49352060091273,38.11465284417021],[-78.49348158395382,38.11472746437935],[-78.49340942117507,38.11502193151616],[-78.49335171774851,38.11521341873493],[-78.49337721708719,38.11533416673845],[-78.49343670542568,38.11543575493226],[-78.49370090261448,38.1157023977475],[-78.49405209224155,38.11597756622171],[-78.49406660061832,38.11608030743856],[-78.49408905992591,38.11619416862692],[-78.49401100180987,38.11688753071785],[-78.49404783799949,38.11704787523989],[-78.49414281007773,38.11733653974262],[-78.49430809461133,38.11758679546043],[-78.49443497412432,38.11771845104467],[-78.49453824755295,38.11786462240848],[-78.49457580326245,38.11800462189394],[-78.49458090154069,38.11835406095521],[-78.49458231325256,38.11848538018866],[-78.49458077332461,38.11897017198555],[-78.49457707737145,38.11947722047405],[-78.49453749347794,38.12012165876912],[-78.49452771028119,38.12038036324672],[-78.49447143139726,38.12092383406333],[-78.49442450718267,38.12119237091562],[-78.49439735209204,38.12127289882325],[-78.49431987639835,38.12142605134952],[-78.49419171585325,38.12152840687228],[-78.49398886507014,38.12161167088099],[-78.49377054489825,38.12166047588727],[-78.49362558547854,38.1216692435266],[-78.4934452910493,38.12166768530427],[-78.49323521343146,38.12165776483842],[-78.49308075230341,38.12167078198707],[-78.4929496398665,38.12170935593397],[-78.49287977234754,38.1217555090214],[-78.49284834298895,38.12179364026819],[-78.49283890119067,38.12184169692043],[-78.49284861599195,38.12188923033508],[-78.49291948414755,38.12194096045742],[-78.49297980784907,38.12196846059845],[-78.49343254964674,38.12202397167746],[-78.4935844637389,38.12201860672705],[-78.49381738252096,38.12198742327109],[-78.49395443896965,38.12194004300368],[-78.4940553822572,38.12189105436295],[-78.49420180550104,38.12182781361489],[-78.4943671733791,38.12177959847177],[-78.49449243814094,38.12174022582353],[-78.49463552619365,38.1217216202749],[-78.49474705356809,38.12172204220407],[-78.49488379836967,38.12172097206312],[-78.49494990894706,38.12167260290048],[-78.49498717691756,38.12159311814084],[-78.49499705389545,38.12140588587454],[-78.4950419125532,38.12079373181191],[-78.49498390833558,38.12002841334334],[-78.49502067524377,38.11967893430333],[-78.49505818409804,38.11944046780348],[-78.49510466616057,38.1193323039778],[-78.49515190418373,38.11927788612385],[-78.49520563689923,38.11925041669245],[-78.49531846600229,38.11925621948127],[-78.49543754924994,38.11929798074732],[-78.49578475217214,38.1193499689021],[-78.49595495964702,38.11935931429248],[-78.49605219305631,38.11937735549665],[-78.49613137753667,38.11940510606261],[-78.49620364668198,38.11943947832657],[-78.49626618448627,38.11948193069681],[-78.49632477046573,38.1195366475239],[-78.49640511323163,38.11964283844886],[-78.49652491317568,38.11980372582392],[-78.49661838975268,38.11990498184693],[-78.49671237401404,38.12000931573952],[-78.49679705184249,38.12010933624175],[-78.49685125166351,38.12019013917679],[-78.49688191127241,38.12029015896539],[-78.49689768771714,38.12036427737614],[-78.49690447746035,38.12043361535605],[-78.4969050842588,38.12050984472612],[-78.49688966044062,38.12059276268744],[-78.49686623064709,38.12068461131631],[-78.49673993170752,38.12111572147982],[-78.49660222694877,38.12167574128188]]}}
