{"type":"Feature","properties":{"name":"WIAA-5k","legacyMeetId":"5912","distance":"5k"},"geometry":{"type":"LineString","coordinates":[[-89.79830209382582,44.35447026155424],[-89.79830059982416,44.35447158746216],[-89.79830809247962,44.35459199218614],[-89.798324563491,44.35468180961283],[-89.79833958585465,44.35477197462895],[-89.79835032145417,44.35488992106224],[-89.79835848336108,44.35501577876143],[-89.79836263236282,44.3551385244342],[-89.79837496450006,44.35526167102606],[-89.79837794965475,44.35538567103661],[-89.79838942517509,44.35551018275698],[-89.79839643683943,44.35562063331191],[-89.79840205618123,44.35574053589937],[-89.7984046324761,44.35587004266269],[-89.79841109321599,44.35599996196731],[-89.79841436460097,44.3561245309042],[-89.79841949498244,44.35625239179072],[-89.79842500721676,44.35638288240156],[-89.7984264941884,44.35651626184082],[-89.79841581040846,44.35664407640484],[-89.7984075783531,44.35677383444615],[-89.79840176922737,44.35690028784946],[-89.7983958195072,44.3570287297925],[-89.79836817496398,44.35715240329688],[-89.79830648764366,44.35727390433281],[-89.79824741260812,44.35736008131737],[-89.7981212842915,44.35744087371958],[-89.79798021370573,44.35750262904685],[-89.79782046451622,44.35756773498813],[-89.79766675579887,44.35762871060013],[-89.79751504559462,44.35769981343755],[-89.79736651320512,44.35777567709831],[-89.79722187134708,44.35785044568675],[-89.79708996126861,44.35793238036419],[-89.7969664503587,44.35802496049085],[-89.79683865217226,44.35811946725443],[-89.796746750162,44.35818451951172],[-89.79661512191451,44.3582790172791],[-89.79648106906942,44.35836958178747],[-89.79631297722989,44.35841722350865],[-89.79614435728695,44.35842220624635],[-89.79599049634379,44.35844383431468],[-89.79581002809974,44.3584561502945],[-89.79568507065012,44.35847718444343],[-89.7955546821337,44.35848985685493],[-89.79535824795288,44.35848918680598],[-89.7951990490716,44.35844811618895],[-89.7950535765423,44.35839834140966],[-89.79491166725619,44.35834970805603],[-89.79475891251232,44.35829925634384],[-89.79458826687006,44.35823759067269],[-89.79447292148372,44.35819598032829],[-89.79431752626645,44.35813255757907],[-89.79416935127055,44.35808067707796],[-89.79402410147593,44.35802706954163],[-89.79390331098757,44.35797911281802],[-89.79375106786615,44.35791906336348],[-89.79361264439386,44.35786410728468],[-89.79345403990007,44.35781035875412],[-89.79333559774105,44.35776894678862],[-89.79322365554326,44.35771653096482],[-89.79308091845806,44.35766456836407],[-89.79294324545175,44.35762221672493],[-89.79276567707164,44.35759712916163],[-89.7926380463266,44.35758507789136],[-89.79246150975753,44.35756217709004],[-89.79228822805705,44.35753994817313],[-89.79212711097539,44.35751299655734],[-89.79197801522426,44.35748045154772],[-89.79181869019952,44.35744118449097],[-89.79167244376306,44.35737076644534],[-89.79159482408579,44.35729403657513],[-89.79153155028696,44.35716736270336],[-89.79151802514582,44.35703694200254],[-89.79157731563967,44.35692007375972],[-89.79167931935511,44.35684537153767],[-89.79179849985942,44.35678888309302],[-89.79191517374852,44.35673549651627],[-89.79204546717182,44.3566861551046],[-89.79219058277421,44.35664821025679],[-89.79229443466974,44.35658699485292],[-89.79235867830046,44.35649121679669],[-89.79249253303097,44.35642352650503],[-89.79263183783858,44.35640267319797],[-89.79279129512445,44.35638204897027],[-89.79294201879269,44.3563481069156],[-89.79312190020002,44.3563164395176],[-89.79323881089418,44.35627394696496],[-89.79339897305468,44.35620593514896],[-89.79356384225042,44.35615242982919],[-89.79372375235981,44.356109626763],[-89.79386321273718,44.356087352743],[-89.79402665571287,44.35606061012232],[-89.79418024396251,44.35603598443524],[-89.79434558363249,44.35604021458052],[-89.79447370338555,44.35612803020103],[-89.79461254366105,44.356212020745],[-89.79472897611272,44.35628950151928],[-89.79485013151707,44.35636824413474],[-89.79496114177567,44.3564666043893],[-89.79500757296476,44.35658779352671],[-89.79499243530026,44.35668137026953],[-89.79491867552801,44.35681663730718],[-89.79487077681907,44.35694295227821],[-89.79491817057347,44.35703161357122],[-89.79500064184106,44.35719005821967],[-89.79506688429271,44.35730484202902],[-89.79513761511657,44.35741381200154],[-89.7953032988448,44.35743136386238],[-89.79541085302326,44.35732604618798],[-89.79551684387584,44.35722449538662],[-89.79562614214521,44.35712250743951],[-89.79574593581539,44.35701824222561],[-89.79586200500803,44.35692633117268],[-89.79596481888065,44.35681561407321],[-89.79606486534377,44.35672347410368],[-89.7961746066443,44.35662780359388],[-89.79628115372846,44.35652927691456],[-89.79636274160386,44.35645986658837],[-89.79647766237834,44.35636658993527],[-89.79656505125801,44.35629688446007],[-89.79666409214,44.35620868453675],[-89.7967468873516,44.35604066890952],[-89.79672297264361,44.35591740358566],[-89.79671812508465,44.35578970029482],[-89.79671215500012,44.3556643377169],[-89.79670922568847,44.35555099404086],[-89.79670102509051,44.35544246497179],[-89.79669982838975,44.35532398675377],[-89.79668009316018,44.35521870986658],[-89.79665266567667,44.35510555825841],[-89.79656548421474,44.35501740472336],[-89.79649091149726,44.35491014076658],[-89.79637814093743,44.3548213288518],[-89.79623873057255,44.35472834633343],[-89.79607335298071,44.35466783545044],[-89.79590175185622,44.35464998535473],[-89.7957397736645,44.35469612712842],[-89.79561412185247,44.35477332075848],[-89.79546626675545,44.35484792534181],[-89.79531181559835,44.35492709227514],[-89.79515419549169,44.35499804385744],[-89.7950186085529,44.35507348472424],[-89.79487846172684,44.35514295492189],[-89.79474624536155,44.35520512223628],[-89.7946090505281,44.35527705335393],[-89.7944691134025,44.35535536824382],[-89.79433152846394,44.35542483322708],[-89.79419917388935,44.35549341392123],[-89.79406282552985,44.3555602373749],[-89.79392023476639,44.35564471856352],[-89.79382430844406,44.35571188211526],[-89.79372536031418,44.35577725923707],[-89.7936333257829,44.35584781665614],[-89.79355133916755,44.35591601921927],[-89.79343261073024,44.35600356303816],[-89.79334101819047,44.35606646983571],[-89.79322518264256,44.35614484990881],[-89.79310830366694,44.35621305927128],[-89.79295443470174,44.35623428385376],[-89.7927894586842,44.35620403883447],[-89.79260972986596,44.3561720467065],[-89.792444235162,44.35615571812322],[-89.79231123988899,44.35618915583682],[-89.79218885710861,44.35626190335788],[-89.79204295590536,44.35631597216918],[-89.79193196138007,44.35636601439403],[-89.79176504126893,44.3564621641609],[-89.79162473121474,44.35646784823714],[-89.79147252070454,44.35647139808958],[-89.79131179795225,44.35647452004728],[-89.79114993124239,44.35645320348997],[-89.79099352374634,44.3564165496246],[-89.79083967710531,44.35637692578821],[-89.79068999760631,44.35634721345094],[-89.79056135239465,44.35632650005422],[-89.79040050752214,44.35633913673567],[-89.7902281807487,44.3563460215403],[-89.7900897357508,44.35635103398955],[-89.78992980146693,44.35637259886002],[-89.78977471605624,44.35641221042349],[-89.78965264811892,44.35643808265353],[-89.78951854468535,44.35642089079415],[-89.78949174819194,44.35633200387576],[-89.78952779157446,44.3562338968277],[-89.78959017561604,44.3561492029533],[-89.78955180790253,44.35605149320723],[-89.78943784400765,44.35596079167903],[-89.78938547541132,44.35585942072202],[-89.78939708895642,44.35575881202507],[-89.78946137631087,44.35564535026851],[-89.78953626805202,44.35554801146398],[-89.78967657964616,44.35552420219821],[-89.78982170195552,44.3555309797714],[-89.78998648797781,44.35553179867605],[-89.79013398695152,44.35548535073671],[-89.79024947362002,44.35542285679259],[-89.79040322093644,44.35537007702108],[-89.79053706698494,44.35532150957028],[-89.79070187492167,44.35526007372274],[-89.7908447675668,44.35517960941869],[-89.79090316532168,44.35509963772325],[-89.79102488634321,44.35501652685439],[-89.79112906823168,44.3549012234657],[-89.79120390443394,44.35482510817194],[-89.7912849661351,44.3547526062675],[-89.79138940795102,44.35467946580729],[-89.79147294033528,44.35459170808958],[-89.79147863952979,44.35448366901088],[-89.79141522048447,44.35439657589441],[-89.79140252038664,44.35429094011415],[-89.79144789178612,44.35419531992733],[-89.79158857794776,44.35420888320304],[-89.79169908307519,44.35429234520425],[-89.79173432129669,44.35438426623802],[-89.79174612438419,44.35449929616894],[-89.79176974989305,44.35464748325045],[-89.79179153366306,44.35475361760864],[-89.79182945201273,44.35485410801801],[-89.79185640360522,44.35495297969163],[-89.7919050744772,44.3550361146255],[-89.7920598325936,44.35520443113337],[-89.79220140937976,44.35528380168768],[-89.79233017686721,44.35535672454964],[-89.79250250615866,44.35538018657481],[-89.7926097180991,44.35533157589837],[-89.79272739838775,44.35529910207723],[-89.79284255872449,44.35526021982642],[-89.79300894468061,44.35521272182199],[-89.79315972385987,44.35516793941402],[-89.79328133370251,44.35512627020962],[-89.79342940735678,44.35507692452906],[-89.7935817935174,44.35502882920732],[-89.79373310788972,44.35498029186918],[-89.79389784936579,44.35493210327053],[-89.79407531635192,44.35488743755599],[-89.79419128190587,44.35485060244783],[-89.79433913228758,44.35478749004396],[-89.79447596973043,44.35472368197498],[-89.79461888401408,44.35465183028614],[-89.79478453920939,44.35458831100853],[-89.79494245433332,44.35451743125012],[-89.7950533257964,44.35447170076136],[-89.79519046679515,44.35438747158604],[-89.79522912172921,44.35429825843323],[-89.79528720917577,44.35421178253751],[-89.79514421510677,44.35412908027148],[-89.79501899517278,44.35415252405701],[-89.79491448366461,44.35409954108335],[-89.7947768430771,44.35406521444431],[-89.79462038191372,44.3541343123691],[-89.79450078154159,44.3542571415738],[-89.79443273887097,44.35436597945174],[-89.79434158279506,44.35442929636401],[-89.79422164933752,44.3545229454523],[-89.79414529780895,44.35459597111168],[-89.79407177931539,44.35466971195634],[-89.79391256321945,44.3547249704985],[-89.79378458635587,44.35470627378939],[-89.79366963376506,44.35466445392578],[-89.7934938949219,44.35469443237897],[-89.79336373607975,44.35475183584746],[-89.79324827896129,44.3548458474435],[-89.79311709960686,44.3549237918578],[-89.79299883807272,44.35497136179941],[-89.79283306770918,44.35496472071774],[-89.79270134140924,44.35493830602668],[-89.7925587011456,44.35486505892622],[-89.79248693099107,44.35477076673705],[-89.79247084520541,44.35465937869419],[-89.79247570007786,44.35454394279315],[-89.79248998891097,44.35440566715176],[-89.7925180059784,44.35427884866984],[-89.79257599468444,44.35415667544464],[-89.79263664239768,44.35407062572938],[-89.79268014935725,44.35398340468632],[-89.79275803252925,44.35389153962384],[-89.79285167437557,44.35381700174167],[-89.79289132070971,44.35371024676275],[-89.79279532756254,44.35363176366046],[-89.79264115084897,44.35364959539392],[-89.79246965170867,44.35363655842737],[-89.79231983386899,44.35360779213913],[-89.79217659202894,44.35355594202234],[-89.79205301834368,44.35350416728627],[-89.7919005507055,44.35344639283131],[-89.79173624365853,44.35343708906991],[-89.79159188950347,44.35346781928656],[-89.79141848725354,44.35351346392817],[-89.79125724900983,44.35356817763308],[-89.79114891772434,44.35364872187068],[-89.79103699630265,44.35374531168533],[-89.79093354252184,44.35383866317737],[-89.79082835616154,44.35392760984129],[-89.79072379007259,44.35401694434191],[-89.79060481619246,44.35410020005729],[-89.79047962138006,44.35415708347809],[-89.79034917939549,44.35420843518547],[-89.79020439315636,44.35425732121837],[-89.79007429912886,44.35431737577422],[-89.78996596356882,44.35440689324813],[-89.78988875460233,44.35451769150079],[-89.78981976776274,44.3546248913611],[-89.78974653357054,44.35472649532655],[-89.78968057159625,44.35483092156124],[-89.78961963001434,44.35493472779405],[-89.78956798113558,44.35503766951466],[-89.78951967007484,44.35514069105761],[-89.78948718400594,44.3552407086666],[-89.78942553418862,44.35534829625347],[-89.78937213320681,44.35545574106305],[-89.78931378361358,44.35556782921581],[-89.78926229505032,44.35568847300008],[-89.78918317800787,44.35579735512744],[-89.78905756944755,44.35587056495068],[-89.7889694810458,44.35593533087719],[-89.78889056641724,44.35601560240512],[-89.78887838309221,44.3561052667628],[-89.78887331144287,44.35620774933305],[-89.7888687264697,44.35632000924883],[-89.78888349948721,44.35642336864566],[-89.78886515467136,44.35654048993938],[-89.78887040516885,44.35663361119041],[-89.78888042491752,44.35676147870934],[-89.78884909838914,44.35688594286569],[-89.78879097331598,44.35698284070733],[-89.788862280762,44.35706871911601],[-89.78892989863242,44.35715155478275],[-89.788954067306,44.35725365732559],[-89.78894990239294,44.3573599640284],[-89.7889452992206,44.35747498156844],[-89.78892939071771,44.35758282106333],[-89.78892813108926,44.35768843531129],[-89.78893066426542,44.35779290737006],[-89.78893774278583,44.35791749257756],[-89.78894679494593,44.35801155280802],[-89.78898733554396,44.35812297115512],[-89.78913555836546,44.35820283589896],[-89.78929463094521,44.35824263803593],[-89.78944455244411,44.35824311107324],[-89.78959930991519,44.3582351214714],[-89.78985920856532,44.35825255936372],[-89.78998714863691,44.35825260663756],[-89.79015407780655,44.35825306998266],[-89.79031093554522,44.35824007242557],[-89.790477812,44.35822266628522],[-89.7906438150222,44.35820049727241],[-89.7907476923058,44.3581193687745],[-89.79071218100844,44.35802715175751],[-89.79069843134774,44.35790342243163],[-89.79076576098078,44.35780257915406],[-89.7908355507213,44.3577271568876],[-89.79097924504975,44.35765598645158],[-89.79110410592659,44.35756387686251],[-89.79122836741635,44.35749408869362],[-89.79128828181389,44.35738533712499],[-89.79129276227737,44.35725693200748],[-89.79130646979671,44.35713054700948],[-89.7913135064459,44.35700900574147],[-89.79134681367351,44.35687870388268],[-89.79143365612128,44.35678726351415],[-89.79154754830518,44.35672675763071],[-89.79165320111419,44.35667644286608],[-89.79180374727737,44.35660427162419],[-89.79192993212143,44.35654407529343],[-89.79202282267212,44.35647061305379],[-89.79202590331148,44.35637081152647],[-89.79199444118147,44.35626313494029],[-89.79198634963393,44.35617209367425],[-89.79196904454523,44.35603903674689],[-89.79190191767921,44.35590782241852],[-89.79182429698398,44.3557930293394],[-89.79181830190609,44.35568375797965],[-89.79187988105589,44.35560267084141],[-89.79203675111869,44.35554039409994],[-89.7921560188764,44.35550164355764],[-89.79232597370462,44.35545567707675],[-89.7924830771542,44.35540365051838],[-89.7925986268504,44.35536820939677],[-89.7927159540367,44.35533623257116],[-89.7928885929168,44.35528688995396],[-89.79304388734577,44.35523729310211],[-89.79318202373166,44.35520073133762],[-89.79332102854384,44.35515749458489],[-89.79346500657529,44.3551153256112],[-89.7936193788949,44.35507333463713],[-89.79378319232475,44.35503267039675],[-89.79395536456411,44.3549836844273],[-89.79407803421626,44.35494966742572],[-89.79424632143062,44.35489810709797],[-89.79441151121509,44.35484371072486],[-89.7945650595257,44.35478645543065],[-89.79472253323085,44.35472696497015],[-89.79487427421152,44.3546727278682],[-89.79500197202202,44.35462417971208],[-89.79514810584655,44.35456496574997],[-89.79528900133585,44.35450593186319],[-89.79541383540243,44.35445573474264],[-89.79546265030045,44.35443226360761]]}}
