{"type":"Feature","properties":{"name":"Wisco-6k","legacyMeetId":"8191","distance":"6k"},"geometry":{"type":"LineString","coordinates":[[-89.54936686200911,43.02201288912711],[-89.54459578772813,43.01829580243687],[-89.54434154384522,43.01811232956855],[-89.54413091688383,43.01795483317343],[-89.5439084786836,43.01779481084473],[-89.54376364179716,43.01761837079503],[-89.54370905919657,43.01747384282654],[-89.54369146644073,43.01737705470587],[-89.54369543334869,43.01725698066985],[-89.54370329796085,43.01713575064942],[-89.54371436006306,43.01701825797562],[-89.54373821379302,43.01691933502323],[-89.54376726309103,43.01683198845137],[-89.54381915466656,43.01674150201058],[-89.54388770985648,43.01667347377967],[-89.54397748070582,43.01661095890005],[-89.54405499909002,43.01656528264464],[-89.54417657014396,43.01651550470869],[-89.544314416608,43.01649069689847],[-89.54444423568603,43.01648824434217],[-89.54459595400598,43.01648563472254],[-89.54480388646853,43.01648712015619],[-89.54496746111221,43.01649976620385],[-89.5450899533137,43.01650168724434],[-89.545206033145,43.01650361299983],[-89.54531913894174,43.01650995943048],[-89.54545432812331,43.01652483493435],[-89.54556596226247,43.01653050189014],[-89.54568118867529,43.01654073316053],[-89.54577955471419,43.01656236485217],[-89.5458654388542,43.01658399066092],[-89.54594044399636,43.01661474619442],[-89.54601491999227,43.01664103953911],[-89.54609749546664,43.01667868140628],[-89.54618297131923,43.01671196955176],[-89.54627453214361,43.01675643472792],[-89.54640793150706,43.01681452788195],[-89.5465048872166,43.01686729933083],[-89.54662139160058,43.01692916347808],[-89.54673438460838,43.01700043541504],[-89.54681192506818,43.01705158609453],[-89.5468902185881,43.01710536084816],[-89.54696236463538,43.01715976497085],[-89.54703119097874,43.01721377417655],[-89.54710898076297,43.01728216240485],[-89.54718008927469,43.01735067693155],[-89.54724688815037,43.01741030617323],[-89.54730320523193,43.01746282135915],[-89.54737777780983,43.01753276987838],[-89.54743852933794,43.01759853264775],[-89.54750712856115,43.0176621105926],[-89.54758256266784,43.01773969984701],[-89.54764888212819,43.01780191864172],[-89.54773410136646,43.01787912571441],[-89.54783183565802,43.01796222103461],[-89.54790933444602,43.01802280443173],[-89.54800204596076,43.01810502316483],[-89.54810545385799,43.01816910349103],[-89.54819754055382,43.0182338930837],[-89.5482741291741,43.01827037680429],[-89.54836757060785,43.01828028767867],[-89.54845843660675,43.01828001967007],[-89.54858919571474,43.01828732347846],[-89.54988636021815,43.01829080270897],[-89.54998494488406,43.01829122132575],[-89.55009061826904,43.01829477913556],[-89.55022628040837,43.01829954945744],[-89.5503207924831,43.01830430994981],[-89.55040481270053,43.01831502868142],[-89.55049238930663,43.01832593742836],[-89.55058698799147,43.01833683947494],[-89.55069195052117,43.01835590887347],[-89.55078716315235,43.01837499964874],[-89.55087941915517,43.01839696808211],[-89.55096854806406,43.01841086511191],[-89.55106507480804,43.01843295156978],[-89.5511657820318,43.01846073593183],[-89.55131244975496,43.01849694335818],[-89.55150056615523,43.01856139731857],[-89.5516516607596,43.01861522237035],[-89.55176743223528,43.01865466845754],[-89.55185976774823,43.01869495513385],[-89.55193103561113,43.01872991451065],[-89.5519841328025,43.01875656909635],[-89.55207070060337,43.01879213519387],[-89.55215217432645,43.01883708336069],[-89.55222345609182,43.01887979981871],[-89.5522788098298,43.0189104282132],[-89.55236475596438,43.01896930480025],[-89.55242951527715,43.01904536263217],[-89.55248021249793,43.01913933467436],[-89.55250224279601,43.0192555819871],[-89.55255531897512,43.01947263958979],[-89.55259570497779,43.01967098890274],[-89.5526530390237,43.01984580641525],[-89.55269807152192,43.02006063048757],[-89.55270523094866,43.02026670147451],[-89.55271947369143,43.02050336596758],[-89.5526948550917,43.02072892689874],[-89.55264036245488,43.02092991873728],[-89.55256488313624,43.02112153521693],[-89.55245260657648,43.02129638610784],[-89.55233020113843,43.02142612418675],[-89.55215396932296,43.02157097460604],[-89.55197189768163,43.0216924521112],[-89.55175407613682,43.02180321585648],[-89.55155712641191,43.02190889417848],[-89.55135642529984,43.02198013802298],[-89.55110767348863,43.02205753302883],[-89.55093522970594,43.02211451373004],[-89.55074671631284,43.02214758758271],[-89.550557988707,43.02216831112554],[-89.55035862329747,43.02217318535423],[-89.55027006849845,43.02217565209246],[-89.5501369896057,43.02217026267282],[-89.54991435475095,43.02211452561486],[-89.54977077056117,43.02202861030677],[-89.54958301602895,43.02189046299375],[-89.5493769429588,43.02174478342736],[-89.54914385297444,43.02158075953884],[-89.54883276654513,43.02134872280662],[-89.54816102075308,43.02084067249098],[-89.54746207636056,43.0203402724454],[-89.54693271078892,43.01995625182178],[-89.54542525887368,43.01878710979572],[-89.54526676144437,43.01861053473528],[-89.54521791723205,43.0185006913958],[-89.54518974888843,43.01831728110606],[-89.54515906311259,43.01812469808252],[-89.54514818690501,43.01782942999876],[-89.54518142525939,43.01761279599077],[-89.54526066556507,43.01744824630494],[-89.5454405539318,43.01723236926467],[-89.54565250191048,43.01703312078362],[-89.5458649571678,43.01684513510284],[-89.54601041313629,43.01676760336649],[-89.54610721731139,43.01676910931381],[-89.54623896426526,43.01678145247772],[-89.54636670655115,43.0168163269022],[-89.5464427419853,43.01685695938676],[-89.54654448063063,43.01690787751516],[-89.54665636406666,43.01697140708907],[-89.54675046993123,43.01704127395599],[-89.54682625543475,43.01708885559905],[-89.54689979682946,43.01714957628232],[-89.54698435497174,43.01721302895854],[-89.54705311743687,43.0172745775382],[-89.54712950855901,43.01734364935288],[-89.54719606968322,43.01740497910803],[-89.54724946850804,43.01745958947478],[-89.5473284971316,43.01752428241288],[-89.5473807888015,43.01758267048484],[-89.54745621272531,43.01766162709745],[-89.5475173847048,43.01772457614345],[-89.54756397544735,43.01777386923092],[-89.54759405130015,43.01783249956022],[-89.54762742912321,43.01791239332912],[-89.54763395102687,43.01800701925426],[-89.54761417451529,43.0180949119783],[-89.54758265946043,43.01818442853378],[-89.54750145541163,43.01823203395193],[-89.54738006329346,43.01825956185699],[-89.5472575784655,43.01828364285416],[-89.5471357873915,43.01834427991146],[-89.54705864281523,43.01842493043581],[-89.54699175210453,43.01850689948337],[-89.54693957567929,43.01861015241295],[-89.54692542018982,43.01869813156357],[-89.54695797439705,43.01881324362977],[-89.5469947697357,43.01888542813379],[-89.54704253079633,43.01897273641954],[-89.5471149645502,43.01905931588388],[-89.54721131583139,43.0191434930462],[-89.54730559882964,43.0192147696226],[-89.54742878195552,43.01932151969516],[-89.54752960378757,43.01938878971458],[-89.54777788633612,43.01956929541336],[-89.54791196653073,43.01967430975378],[-89.5480632247224,43.01978170329804],[-89.54823838240006,43.01990884347507],[-89.54844004715487,43.02004630237322],[-89.54875674374777,43.02025563380063],[-89.54913958260707,43.0205332664755],[-89.54944254680147,43.02075902664717],[-89.54961109622808,43.0208753844111],[-89.54977350033754,43.02099090164602],[-89.54994821861811,43.02112193097931],[-89.55007929454942,43.02123939476285],[-89.55022406615619,43.02138897811223],[-89.55035535348198,43.02154362160569],[-89.55046168430532,43.02170718473239],[-89.55050864943927,43.02180998691314],[-89.55053030399169,43.02194367846398],[-89.55052612800797,43.02204698549205],[-89.55045273430105,43.0221861752793],[-89.55034258669708,43.02230944860069],[-89.55014450129532,43.02239523723598],[-89.54988382313896,43.02251547627793],[-89.54970203516712,43.02258951971798],[-89.54950587670261,43.02264360183611],[-89.54934793367775,43.02264144659372],[-89.54913271139658,43.0226071998259],[-89.54889171460086,43.02256808875058],[-89.54867111990087,43.02253345280327],[-89.54848268335942,43.02249986429762],[-89.54831833909763,43.02246635609432],[-89.54810878914091,43.02237914900045],[-89.54794995509718,43.0223063164495],[-89.54776482215229,43.02220363984426],[-89.54754194336046,43.02207490807307],[-89.54732792586357,43.02198217770781],[-89.54712183943685,43.02187633895197],[-89.54690333192202,43.02176859456161],[-89.54670106259059,43.02165590084641],[-89.54649273716461,43.02152467371787],[-89.5463553360996,43.02143040933649],[-89.54623844381925,43.02131420474258],[-89.54613609157651,43.02119047398765],[-89.54600034156682,43.02104801552132],[-89.5458996502868,43.02092853441862],[-89.54580637387762,43.02080100288813],[-89.54571359202926,43.02066878493858],[-89.54563298780745,43.02051830077733],[-89.54555287987412,43.02027169416819],[-89.54551306812807,43.02010189658109],[-89.54546731441242,43.01994491352058],[-89.54542103764568,43.01974703966117],[-89.54537090996607,43.01955382326677],[-89.5453173220929,43.01931197982191],[-89.54530749996681,43.01917262738799],[-89.54530500016385,43.01905847599797],[-89.54527803479672,43.01894088140664],[-89.54520998288352,43.01881335009568],[-89.54508833246886,43.01862815953588],[-89.54495578958527,43.01851918347741],[-89.54482294117264,43.01842306776678],[-89.54467536858638,43.01831302038235],[-89.54452724545678,43.01820093243261],[-89.54440795457685,43.01811618067847],[-89.54428836469322,43.01802564931231],[-89.5441962697995,43.01796597841307],[-89.54409663050203,43.01789108585468],[-89.54401634835146,43.01783084852948],[-89.54394645416869,43.01778001358092],[-89.54388282161106,43.01771606163488],[-89.54382249237287,43.01763533799132],[-89.54378675053808,43.01758237278915],[-89.54375918736201,43.01750112993725],[-89.54373266197456,43.01742856120333],[-89.54373236273325,43.01730031236586],[-89.54373651166114,43.01719213417731],[-89.54374876713436,43.01707344539783],[-89.54376244813376,43.01697055931893],[-89.54379547706156,43.01687730381371],[-89.5438416136916,43.01678565392025],[-89.54388345657902,43.0167229878636],[-89.54395150697653,43.01666331634975],[-89.54402748970352,43.01661412668652],[-89.5441119482735,43.01657031738439],[-89.54419416205153,43.01654125221965],[-89.54426841318758,43.0165218796045],[-89.54437076536108,43.01651442151125],[-89.54444601529323,43.01651652680861],[-89.54454780175581,43.01651370394134],[-89.54466589525744,43.01651057438992],[-89.54475073613061,43.01651475694744],[-89.54486162141737,43.01651878823591],[-89.54499516951206,43.01652490615234],[-89.54510578141597,43.01652915187258],[-89.54520984268882,43.01653341382021],[-89.54530737349454,43.01653770787549],[-89.54546333418116,43.0165506694034],[-89.54556986587949,43.01655625546707],[-89.54568008476386,43.0165714294749],[-89.54583705356725,43.01660541276716],[-89.54594619212526,43.01664213701444],[-89.54602672485643,43.01667706527174],[-89.54613054369207,43.01671435678834],[-89.54620530764105,43.0167473772049],[-89.54630585699942,43.01678212597273],[-89.54647135673541,43.01686137519585],[-89.54653150425068,43.01689181801569],[-89.5465966146241,43.01692763541335],[-89.54670773219996,43.01699462998376],[-89.54678920324623,43.0170499120804],[-89.54689386373663,43.01712243751816],[-89.54697723554679,43.01718838581375],[-89.54704528475662,43.01724321651273],[-89.5471204090791,43.01731261435765],[-89.54721898794507,43.01740871989306],[-89.54727202124117,43.01745786732813],[-89.54731784507545,43.01749366498581],[-89.5473735117415,43.01755250363198],[-89.54742031334679,43.01760453212656],[-89.54747828770724,43.01765312230129],[-89.54752433195065,43.01770324816759],[-89.54757798434922,43.01776361829649],[-89.54760710377163,43.01780239041143],[-89.54763277360364,43.01785293900666],[-89.54765101739862,43.01792775999537],[-89.54765593686217,43.01798714709893],[-89.54764873167225,43.01806720079578],[-89.54762683199279,43.01813607205159],[-89.54759739600964,43.01818975019123],[-89.54755450344604,43.01822359982777],[-89.54751067780279,43.01824723303788],[-89.5474419810432,43.01826387942058],[-89.54738083825463,43.01827855968521],[-89.54731518198025,43.01829162396778],[-89.5472530487067,43.01830654151849],[-89.54721695044086,43.01832507376807],[-89.54716966436214,43.01835089102296],[-89.54712549709122,43.01838249533401],[-89.5470955560446,43.01841266456201],[-89.54705300671368,43.01845874154333],[-89.54702283399749,43.01850188654281],[-89.54700075128525,43.01854583802328],[-89.54697831578767,43.01859040054254],[-89.54696603012505,43.01864002736289],[-89.546955941015,43.01868868917449],[-89.5469633248315,43.01874120400178],[-89.54697798742647,43.01879285247571],[-89.54701070019134,43.01885475113581],[-89.5470382831856,43.01891222240992],[-89.54707151730084,43.01897128958682],[-89.54711267669435,43.01901920513959],[-89.54715957386775,43.01906338568819],[-89.54721483408345,43.01911300365286],[-89.54727067355563,43.01915605567908],[-89.54731608863992,43.01919197145431],[-89.54736779442167,43.01923636407586],[-89.54741872607508,43.01927954147978],[-89.54747148545088,43.01931716940457],[-89.5475272422931,43.01935745976378],[-89.54758387945239,43.01940056648755],[-89.54765493237421,43.01945078509569],[-89.54772090025118,43.01949759548317],[-89.54779057159548,43.01954527931316],[-89.54784756704868,43.01959378107785],[-89.54791521488063,43.0196477937706],[-89.5479819793848,43.01969591519653],[-89.54804525671206,43.01974736044252],[-89.54811903220356,43.01980120501797],[-89.54820896259362,43.01986112029739],[-89.54827053967085,43.01991051644271],[-89.54833902388025,43.01995283799417],[-89.54841120817677,43.01999833443438],[-89.54845273125568,43.02002694385312],[-89.54850098367903,43.02006341021689],[-89.54876714849608,43.02023914040568],[-89.54914496724203,43.02051750710859],[-89.5494371001264,43.02073699386442],[-89.5496201571115,43.02086404172342],[-89.54978246012674,43.02097769740289],[-89.5499515566924,43.02110720827585],[-89.55008047324421,43.02122528830336],[-89.55022531449494,43.02137560276098],[-89.55036062365015,43.02153046553153],[-89.55046645040932,43.02169373229528],[-89.55051893097531,43.02179938525139],[-89.5505416822197,43.02193290793483],[-89.55053914042855,43.02203806482297],[-89.55053008674157,43.02207040889397],[-89.55051536977682,43.02209373240231],[-89.55046822883776,43.02218405215048],[-89.55035957166383,43.02231176508194],[-89.55027749042506,43.02235671535252],[-89.5501513690057,43.02240719954363],[-89.5498874992667,43.02253103930566],[-89.5497079068515,43.02260178504946],[-89.54950630299491,43.02265827032657],[-89.54934798309272,43.02265623181373],[-89.54912979360824,43.02262244943603],[-89.54876868639911,43.02246531209917],[-89.54863089050909,43.02235807524986],[-89.54848123364022,43.02223009395637],[-89.54769473950665,43.021596507477],[-89.54735741975499,43.02133489148745],[-89.54698715942456,43.02104594876435],[-89.5464975304739,43.02066489297777]]}}
