{"type":"Feature","properties":{"name":"Wisco-10k","legacyMeetId":"7388","distance":"10k"},"geometry":{"type":"LineString","coordinates":[[-89.54936686200911,43.02201288912711],[-89.54459578772813,43.01829580243687],[-89.54434154384522,43.01811232956855],[-89.54413091688383,43.01795483317343],[-89.5439084786836,43.01779481084473],[-89.54376364179716,43.01761837079503],[-89.54370905919657,43.01747384282654],[-89.54369146644073,43.01737705470587],[-89.54369543334869,43.01725698066985],[-89.54370329796085,43.01713575064942],[-89.54371436006306,43.01701825797562],[-89.54373821379302,43.01691933502323],[-89.54376726309103,43.01683198845137],[-89.54381915466656,43.01674150201058],[-89.54388770985648,43.01667347377967],[-89.54397748070582,43.01661095890005],[-89.54405499909002,43.01656528264464],[-89.54417657014396,43.01651550470869],[-89.544314416608,43.01649069689847],[-89.54444423568603,43.01648824434217],[-89.54459595400598,43.01648563472254],[-89.54478264070269,43.01649008850163],[-89.54496746111221,43.01649976620385],[-89.5450899533137,43.01650168724434],[-89.545206033145,43.01650361299983],[-89.54531913894174,43.01650995943048],[-89.54545432812331,43.01652483493435],[-89.54556596226247,43.01653050189014],[-89.54568118867529,43.01654073316053],[-89.54577955471419,43.01656236485217],[-89.5458654388542,43.01658399066092],[-89.54594044399636,43.01661474619442],[-89.54601491999227,43.01664103953911],[-89.54609749546664,43.01667868140628],[-89.54618297131923,43.01671196955176],[-89.54627453214361,43.01675643472792],[-89.54640793150706,43.01681452788195],[-89.5465048872166,43.01686729933083],[-89.54662139160058,43.01692916347808],[-89.54673438460838,43.01700043541504],[-89.54681192506818,43.01705158609453],[-89.5468902185881,43.01710536084816],[-89.54696236463538,43.01715976497085],[-89.54702114240547,43.01720900365325],[-89.54710898076297,43.01728216240485],[-89.54718008927469,43.01735067693155],[-89.54724688815037,43.01741030617323],[-89.54730320523193,43.01746282135915],[-89.54737777780983,43.01753276987838],[-89.54743852933794,43.01759853264775],[-89.54750712856115,43.0176621105926],[-89.54758256266784,43.01773969984701],[-89.54764888212819,43.01780191864172],[-89.54773410136646,43.01787912571441],[-89.54783183565802,43.01796222103461],[-89.54790933444602,43.01802280443173],[-89.54800204596076,43.01810502316483],[-89.54810789641208,43.01817722304713],[-89.54819754055382,43.0182338930837],[-89.5482741291741,43.01827037680429],[-89.54836757060785,43.01828028767867],[-89.54847408420254,43.01828633043707],[-89.54858919571474,43.01828732347846],[-89.54988636021815,43.01829080270897],[-89.54998494488406,43.01829122132575],[-89.55009061826904,43.01829477913556],[-89.55022628040837,43.01829954945744],[-89.5503207924831,43.01830430994981],[-89.55040481270053,43.01831502868142],[-89.55049238930663,43.01832593742836],[-89.55058698799147,43.01833683947494],[-89.55069195052117,43.01835590887347],[-89.55078716315235,43.01837499964874],[-89.55087918023843,43.01838884468851],[-89.55096854806406,43.01841086511191],[-89.55106507480804,43.01843295156978],[-89.5511657820318,43.01846073593183],[-89.55131244975496,43.01849694335818],[-89.55150056615523,43.01856139731857],[-89.5516516607596,43.01861522237035],[-89.55176743223528,43.01865466845754],[-89.55185976774823,43.01869495513385],[-89.55193103561113,43.01872991451065],[-89.5519841328025,43.01875656909635],[-89.55207070060337,43.01879213519387],[-89.55215217432645,43.01883708336069],[-89.55222345609182,43.01887979981871],[-89.5522788098298,43.0189104282132],[-89.55236475596438,43.01896930480025],[-89.55242951527715,43.01904536263217],[-89.55248021249793,43.01913933467436],[-89.55250224279601,43.0192555819871],[-89.55255531897512,43.01947263958979],[-89.55259570497779,43.01967098890274],[-89.5526530390237,43.01984580641525],[-89.55269807152192,43.02006063048757],[-89.55270523094866,43.02026670147451],[-89.55271947369143,43.02050336596758],[-89.5526948550917,43.02072892689874],[-89.55264036245488,43.02092991873728],[-89.55256488313624,43.02112153521693],[-89.55245260657648,43.02129638610784],[-89.55233020113843,43.02142612418675],[-89.55215396932296,43.02157097460604],[-89.55197189768163,43.0216924521112],[-89.55175407613682,43.02180321585648],[-89.55155712641191,43.02190889417848],[-89.55135642529984,43.02198013802298],[-89.55110767348863,43.02205753302883],[-89.55093522970594,43.02211451373004],[-89.55074671631284,43.02214758758271],[-89.550557988707,43.02216831112554],[-89.55035862329747,43.02217318535423],[-89.55027006849845,43.02217565209246],[-89.5501369896057,43.02217026267282],[-89.54991435475095,43.02211452561486],[-89.54977077056117,43.02202861030677],[-89.54958301602895,43.02189046299375],[-89.5493769429588,43.02174478342736],[-89.54914385297444,43.02158075953884],[-89.54883276654513,43.02134872280662],[-89.54816102075308,43.02084067249098],[-89.54746207636056,43.0203402724454],[-89.54693271078892,43.01995625182178],[-89.54536331177623,43.01883333535984],[-89.54513453073349,43.01867762261599],[-89.54485143253298,43.01846773492448],[-89.54469710324717,43.01834806106746],[-89.54445652670336,43.01816898747361],[-89.54422365602473,43.01800097741748],[-89.54396128193484,43.01780574211311],[-89.5438926722329,43.01775437619057],[-89.54381396171301,43.01765651307179],[-89.54374758320331,43.01754378267554],[-89.54370938961763,43.01738691530932],[-89.54372026760782,43.01723078605541],[-89.54373164496765,43.01709115234153],[-89.54373995882463,43.0169937601041],[-89.54376793859731,43.01688418006656],[-89.5437997009717,43.01680323356351],[-89.5438498300549,43.01674606614863],[-89.54391705975974,43.0166724586075],[-89.543967047639,43.01663589413315],[-89.54403611117758,43.01659132828767],[-89.54413013436896,43.01654704803744],[-89.54422122009879,43.01651942700242],[-89.54434321845532,43.01650257675968],[-89.54448843092187,43.0165018339191],[-89.54461919785538,43.01650084309983],[-89.54472809372612,43.01649984426057],[-89.54483296543556,43.01650158943031],[-89.54492677808541,43.01650598239278],[-89.54504914023948,43.01651314655784],[-89.54516077042058,43.01651515558357],[-89.54526151446763,43.0165172178116],[-89.54537653162791,43.01652711190136],[-89.54551663650564,43.01653559454532],[-89.54562776266833,43.01654671017224],[-89.54571409109568,43.01655706658658],[-89.54581828234693,43.01657904786877],[-89.54591651240894,43.01661803743516],[-89.54602584296404,43.01665679503741],[-89.54615502095955,43.01671480520304],[-89.54624788230684,43.01675262420818],[-89.54636670655115,43.0168163269022],[-89.5464427419853,43.01685695938676],[-89.54654448063063,43.01690787751516],[-89.54665636406666,43.01697140708907],[-89.54675046993123,43.01704127395599],[-89.54682625543475,43.01708885559905],[-89.54689979682946,43.01714957628232],[-89.54698435497174,43.01721302895854],[-89.54705311743687,43.0172745775382],[-89.54712950855901,43.01734364935288],[-89.54719606968322,43.01740497910803],[-89.54725834554031,43.01745603933254],[-89.5473284971316,43.01752428241288],[-89.5473807888015,43.01758267048484],[-89.54746213343863,43.01766286250197],[-89.54751914642266,43.01771546487152],[-89.54757741042539,43.01777123006922],[-89.54761549691737,43.01781190451035],[-89.54767784939045,43.01786821058458],[-89.54773880885804,43.01792139831524],[-89.54779761683766,43.01796717141234],[-89.5478488914204,43.01800822158276],[-89.54791805840226,43.01806278845351],[-89.54797755440808,43.0181151478685],[-89.54805507862154,43.01817137958553],[-89.54812415643322,43.01821446123969],[-89.54817997555375,43.01825473971746],[-89.54824093410855,43.01828713062165],[-89.54830705848146,43.01829625224518],[-89.54845536967643,43.01830578466971],[-89.5485688957741,43.01830738307927],[-89.54867939597835,43.01830655268117],[-89.54987086377733,43.01830635169533],[-89.54997245679382,43.01830519977001],[-89.55007471334919,43.01830962611014],[-89.5502144045607,43.01831302851769],[-89.55030880913982,43.01831563554377],[-89.55038883632211,43.01832505488598],[-89.55047521077701,43.01833651387308],[-89.55056423610836,43.01834535975966],[-89.55067335963089,43.01836634785582],[-89.55077490023865,43.01838599711682],[-89.55086879566903,43.01839866381386],[-89.55095130909487,43.0184188520543],[-89.55104703446003,43.01843923747929],[-89.55114753809659,43.01846667909972],[-89.5512927197772,43.01850221056157],[-89.55148239743117,43.01856668900879],[-89.55163904708856,43.01862260678058],[-89.55175177435864,43.01865916748934],[-89.55184394411306,43.01869978730728],[-89.55191539493883,43.01873378122718],[-89.5519705604068,43.01876272535841],[-89.55205022178089,43.01879542168139],[-89.55213628524271,43.01883885726891],[-89.55221297413908,43.01888328829501],[-89.55226437499503,43.01891299645863],[-89.55234685941413,43.01897127942935],[-89.55241442484366,43.01904460455202],[-89.55246432645052,43.01913284140204],[-89.55248758929831,43.01924848487938],[-89.55253843900444,43.01946353067978],[-89.55258166287113,43.01966639809337],[-89.55263921648209,43.01984012236171],[-89.55268464102566,43.02005203030745],[-89.55269337235116,43.02025485206457],[-89.55270686362053,43.02049340369766],[-89.55268455022713,43.02072097236641],[-89.55263162243097,43.02092113967938],[-89.55255586202718,43.02111323516508],[-89.55244508047605,43.02128596978618],[-89.55232611730591,43.02141500473451],[-89.55215476044823,43.02155811663177],[-89.55196864194558,43.02167969437218],[-89.55175226979179,43.02178984770371],[-89.55155319540003,43.02189688568065],[-89.55135849882326,43.02196786608721],[-89.55110596036553,43.02204662190547],[-89.55093223027403,43.02210233159641],[-89.55084613868219,43.02208951185401],[-89.55077544165748,43.02204174316373],[-89.55072664831032,43.02197427488129],[-89.55072051019188,43.02189910587471],[-89.55072650939195,43.02182164225615],[-89.55077646342066,43.02171429393497],[-89.55082409574266,43.02164119793535],[-89.55087809615787,43.02155125853533],[-89.55096489789427,43.02142399726549],[-89.55110680549188,43.0211970416188],[-89.55119117557976,43.02109746207993],[-89.55127965556755,43.0210108847493],[-89.55138333330977,43.02088839734332],[-89.55145234708812,43.02079640901634],[-89.55152072664691,43.02072429556262],[-89.55161037742458,43.02061313907008],[-89.5516774483577,43.02051804652586],[-89.55175267893159,43.02042656519218],[-89.55182942042656,43.02032438092811],[-89.55189507327704,43.02023185479018],[-89.55194534297402,43.02013918561225],[-89.5519758676232,43.02003712440128],[-89.55198697780693,43.01993022815951],[-89.55197496915294,43.01984165331781],[-89.55194843556785,43.01971841752989],[-89.55191663391332,43.01964010166499],[-89.55186659713807,43.01954923296285],[-89.55180010489669,43.01943587295689],[-89.55168712837416,43.01930508804766],[-89.55157493779092,43.01923942536879],[-89.55140938425527,43.0191519236905],[-89.55120512243323,43.0190603483716],[-89.55095824653728,43.01896339698535],[-89.550712978885,43.01887120900142],[-89.55052598697252,43.01879666313231],[-89.55031869845278,43.01871521295141],[-89.55013080878742,43.01864867508977],[-89.54994304484148,43.01859739628794],[-89.54974209536537,43.0185432190452],[-89.54965462494651,43.01852920102231],[-89.54953498066966,43.01851332163274],[-89.54932091376912,43.0184993989863],[-89.54914533658942,43.01848818455096],[-89.54913985286854,43.01848884648577],[-89.54895863468846,43.01849988891655],[-89.5486976820655,43.01850485047893],[-89.54848105432967,43.01851093151458],[-89.54830933891553,43.01853082476527],[-89.54818155251543,43.01853542572695],[-89.54805194282567,43.01853226200691],[-89.54791064661495,43.01846726846983],[-89.54782029911323,43.01839319754424],[-89.54767043231624,43.01828491591416],[-89.5475783974316,43.0182465596971],[-89.54749316790293,43.01824469665183],[-89.54741428193614,43.01825243343541],[-89.54729204294618,43.01827880227918],[-89.54721383411915,43.01831404557107],[-89.54713638203131,43.01836014499426],[-89.54707434166039,43.01841778783248],[-89.54700773779898,43.01849358405752],[-89.54695011033122,43.01858874985362],[-89.54693545059747,43.01867565747762],[-89.54693735199393,43.01875154580175],[-89.54696187619174,43.01883157328852],[-89.54700377380985,43.01891529658538],[-89.54705767163058,43.01898928144967],[-89.54713736538208,43.01907347299859],[-89.54724808793772,43.01917763159111],[-89.54740158707816,43.01929803740156],[-89.54756400178015,43.01941560216356],[-89.54778492323904,43.0195781832611],[-89.54800008992429,43.01973749084694],[-89.54818506075834,43.01987765537053],[-89.5483072054684,43.01996013468745],[-89.54854508971042,43.02010943201775],[-89.54873464901696,43.0202421369815],[-89.54904289434934,43.02046201483157],[-89.54935340969845,43.02069596941167],[-89.54960564148142,43.02087465281082],[-89.54985949642048,43.02106286306658],[-89.55005112857357,43.02122004299746],[-89.55021809610146,43.02139046830622],[-89.5503663618961,43.02156511211189],[-89.55049606507743,43.02174756441799],[-89.55054202759659,43.02188460197584],[-89.55056126842332,43.02200849993007],[-89.55050839563683,43.02213621228184],[-89.55041436143577,43.02224815958349],[-89.5502906140423,43.02232753362108],[-89.55009216475963,43.02242726413111],[-89.54988571456454,43.02252892986324],[-89.54963767159171,43.02261674492424],[-89.54953456933409,43.02264995279467],[-89.54940352400735,43.02266383888318],[-89.5492711395398,43.0226432161206],[-89.54911017646258,43.02262018703858],[-89.54893590144245,43.02258651358996],[-89.54873592486742,43.02254668435199],[-89.54855743236504,43.02251551932159],[-89.5483906373825,43.02248228604783],[-89.54824799658303,43.02244335045689],[-89.5481024593503,43.02238268485834],[-89.54774897984228,43.02220861493616],[-89.54752339464959,43.02209055939511],[-89.54728396525292,43.02195265509693],[-89.5470475823551,43.0218205436811],[-89.54682720211821,43.02170543022962],[-89.54659961241317,43.02157654195822],[-89.54642260902475,43.02146331709879],[-89.54624083389042,43.02131692091559],[-89.54616334239094,43.02123620681068],[-89.545939184284,43.02096283262947],[-89.54578812690006,43.02079353547053],[-89.54567507782926,43.02062546273019],[-89.54560402171303,43.02048482137011],[-89.54555076905577,43.02030331468239],[-89.54551284391525,43.02014761237182],[-89.54545414754065,43.01988917493569],[-89.54540695853198,43.01967936857835],[-89.54536845026253,43.01952402203395],[-89.5453322756514,43.01931915398461],[-89.54531451128993,43.01915066523036],[-89.54528297790843,43.01903102445289],[-89.54524916086388,43.01892575713016],[-89.5451871269837,43.01881532367835],[-89.54512347186312,43.01874598771163],[-89.54505803230656,43.01868662408281],[-89.54494454030385,43.01859299575453],[-89.54482773643404,43.01850382141399],[-89.54475184483516,43.01843768749207],[-89.5446241914989,43.01834386025314],[-89.54448343029088,43.01824154216612],[-89.54438107319923,43.01816729796116],[-89.54426819161272,43.01808581763438],[-89.5441728633605,43.0180112021976],[-89.54406587413189,43.01793157405236],[-89.5439335819251,43.01783774115693],[-89.54388317231606,43.01780391662314],[-89.54384035792722,43.01775187210066],[-89.54380529432841,43.01770584202033],[-89.54375894497187,43.01764727803211],[-89.54373181597917,43.01760177673015],[-89.54370134357305,43.01751743870482],[-89.5436865902952,43.01746590722024],[-89.54367926152044,43.01741971014342],[-89.54366829224018,43.01735815423154],[-89.54367418695234,43.01728265560875],[-89.54367901943014,43.01718897729103],[-89.54368834703554,43.01709322902061],[-89.54370749071853,43.0169716144139],[-89.54373242859315,43.01688881570064],[-89.54375939121154,43.01680744556291],[-89.54379676262529,43.01675384100576],[-89.54383884749846,43.0167002775512],[-89.54386855368239,43.0166658918791],[-89.5439131496097,43.01663008643101],[-89.54396747304797,43.01659535961125],[-89.54403864428241,43.01655520893677],[-89.54411930575904,43.01651802943812],[-89.54420020667249,43.01649211502294],[-89.54430396413197,43.01647475994786],[-89.54438151792058,43.01647335758913],[-89.54443398900719,43.01647107892488],[-89.54449708163857,43.01647312601519],[-89.5445600650658,43.01647331563115],[-89.54463288496379,43.0164703738492],[-89.54471949796769,43.01647512146181],[-89.54481654214501,43.01648050819697],[-89.54489889531119,43.01648764891144],[-89.54498041777892,43.01648930882168],[-89.54508267479811,43.01649258954853],[-89.54519721739148,43.01649258678361],[-89.54531077198853,43.01649840371313],[-89.54546516257268,43.01651391298159],[-89.54555512198122,43.01651747861508],[-89.54561016363206,43.01652369814797],[-89.54566501981057,43.01652835815974],[-89.5457339758726,43.01653717152719],[-89.54577479260541,43.0165456160194],[-89.54582465719602,43.01655866509699],[-89.54587826693194,43.01657518124623],[-89.54593387256624,43.01659744161226],[-89.54598292486348,43.01661469269416],[-89.54603013120294,43.01663409660354],[-89.54607812704587,43.01665548210889],[-89.54613050170377,43.0166807595588],[-89.54617966988309,43.01669634362168],[-89.54621452586595,43.01671424725448],[-89.5462461802374,43.01673046475788],[-89.54630162507067,43.01675558945923],[-89.54636828901924,43.01678616345265],[-89.54644506328344,43.01682380570028],[-89.54650149288342,43.01685637181016],[-89.54657610234449,43.01689682082662],[-89.54666072875311,43.01694069887454],[-89.54672464441394,43.01698180105343],[-89.5467999536676,43.01703277183775],[-89.54688578383491,43.01708936359999],[-89.54695723089316,43.01713948279215],[-89.54702454411365,43.0171923973388],[-89.54711627334405,43.01727001495055],[-89.54718289184625,43.01733530569199],[-89.5472511521173,43.01739570635144],[-89.54731068042922,43.01745194835603],[-89.54738011472577,43.01751707009249],[-89.54744285372239,43.01758355917124],[-89.54750533911321,43.01764661997492],[-89.54758545605765,43.01772474926734],[-89.5476439092731,43.01778583351518],[-89.54773214182906,43.01786094017633],[-89.54783042221503,43.01794446637371],[-89.54790725197161,43.01800742324434],[-89.54800447980712,43.01809091991176],[-89.54810379426632,43.01816035629988],[-89.54819738459605,43.01821858115167],[-89.54827448349985,43.018253415724],[-89.54835097617489,43.01826226792911],[-89.54846344619246,43.01827210996006],[-89.5485629303147,43.01827053326379],[-89.54864317960589,43.0182729149038],[-89.54987467993192,43.01827415508135],[-89.55002588790987,43.01827428675804],[-89.55012333327736,43.01827723356499],[-89.55025952914589,43.01828264935306],[-89.5503615896917,43.01828936533698],[-89.55045203838219,43.01830371096027],[-89.55055662538628,43.01831980785228],[-89.55065031852615,43.01833195054529],[-89.55074643879863,43.01834962829538],[-89.55083585786248,43.01836614458861],[-89.55089690386112,43.01837618407944],[-89.5509478657665,43.01838845497326],[-89.55100752681074,43.0184025436382],[-89.55106320102895,43.01841686490525],[-89.5511298321661,43.01843699747445],[-89.55119948040165,43.0184555622218],[-89.55128303574699,43.01847843915769],[-89.55133774679658,43.01848796148732],[-89.55140973779416,43.01851534528445],[-89.55152222152107,43.01855535494491],[-89.5516307735057,43.01859255344412],[-89.55168879027924,43.01861136135843],[-89.55174766840308,43.01863043579755],[-89.55180964648358,43.01865402648056],[-89.55190061709352,43.01869588885588],[-89.55197095838994,43.01872986766016],[-89.55205392598286,43.01876722051723],[-89.5521275261052,43.01880273657029],[-89.55221711394681,43.01885465964102],[-89.55227216398012,43.01888678650948],[-89.55232326295321,43.01891658916377],[-89.552377035881,43.01895841847139],[-89.55241394930897,43.0189985745471],[-89.55244453843166,43.01903805081461],[-89.55247631851502,43.01908680870334],[-89.55249471175624,43.01912810194015],[-89.55251633645425,43.01920557857197],[-89.55252015690122,43.019244789913],[-89.55256927939563,43.01945473722107],[-89.55261103945585,43.01965439615879],[-89.55266377517641,43.01983689543146],[-89.5527066419562,43.02004032390401],[-89.55272375422005,43.02025520352635],[-89.55273156283876,43.02049138842982],[-89.55271189794456,43.02071608168627],[-89.55265895922912,43.02092172313633],[-89.55258593743694,43.02111300318287],[-89.55247711533417,43.02130224470653],[-89.55242267024732,43.02135919314764],[-89.55236141130518,43.02142872188529],[-89.55217681915663,43.021574512372],[-89.55198924244661,43.02169903077915],[-89.55177639909981,43.02180826543751],[-89.5515880672431,43.02190676430251],[-89.55151747012113,43.02193564349047],[-89.55145322962154,43.02196542416608],[-89.55138324007336,43.02198408983051],[-89.55129641326612,43.02201959346007],[-89.55121057286998,43.02204551191311],[-89.55107162407938,43.02208596018039],[-89.55090769434617,43.02214163542072],[-89.55082816197604,43.02214883078873],[-89.55067110477745,43.02219070384498],[-89.5504808696112,43.02226088066016],[-89.55034010570016,43.02231466927487],[-89.55001495500116,43.02243230965658],[-89.54987956228102,43.02249528144197],[-89.5496908277577,43.02256845014369],[-89.54949005671061,43.02263645897831],[-89.54936815383653,43.02262994723292],[-89.54927770378752,43.02261615740125],[-89.54917279219094,43.02260177759062],[-89.54900646478251,43.0225629851746],[-89.54882739633604,43.02255708661632],[-89.54863713325891,43.0225029559192],[-89.54846338139271,43.0224664344775],[-89.54832784358248,43.02246608520251],[-89.54816814359012,43.02240040128641],[-89.54792364239479,43.02228879187017],[-89.54764724303472,43.02213737838299],[-89.54736991890672,43.02200681008034],[-89.54695561849248,43.02177415628685],[-89.54669125111543,43.02162349187349],[-89.54650270993555,43.02152429914437],[-89.54629956763789,43.02138317366232],[-89.54606590849795,43.02111272524012],[-89.54586210616166,43.02086144040221],[-89.54572715335301,43.02070338175516],[-89.54563235199788,43.02055296108916],[-89.54556732684144,43.02038068533541],[-89.54552580245777,43.02023135109415],[-89.54548343957177,43.02005053912474],[-89.54530669905803,43.01916494776643],[-89.54526678017625,43.01897941601051],[-89.54521299386764,43.01887548847445],[-89.54509681092149,43.01870337818438],[-89.54488132727774,43.0185359199199],[-89.54471269560443,43.01838403110171],[-89.54441789978914,43.01817573089891],[-89.5439839200862,43.01784777784023],[-89.54382820673285,43.01770578182988],[-89.54372274052523,43.01752216756939],[-89.543695585139,43.01731671421683],[-89.54369730347219,43.01731252105671],[-89.5437055850734,43.01711170930905],[-89.54372861440541,43.01695203750916],[-89.54380243207251,43.01677483182713],[-89.54391018477892,43.01666034888827],[-89.54401083032519,43.01657624888954],[-89.54414549502555,43.01652672112488],[-89.54426295781629,43.01649176764677],[-89.5444682768741,43.01647858016229],[-89.54453226797507,43.01648073267383],[-89.54513819596102,43.01650096222039],[-89.54556989075621,43.01652930734064],[-89.54579948846947,43.01655667585153],[-89.54595424334646,43.01661816459011],[-89.54648366055562,43.01686849326187],[-89.54679007217783,43.01705564396918],[-89.54716753822066,43.01736524452807],[-89.54744446167925,43.01762645084042],[-89.54756124630312,43.01780769071974],[-89.54760005981518,43.01800300431127],[-89.54758593970853,43.01814711143805],[-89.54750281734496,43.01822418421561],[-89.54732911357522,43.01824913943266],[-89.54723865141798,43.01828229621609],[-89.54716545966207,43.01832416019812],[-89.54709089964638,43.01837791227657],[-89.5470206874597,43.01844170453619],[-89.54696480215912,43.01853035659818],[-89.54692290406719,43.01861665001559],[-89.54694826156963,43.01879102496369],[-89.54708747565343,43.01903291544078],[-89.54719223571378,43.01911659276984],[-89.54732328331374,43.01924334650592],[-89.54748394361557,43.01935726970802],[-89.54766759021666,43.01949791272399],[-89.54790289908347,43.01967012285348],[-89.54811769627442,43.01983485430338],[-89.5484523091801,43.02004086653453],[-89.54867243775143,43.02019654789225],[-89.54891269024388,43.02036785374627],[-89.54923687264363,43.02061434773552],[-89.54949168649993,43.02078283655887],[-89.54973489932645,43.02095249112134],[-89.54996529430528,43.02115146265391],[-89.55013755063119,43.02129568699623],[-89.55030831868385,43.02149239186052],[-89.55043732258822,43.02166623405245],[-89.55052816674412,43.02183458492299],[-89.55054450525532,43.0219485653864],[-89.55053434746311,43.02208398394841],[-89.5504647469337,43.02218039073134],[-89.55036527729352,43.02227587165098],[-89.55019942119245,43.02236719967524],[-89.54966159225697,43.02260226848881],[-89.54942570551249,43.02260443008162],[-89.54913124226333,43.02256897989565],[-89.54884451733066,43.02253233388294],[-89.54873330139067,43.02243531777015],[-89.54860489984807,43.02233765770912],[-89.54846801759626,43.02222789736723],[-89.5481728551516,43.02198680649094],[-89.54767391129994,43.02157287704332],[-89.54729301486171,43.02125985055011],[-89.54684906889746,43.02089590235937],[-89.54651908179873,43.02061704939221]]}}
