{"type":"Feature","properties":{"name":"WorldXC-10k","legacyMeetId":"8311","distance":"10k"},"geometry":{"type":"LineString","coordinates":[[-84.15570469369969,30.4275962697415],[-84.15285901742766,30.42670833249764],[-84.15236436806455,30.42668340349811],[-84.15215742204532,30.42673428887669],[-84.15190631915436,30.4268206194915],[-84.15170244829726,30.42701019782655],[-84.151647920379,30.42708832869121],[-84.15159539171296,30.42760180034015],[-84.15155592032407,30.42795666254208],[-84.15150612360137,30.42812159166148],[-84.15136778089271,30.4282470048515],[-84.15110322068763,30.42828166685479],[-84.1504145168726,30.42836567777047],[-84.14990805553917,30.42839078116661],[-84.14971304010088,30.42838751615898],[-84.14963294046021,30.42869414863746],[-84.14964929697382,30.42899538777504],[-84.14963321526471,30.42928716343022],[-84.1498137820498,30.42948757448628],[-84.15041836779335,30.4299134783862],[-84.15052158292985,30.42998148014103],[-84.15076855053216,30.4299975846666],[-84.15072609079257,30.4295421683739],[-84.15053397441787,30.429071169939],[-84.15069942591671,30.42874186817425],[-84.15137906791755,30.42862311749241],[-84.1521524384212,30.42866295842094],[-84.15265840763993,30.42851794988195],[-84.15321830565155,30.42834997650752],[-84.1538081658134,30.4283387337505],[-84.15437707837495,30.42865566922649],[-84.15479087365229,30.42901029210233],[-84.155489412019,30.42905614931141],[-84.15586732985355,30.42911636688135],[-84.15618003341913,30.42904348829775],[-84.15637413209433,30.42861023353542],[-84.1564380028427,30.42833687154524],[-84.15616057612885,30.4281494887573],[-84.15508152393427,30.42741717600385],[-84.15422535771565,30.42716043863249],[-84.15298594561492,30.42674373064729],[-84.15279660139869,30.42670595136238],[-84.15231959943492,30.4266851473232],[-84.15199113972217,30.42678737267194],[-84.15173912671621,30.42698023469849],[-84.15164404661243,30.42713378767673],[-84.15161135760276,30.4275138645435],[-84.15158244634429,30.4278089864361],[-84.15151758434511,30.42805936360363],[-84.15144801874321,30.42819576953293],[-84.15123992494865,30.4282815740452],[-84.15070304981127,30.42831876923018],[-84.14948670503819,30.42839391250019],[-84.14899163672015,30.4284070291424],[-84.14883339254719,30.42857137634389],[-84.14872342327726,30.4288316998363],[-84.14869882183731,30.42903759310992],[-84.14882961694485,30.42937421753086],[-84.1490968400743,30.42938795036262],[-84.1495213555982,30.4294398080478],[-84.1503293872893,30.42988027625345],[-84.15069938508894,30.43000127849154],[-84.150777418943,30.42995447644046],[-84.15073858042076,30.42962715196622],[-84.15051751251353,30.42909074771694],[-84.15066757193438,30.42878695534306],[-84.15133453559167,30.4286218750036],[-84.1522103941042,30.42865220846754],[-84.15272294191543,30.42848601935377],[-84.15313650740978,30.42835629483886],[-84.15334107494269,30.42833578704795],[-84.15374736238824,30.42833700738689],[-84.15430461961775,30.42862924779002],[-84.15474203247079,30.42897726524802],[-84.15551204732033,30.42904806087873],[-84.15585871689879,30.42909801732027],[-84.15616275401437,30.4290442118927],[-84.15636182276663,30.42863480578625],[-84.15640043446923,30.42850153542788],[-84.15640598953955,30.42831499318356],[-84.15597655838276,30.42802606948713],[-84.15505680576764,30.42739559633681],[-84.15417907704412,30.42714673447017],[-84.15305703565156,30.42675089139482],[-84.15291184959436,30.42671807345241],[-84.15272701422309,30.42668753671945],[-84.152418875556,30.42667764197842],[-84.1522906223243,30.42667539793932],[-84.15203112529512,30.42676171916197],[-84.15194958614256,30.4268211299193],[-84.15167199456623,30.42705664888233],[-84.15160757550869,30.42745665054362],[-84.15157849023979,30.42774950095365],[-84.15155473776136,30.42788174409199],[-84.15153959930647,30.42801811436766],[-84.15140030841361,30.42820877740165],[-84.15128880414755,30.42826385587765],[-84.1511632342328,30.42828775260322],[-84.15086891015505,30.42830845664615],[-84.1505057518435,30.42836895435953],[-84.15014432411826,30.42837362831229],[-84.14982590333796,30.42836476831128],[-84.14906037024883,30.42841534716935],[-84.14892216017726,30.4284709148009],[-84.14879105527184,30.42863184982212],[-84.14869239820493,30.42891339789325],[-84.14874075423671,30.42917506822358],[-84.14878847473756,30.42937939741282],[-84.14903326695662,30.4293970245555],[-84.14956925723234,30.42944749193146],[-84.15046045295082,30.42995251366676],[-84.15058520428896,30.43000278096263],[-84.15081305508626,30.42997455650383],[-84.15074511732182,30.42968253316603],[-84.15051625061055,30.42906188255161],[-84.15065718244338,30.4287469095236],[-84.15143143535147,30.42862008538887],[-84.15211054351794,30.42866938186238],[-84.15276425047608,30.42848309325863],[-84.15329059566773,30.42832893965278],[-84.15386868821608,30.42836502015691],[-84.15448330221402,30.42875652603576],[-84.15469894242464,30.42895004108717],[-84.15492097829778,30.4290051710286],[-84.15551064611468,30.4290692383541],[-84.15582597059404,30.4291024220261],[-84.15616672822242,30.42903900496325],[-84.15638213883402,30.4285959059819],[-84.1564089599502,30.4284028803977],[-84.1563790519222,30.42828560542197],[-84.15610287694945,30.42812385867157],[-84.15594410054133,30.42800190436376],[-84.15501427121318,30.42738211148375],[-84.15422029767612,30.42713544659661],[-84.15310081105464,30.42676479750565],[-84.1527577356747,30.42669267238369],[-84.15246860659005,30.42667522116916],[-84.1522356784708,30.42666230084503],[-84.1520558634903,30.42674711352489],[-84.15177188780959,30.42694615708637],[-84.15163242626906,30.42717095907078],[-84.15158803166503,30.42766878084218],[-84.15156764276507,30.42779390691121],[-84.15153285879002,30.42799090456742],[-84.15146710293453,30.42814269349357],[-84.15126167486089,30.42828435487024],[-84.15100593736739,30.42829225826719],[-84.15057261337563,30.42834851761603],[-84.14912171175331,30.42840337271608],[-84.14895831937127,30.4284553767875],[-84.14887054296558,30.42853095275699],[-84.14874246500669,30.42875876356107],[-84.14869617550234,30.42899420053288],[-84.14871072851696,30.42913507814962],[-84.14879939560537,30.42931676798778],[-84.1488687818131,30.42937468685477],[-84.14914890875505,30.42939274905667],[-84.1495976871691,30.42943240805761],[-84.15032396195727,30.429856996845],[-84.15052697796371,30.42993455914294],[-84.15061914097258,30.42997725623619],[-84.15079361235675,30.42999228041386],[-84.15076327800911,30.42963411345606],[-84.1505521860356,30.4291033810379],[-84.15057319030544,30.42895434080472],[-84.1507007057413,30.42872484720249],[-84.15139748739392,30.42861367865691],[-84.15173267745868,30.42864053453003],[-84.15225899409042,30.42862875272225],[-84.15280796743916,30.42845795296742],[-84.15318298714458,30.42835984784675],[-84.15337509184423,30.42833815069199],[-84.15374950349592,30.42833646295465],[-84.1543302590078,30.42865488388391],[-84.15470790913224,30.42897282915897],[-84.15547143474815,30.42904008135375],[-84.15574184140708,30.42907780134148],[-84.15590265279937,30.42908473658714],[-84.15617378549736,30.4289808378591],[-84.15627886653435,30.42878550730288],[-84.15640449323709,30.42857543182787],[-84.1564167970623,30.42836227565116],[-84.15641298410233,30.42828518082252],[-84.15623934346185,30.4281896610877],[-84.15586491190066,30.42794222783951],[-84.15513701656288,30.42745221182292],[-84.15498768936152,30.42737123886676],[-84.15421820758489,30.42713435503671],[-84.1531395516439,30.42678520287944],[-84.15296233460417,30.42672532176384],[-84.15237549218449,30.42666194254981],[-84.15208858163227,30.42672623248869],[-84.1516850058873,30.42703062297819],[-84.15161977514495,30.42720992765615],[-84.15158535692693,30.42763615097461],[-84.1515291809471,30.42794134511684],[-84.15147297006985,30.4281208933124],[-84.15132265895922,30.42823777153313],[-84.15092706960608,30.42830149023801],[-84.15022066496243,30.42835783986628],[-84.1497902603396,30.42838005718961],[-84.14919179672135,30.42840348295593],[-84.14899512008122,30.42843570298032],[-84.14889157481691,30.42850477834575],[-84.14875518068669,30.42868727984875],[-84.14870256487677,30.42887459326392],[-84.1486994873823,30.4290764453907],[-84.14875224263754,30.42926152219555],[-84.14881795641293,30.42934712359279],[-84.14917286609133,30.42939618770864],[-84.14954277667822,30.42941611578643],[-84.150381652078,30.42989154278059],[-84.15057123278068,30.42997509856599],[-84.15064846079993,30.43000222652186],[-84.15081265655415,30.42994163723337],[-84.15073838206051,30.42952848799569],[-84.15055979672861,30.42914259533899],[-84.15054897266178,30.42900431843042],[-84.1507287368215,30.42873936753531],[-84.151427342329,30.42864611799718],[-84.15179154813536,30.42862800257002],[-84.15229004718057,30.42863803474813],[-84.15284058036288,30.42845581044147],[-84.15331339432565,30.42835218143983],[-84.15382915583774,30.42836328557808],[-84.15426520848025,30.42860878529262],[-84.15452446493201,30.4288060997366],[-84.15467572661676,30.4289482776129],[-84.15481623150272,30.42896906337826],[-84.15575601407227,30.42905965129992],[-84.15614214634725,30.42904331309581],[-84.15638295496483,30.42856611985635],[-84.15640943735023,30.42844613978237],[-84.15640033345768,30.42833281789813],[-84.15636838711225,30.42825920146457],[-84.15602660906553,30.42805977096767],[-84.1552787986961,30.42771595359068],[-84.1540868003504,30.42735004372177]]}}
