{"type":"Feature","properties":{"name":"WorldCross-6k","legacyMeetId":"8311","distance":"6k"},"geometry":{"type":"LineString","coordinates":[[-84.15570469369969,30.4275962697415],[-84.15285901742766,30.42670833249764],[-84.15236436806455,30.42668340349811],[-84.15215742204532,30.42673428887669],[-84.15190631915436,30.4268206194915],[-84.15170244829726,30.42701019782655],[-84.151647920379,30.42708832869121],[-84.15159539171296,30.42760180034015],[-84.15155592032407,30.42795666254208],[-84.15150612360137,30.42812159166148],[-84.15136778089271,30.4282470048515],[-84.15110322068763,30.42828166685479],[-84.1504145168726,30.42836567777047],[-84.14990805553917,30.42839078116661],[-84.14971304010088,30.42838751615898],[-84.14963294046021,30.42869414863746],[-84.14964929697382,30.42899538777504],[-84.14963321526471,30.42928716343022],[-84.1498137820498,30.42948757448628],[-84.15041836779335,30.4299134783862],[-84.15052158292985,30.42998148014103],[-84.15076855053216,30.4299975846666],[-84.15072609079257,30.4295421683739],[-84.15053397441787,30.429071169939],[-84.15069942591671,30.42874186817425],[-84.15137906791755,30.42862311749241],[-84.1521524384212,30.42866295842094],[-84.15265840763993,30.42851794988195],[-84.15321830565155,30.42834997650752],[-84.1538081658134,30.4283387337505],[-84.15437707837495,30.42865566922649],[-84.15479087365229,30.42901029210233],[-84.155489412019,30.42905614931141],[-84.15586732985355,30.42911636688135],[-84.15618003341913,30.42904348829775],[-84.15637413209433,30.42861023353542],[-84.1564380028427,30.42833687154524],[-84.15616057612885,30.4281494887573],[-84.15508152393427,30.42741717600385],[-84.15422535771565,30.42716043863249],[-84.15298594561492,30.42674373064729],[-84.15279660139869,30.42670595136238],[-84.15231959943492,30.4266851473232],[-84.15199113972217,30.42678737267194],[-84.15173912671621,30.42698023469849],[-84.15164404661243,30.42713378767673],[-84.15161135760276,30.4275138645435],[-84.15158244634429,30.4278089864361],[-84.15151758434511,30.42805936360363],[-84.15144801874321,30.42819576953293],[-84.15123992494865,30.4282815740452],[-84.15070304981127,30.42831876923018],[-84.14948670503819,30.42839391250019],[-84.14899163672015,30.4284070291424],[-84.14883339254719,30.42857137634389],[-84.14872342327726,30.4288316998363],[-84.14869882183731,30.42903759310992],[-84.14882961694485,30.42937421753086],[-84.1490968400743,30.42938795036262],[-84.14953629081312,30.42942852454454],[-84.1503293872893,30.42988027625345],[-84.15069938508894,30.43000127849154],[-84.150777418943,30.42995447644046],[-84.15073858042076,30.42962715196622],[-84.15054211079588,30.42898979667556],[-84.15066757193438,30.42878695534306],[-84.15133453559167,30.4286218750036],[-84.1522103941042,30.42865220846754],[-84.15272294191543,30.42848601935377],[-84.15313650740978,30.42835629483886],[-84.15334107494269,30.42833578704795],[-84.15374736238824,30.42833700738689],[-84.15430461961775,30.42862924779002],[-84.15474203247079,30.42897726524802],[-84.15551204732033,30.42904806087873],[-84.15585871689879,30.42909801732027],[-84.15616275401437,30.4290442118927],[-84.15636182276663,30.42863480578625],[-84.15639510008766,30.42846646181485],[-84.15641942975377,30.42831660893507],[-84.15597655838276,30.42802606948713],[-84.15505680576764,30.42739559633681],[-84.15417907704412,30.42714673447017],[-84.15305703565156,30.42675089139482],[-84.15291184959436,30.42671807345241],[-84.15272701422309,30.42668753671945],[-84.152418875556,30.42667764197842],[-84.1522906223243,30.42667539793932],[-84.15203112529512,30.42676171916197],[-84.15194958614256,30.4268211299193],[-84.15167199456623,30.42705664888233],[-84.15160757550869,30.42745665054362],[-84.15157849023979,30.42774950095365],[-84.15155473776136,30.42788174409199],[-84.15153959930647,30.42801811436766],[-84.15140030841361,30.42820877740165],[-84.15128880414755,30.42826385587765],[-84.1511632342328,30.42828775260322],[-84.15086891015505,30.42830845664615],[-84.1505057518435,30.42836895435953],[-84.15014432411826,30.42837362831229],[-84.14982590333796,30.42836476831128],[-84.14906037024883,30.42841534716935],[-84.14892216017726,30.4284709148009],[-84.14879105527184,30.42863184982212],[-84.14869239820493,30.42891339789325],[-84.14874075423671,30.42917506822358],[-84.14878847473756,30.42937939741282],[-84.14903326695662,30.4293970245555],[-84.14956925723234,30.42944749193146],[-84.15046045295082,30.42995251366676],[-84.15058520428896,30.43000278096263],[-84.15081305508626,30.42997455650383],[-84.15074511732182,30.42968253316603],[-84.15051625061055,30.42906188255161],[-84.15065718244338,30.4287469095236],[-84.15143143535147,30.42862008538887],[-84.15211054351794,30.42866938186238],[-84.15276425047608,30.42848309325863],[-84.15329059566773,30.42832893965278],[-84.15386868821608,30.42836502015691],[-84.15448330221402,30.42875652603576],[-84.15469894242464,30.42895004108717],[-84.15492097829778,30.4290051710286],[-84.15551064611468,30.4290692383541],[-84.15582597059404,30.4291024220261],[-84.15616672822242,30.42903900496325],[-84.15638213883402,30.4285959059819],[-84.1564089599502,30.4284028803977],[-84.1563790519222,30.42828560542197],[-84.15610287694945,30.42812385867157],[-84.15504125696756,30.42765759153971],[-84.15408346556914,30.42734097808963]]}}
